Loc,Type,Name,Address,City,State,Postal Code,Tel,Lattitude,Longtitude
1,1,Target Stores,5115 17th Ave SE, Calgary, AB,T2A 0V8,403-776-9730,50.996067,-114.073148
1,1,Target Stores,2020 Sherwood Dr, Sherwood Park, AB,T8A 3H9,780-640-9170,51.0832739,-114.1622539
1,1,Target Stores,11801 100 St, Grande Prairie, AB,T8V 3Y2,780-833-4460,50.901957,-114.0648171
1,1,Target Stores,3292 Dunmore Rd SE, Medicine Hat, AB,T1B 2R4,403-488-0901,50.9961196,-114.0718534
1,1,Target Stores,4900 Molly Bannister Dr, Red Deer, AB,T4R 1N9,403-755-6550,53.5222037,-113.6181289
1,1,Target Stores,8882 170th St NW, Edmonton, AB,T5T 3J7,780-670-2200,53.5229251,-113.4551874
1,1,Target Stores,375 St. Albert Trail ,St. Albert ,AB,T8N 3K8,780-651-5671,53.4545331,-113.4344439
1,1,Target Stores,116 Bonnie Doon Shopping Centre NW, Edmonton, AB,T6C 4E3,780-409-3605,55.1877954,-118.793796
1,1,Target Stores,2525 36th St NE, Calgary, AB,T1Y 5S4,403-440-1560,52.24314,-113.8098217
1,1,Target Stores,3625 Shaganappi Trail NW, Calgary, AB,T3A 0E2,403-776-9280,53.6427714,-113.6227059
1,1,Target Stores,295 Shawville Blvd SE, Calgary, AB,T2Y 3H9,403-770-5110,53.5313845,-113.2941154
1,1,Target Stores,5696 Richmond Rd SW, Calgary, AB,T3H 3P8,403-776-8870,50.0324127,-125.2473539
1,1,Target Stores,2331 66th St NW, Edmonton, AB,T6K 4B6,780-670-2220,53.4545331,-113.4344439
1,1,Target Stores,6455 Macleod Trail SW, Calgary, AB,T2H 0L1,403-775-0860,50.9961196,-114.0718534
1,1,Target Stores,1324 Island Hwy, Campbell River, BC,V9W 8C9,778-336-9400,50.0324127,-125.2473539
1,1,Target Stores,4750 RutherfoRd Rd, Nanaimo, BC,V9T 4K6,250-760-3000,49.2146746,-124.0290657
1,1,Target Stores,2801 Cliffe Ave, Courtenay, BC,V9N 2L8,778-335-9400,49.6747554,-124.9818672
1,1,Target Stores,8311 Lansdowne Rd, Richmond, BC,V6X 3A4,604-234-2020,49.1739414,-123.1314992
1,1,Target Stores,7155 120th St, Delta, BC,V4E 2B1,604-595-2380,49.1337503,-122.8904304
1,1,Target Stores,45585 Luckakuck Way, Chilliwack, BC,V2R 1A1,778-287-9400,49.1408297,-121.9628599
1,1,Target Stores,11850 224th St, Maple Ridge, BC,V2X 8S1,604-476-5000,49.2179947,-122.599836
1,1,Target Stores,1500 Cranbrook St N, Cranbrook, BC,V1C 3S8,778-261-9400,49.5248442,-115.7501288
1,1,Target Stores,2929 Barnet Hwy, Coquitlam, BC,V3B 5R5,778-284-2550,49.2795486,-122.7989549
1,1,Target Stores,10153 King George Blvd,Surrey,BC,V3T 5H9,604-495-9030,49.1862246,-122.8464406
1,1,Target Stores,4900 27th St, Vernon, BC,V1T 7G7,250-275-8400,50.2829073,-119.2666455
1,1,Target Stores,19705 Fraser Hwy, Langley, BC,V3A 7E9,778-777-9020,49.1135065,-122.6786332
1,1,Target Stores,1876 Cooper Rd, Kelowna, BC,V1Y 8V5,250-448-0930,49.8751956,-119.4421275
1,1,Target Stores,4545 Central Blvd,Burnaby, BC,V5H 4J1,604-678-6680,49.2254577,-123.0024233
1,1,Target Stores,2999 Massey Dr, Prince George, BC,V2N 2S9,250-277-8070,53.9007444,-122.7766457
1,1,Target Stores,1225 Sumas Way, Abbotsford, BC,V2S 8H2,604-755-1700,49.0301866,-122.2655041
1,1,Target Stores,945 Columbia St W, Kamloops, BC,V2C 1L5,250-434-7280,50.67216,-120.3442366
1,1,Target Stores,3170 Tillicum Rd,Victoria,BC,V9A 7C5,250-220-0360,48.4538149,-123.3937727
1,1,Target Stores,1545 Regent Ave W, Winnipeg, MB,R2C 4H7,204-654-6780,49.8970556,-97.0613096
1,1,Target Stores,35 Lakewood Blvd, Winnipeg, MB,R2J 2M8,204-258-2240,49.8546464,-97.0756165
1,1,Target Stores,1080 Grant Ave, Winnipeg, MB,R3M 2A6,204-285-3570,49.8596617,-97.1637437
1,1,Target Stores,1570 18th St, Brandon, MB,R7A 5C5,204-578-3900,49.8252133,-99.9642089
1,1,Target Stores,32 Prince St, Sydney, NS,B1P 5K7,902-567-5353,46.1391158,-60.1878917
1,1,Target Stores,194 Chain Lake Dr, Halifax, NS,B3S 1C5,902-450-2440,44.649861,-63.6744238
1,1,Target Stores,21 MicMac Rd, Dartmouth, NS,B3A 4K7,902-433-2120,44.6847461,-63.5608353
1,1,Target Stores,1658 Bedford Hwy, Bedford, NS,B4A 2X9,902-832-6980,44.7356149,-63.6551394
1,1,Target Stores,1180 Prospect St, Fredericton, NB,E3B 5C7,506-443-4640,45.9394026,-66.6617269
1,1,Target Stores,1380 Mountain Rd, Moncton, NB,E1C 2T8,506-386-0040,46.1096505,-64.8306419
1,1,Target Stores,517 Westmorland Rd, Saint John, NB,E2J 4B8,506-649-5360,45.308839,-66.0172088
1,1,Target Stores,44 Maple Valley Rd, Corner Brook, NL,A2H 6L8,709-639-4400,48.9485906,-57.9162505
1,1,Target Stores,24 Stavanger Dr, St. John's, NL,A1A 5E8,709-733-5100,47.6136453,-52.7164627
1,1,Target Stores,1000 Fort William Rd, Thunder Bay, ON,P7B 6B9,807-624-2920,48.4022692,-89.2440292
1,1,Target Stores,785 Wonderland Rd. S, London, ON,N6K 1M6,519-641-9636,42.9477319,-81.2935171
1,1,Target Stores,300 Eagleson Rd, Kanata, ON,K2M 1C9,613-270-2000,45.3013111,-75.8772403
1,1,Target Stores,1576 Upper James St, Hamilton, ON,L9B 1K3,905-574-9800,43.2037211,-79.8926704
1,1,Target Stores,275 Brockville St, Smiths Falls, ON,K7A 4Z6,613-285-2800,44.8833437,-76.0180435
1,1,Target Stores,640 Queenston Rd, Hamilton, ON,L8K 1K2,905-573-4330,43.2298613,-79.7742717
1,1,Target Stores,671 Grand Ave W, Chatham, ON,N7L 1C5,519-436-9612,42.3964078,-82.2117935
1,1,Target Stores,1131 Dundas St W, Mississauga, ON,L5C 1C5,905-272-6060,43.5563753,-79.644014
1,1,Target Stores,285 Taunton Rd E, Oshawa, ON,L1G 3V2,905-576-8600,43.9340158,-78.8673902
1,1,Target Stores,401 Kent St W, Lindsay, ON,K9V 4Z1,705-340-4130,44.3485431,-78.7601955
1,1,Target Stores,17600 Yonge St, Newmarket, ON,L3Y 4Z1,905-967-1379,44.0564727,-79.4847636
1,1,Target Stores,55 Ontario St S, Milton, ON,L9T 2M3,905-875-5671,43.5178857,-79.8758303
1,1,Target Stores,945 Gardiners Rd, Kingston, ON,K7M 7H4,613-384-5731,44.2563363,-76.572171
1,1,Target Stores,355 Hespeler Road, Cambridge, ON,N1R 6B3,519-620-5830,43.3937513,-80.321042
1,1,Target Stores,6600 Yonge St, North York, ON,M2M 3X4,416-226-8795,43.797693,-79.419997
1,1,Target Stores,25 Peel Centre Dr, Brampton, ON,L6T 3R5,905-458-0006,43.7141653,-79.7247738
1,1,Target Stores,1585 Merivale Rd, Nepean, ON,K2G 3J4,613-274-3600,45.3528122,-75.7331423
1,1,Target Stores,1899 Algonquin Ave, North Bay, ON,P1B 4Y8,705-495-1004,46.3324901,-79.4662877
1,1,Target Stores,100 City Center Dr, Mississauga, ON,L5B 2C9,905-273-3550,43.5883089,-79.6457772
1,1,Target Stores,100 Kingston Rd E, Ajax, ON,L1Z 1G1,905-427-5680,43.8654022,-79.0073079
1,1,Target Stores,245 Strasburg Rd, Kitchener, ON,N2E 3W7,519-742-8006,43.4243121,-80.4892122
1,1,Target Stores,800 Niagara St N, Welland, ON,L3C 5Z4,905-732-1106,43.0149072,-79.2498695
1,1,Target Stores,1355 Kingston Rd, Pickering, ON,L1V 1B8,905-837-3300,43.8379438,-79.08774
1,1,Target Stores,1029 Brodie Dr, Orillia, ON,L3V 6H4,705-327-6580,44.6316841,-79.4335926
1,1,Target Stores,9350 Yonge St,Richmond Hill, ON,L4C 5G2,905-787-5700,43.8625346,-79.4351144
1,1,Target Stores,499 Main St S,Brampton,ON,L6Y 1N9,905-456-5030,43.667598,-79.735885
1,1,Target Stores,1455 Rebecca St, Oakville, ON,L6L 1Z9,905-847-8058,43.413145,-79.7035113
1,1,Target Stores,60 Martindale Cresent, Ancaster, ON,L9K 1J9,905-648-1207,43.2292043,-79.9420696
1,1,Target Stores,550 King St N, Waterloo, ON,N2L 5W6,519-883-2910,43.49749,-80.5293258
1,1,Target Stores,1485 Lasalle Blvd, Sudbury, ON,P3A 5H7,705-525-7486,46.5220031,-80.9403863
1,1,Target Stores,925 Ontario St, Stratford, ON,N5A 6W5,519-275-5030,43.3708023,-80.9495767
1,1,Target Stores,1680 Richmond St N, London, ON,N6G 3Y9,519-660-3100,43.0243564,-81.2781592
1,1,Target Stores,3100 Howard Ave, Windsor, ON,N8X 3Y8,519-967-3660,42.2746699,-83.0035562
1,1,Target Stores,250 The East Mall, Toronto, ON,M9B 3Y8,416-207-8400,43.6325534,-79.5542181
1,1,Target Stores,3003 Danforth Ave, Toronto, ON,M4C 1N1,416-698-4520,43.6896795,-79.2894885
1,1,Target Stores,221 Glendale Ave,St Catharines, ON,L2T 2K9,905-704-7780,43.1324463,-79.2261618
1,1,Target Stores,777 Guelph Line, Burlington, ON,L7R 3N2,905-633-3910,43.3482133,-79.7933624
1,1,Target Stores,45 Overlea Blvd, Toronto, ON,M4H 1C3,416-422-7210,43.7058101,-79.347044
1,1,Target Stores,2277 Riverside Dr, Ottawa, ON,K1H 7X6,613-260-4130,45.386683,-75.6800185
1,1,Target Stores,15400 Bayview Ave, Aurora, ON,L4G 7J1,905-841-9460,44.0087492,-79.4458279
1,1,Target Stores,900 Tower St S, Fergus, ON,N1M 3N7,519-787-9460,43.6963268,-80.3655718
1,1,Target Stores,1211 Barton St E, Hamilton, ON,L8H 2V4,905-548-8030,43.2504233,-79.8114977
1,1,Target Stores,2383 Hwy 2, Bowmanville, ON,L1C 4V4,905-697-4760,43.9093781,-78.7125919
1,1,Target Stores,175 Stone Rd W, Guelph, ON,N1G 5L4,519-767-3980,43.5208341,-80.2326657
1,1,Target Stores,2000 Appleby Line, Burlington, ON,L7L 7H7,905-336-4180,43.394269,-79.7919667
1,1,Target Stores,30 Horseshoe Crescent RR2, Waterdown, ON,L0R 2H2,905-690-5980,43.3159603,-79.9163799
1,1,Target Stores,110 Place D'orléans Dr,Ottawa , ON,K1C 2L9,613-590-5960,45.4790121,-75.5175343
1,1,Target Stores,330 Taunton Rd E, Whitby, ON,L1R 0H4,905-620-9460,43.9188032,-78.9419979
1,1,Target Stores,80 Great Lakes Dr, Brampton, ON,L6R 2K7,905-458-3830,43.7319394,-79.7628212
1,1,Target Stores,7190 Morrison St, Niagara Falls, ON,L2E 7K5,905-374-5077,43.1015782,-79.1166258
1,1,Target Stores,670 University Ave, Charlottetown, PE,C1E 1H6,902-629-6810,46.2646671,-63.1469611
1,1,Target Stores,600 Pierre-Caisse St., Saint-Jean-sur-Richelieu, QC,J3A 1M1,450-359-2230,45.329944,-73.280654
1,1,Target Stores,920 Maloney Blvd. O. , Gatineau, QC,J8T 3R6,819-561-2200,45.4786986,-75.6928406
1,1,Target Stores,8585 Lacroix Blvd., Saint-Georges, QC,G5Y 5L6,418-220-2020,46.1312231,-70.6973626
1,1,Target Stores,3050 boul. de Portland, Sherbrooke, QC,J1L 1K1,819-565-0115,45.4014048,-71.951703
1,1,Target Stores,4575 boul. des Forges, Trois-Rivières, QC,G8Y 1V9,819-370-2300,46.3597522,-72.5906361
1,1,Target Stores,7091 boul. Newman, Lasalle, QC,H8N 1X1,514-365-1405,45.4450346,-73.6132595
1,1,Target Stores,195 boul. Hymus, Pointe-Claire, QC,H9R 1E9,514-694-8784,45.4606432,-73.8202744
1,1,Target Stores,419 boul. Jessop, Rimouski, QC,G5L 7Y5,418-734-2200,48.4676915,-68.5132454
1,1,Target Stores,7200 boul. Taschereau,Brossard,QC,J4W 1M9,450-466-3405,45.4595042,-73.468538
1,1,Target Stores,7696 Boulevard des Galeries d'Anjou ,Anjou, QC,H1M 1W7,514-493-2030,45.598424,-73.5670834
1,1,Target Stores,900 boul. Grignon,Saint-Jérôme, QC,J7Y 3S7,450-660-7000,45.7945486,-74.0155
1,1,Target Stores,450 boul. Arthur-Sauvé,Saint-Eustache, QC,J7R 4Z3,450-974-5470,45.5655952,-73.9062186
1,1,Target Stores,1160 Chomedey A-13 O.,Laval, QC,H7X 4C9,450-969-8910,45.5240674,-73.7774393
1,1,Target Stores,5401 boul. des Galeries, Quebec, QC,G2K 1N4,418-623-0301,46.8310776,-71.2987181
1,1,Target Stores,825 Rue Saint-Laurent O., Longueuil, QC,J4K 2V1,450-679-9420,45.5286146,-73.5145203
1,1,Target Stores,1500 Atwater Av. , Montreal, QC,H3Z 1X5,514-938-2580,45.4892109,-73.5851218
1,1,Target Stores,7275 Sherbrooke St. E., Montreal, QC,H1N 1E9,514-493-2280,45.5905577,-73.5394172
1,1,Target Stores,500 boul. des Promenades, Saint-Bruno-de-Montarville, QC,J3V 5J6,450-461-4030,45.525974,-73.3406679
1,1,Target Stores,1055A boul. Firestone, Joliette, QC,J6E 2W4,450-752-5710,46.0339363,-73.4280882
1,1,Target Stores,1200 boul. Alphonse-Desjardins, Levis, QC,G6V 6Y8,418-838-6240,46.7971362,-71.1693779
1,1,Target Stores,550 Wilfrid-Hamel Blvd., Quebec, QC,G1M 2S6,418-990-2000,46.8203173,-71.2488256
1,1,Target Stores,2700 Laurier Blvd., Quebec, QC,G1V 2L8,418-670-3730,46.7700072,-71.2846445
1,1,Target Stores,2525D Rue d'Annemasse, Boisbriand, QC,J7H 0A3,450-420-8500,45.6180014,-73.8513162
1,1,Target Stores,3275 Côte-Vertu Blvd., Saint-Laurent, QC,H4R 1Y8,514-339-0646,45.4961086,-73.7056917
1,1,Target Stores,1660 Le Corbusier Blvd., Laval, QC,H7S 1Z2,450-680-9650,45.5642599,-73.7312439
1,1,Target Stores,134 Primrose Dr, Saskatoon, SK,S7K 5S6,306-667-1460,52.1673709,-106.6393046
1,1,Target Stores,355 Albert St N, Regina, SK,S4R 3C4,306-564-1530,50.4815801,-104.6179705
1,1,Target Stores,3510 8th St E, Saskatoon, SK,S7H 0W6,306-667-2740,52.1145678,-106.5956644
2,1,Target Stores,1200 N Muldoon Rd,Anchorage,AK,99504,(907) 269-2100,61.2297853,-149.7463111
2,1,Target Stores,150 W 100th Ave,Anchorage,AK,99515,(907) 267-7500,61.1295244,-149.8804347
2,1,Target Stores,1801 E Parks Hwy,Wasilla,AK,99654,(907) 631-7200,61.5795082,-149.4090629
2,1,Target Stores,250 S Colonial Dr,Alabaster,AL,35007,(205) 564-2608,33.2442813,-86.8163773
2,1,Target Stores,4889 Promenade Pkwy,Bessemer,AL,35022,(205) 565-3760,33.2891965,-86.9624086
2,1,Target Stores,4616 Highway 280 S,Birmingham,AL,35242,(205) 408-7687,33.42571,-86.7122078
2,1,Target Stores,1654 Gadsden Hwy,Birmingham,AL,35235,(205) 655-6950,33.6024933,-86.6377118
2,1,Target Stores,5561 Grove Blvd,Birmingham,AL,35226,(205) 747-1654,33.4092779,-86.8320743
2,1,Target Stores,1698 US Highway 98,Daphne,AL,36526,(251) 621-3540,30.6025655,-87.8962846
2,1,Target Stores,1235 Point Mallard Parkway SE,Decatur,AL,35601,(256) 898-3036,34.560351,-86.970938
2,1,Target Stores,4601 Montgomery Hwy Ste 300,Dothan,AL,36303,(334) 340-1112,31.2665863,-85.4434612
2,1,Target Stores,372 Cox Creek Pkwy,Florence,AL,35630,(256) 764-6924,34.8421406,-87.6344132
2,1,Target Stores,3489 Lowery Pkwy,Fultondale,AL,35068,(205) 453-6032,33.6107373,-86.8320743
2,1,Target Stores,3820 Gulf Shores Pkwy,Gulf Shores,AL,36542,(251) 967-7001,30.3022372,-87.6828682
2,1,Target Stores,6275 University Dr NW,Huntsville,AL,35806,(256) 922-0189,34.7443167,-86.68042
2,1,Target Stores,2750 Carl T Jones Dr SE Ste 7,Huntsville,AL,35802,(256) 650-3491,34.6747407,-86.5441218
2,1,Target Stores,3150 Bel Air Mall,Mobile,AL,36606,(251) 471-9760,30.6735535,-88.1264209
2,1,Target Stores,790 Schillinger Rd S,Mobile,AL,36695,(251) 607-0265,30.6742885,-88.2287209
2,1,Target Stores,2576 Berryhill Rd,Montgomery,AL,36117,(334) 356-6265,32.360666,-86.160727
2,1,Target Stores,2640 Enterprise Dr,Opelika,AL,36801,(334) 705-0152,32.6204329,-85.4050396
2,1,Target Stores,400 Oxford Exchange Blvd,Oxford,AL,36203,(256) 231-2900,33.6142714,-85.8349648
2,1,Target Stores,2754 Legends Pkwy,Prattville,AL,36066,(334) 290-6000,32.4575419,-86.395983
2,1,Target Stores,1901 13th Ave E,Tuscaloosa,AL,35404,(205) 462-1064,33.193879,-87.518131
2,1,Target Stores,7377 Alcoa Road,Bryant,AR,72022,(501) 776-4360,34.604484,-92.530613
2,1,Target Stores,501 Elsinger Blvd,Conway,AR,72032,(501) 328-5739,35.086279,-92.41445
2,1,Target Stores,3545 N Shiloh Dr,Fayetteville,AR,72703,(479) 443-5517,36.1158659,-94.155782
2,1,Target Stores,4001 Phoenix Ave,Fort Smith,AR,72903,(479) 709-8940,35.3383772,-94.3892838
2,1,Target Stores,3000 E Highland Dr Ste A,Jonesboro,AR,72401,(870) 934-9661,35.8916172,-90.658333
2,1,Target Stores,12700 Chenal Pkwy,Little Rock,AR,72211,(501) 217-0200,34.755681,-92.414892
2,1,Target Stores,4000 McCain Blvd,North Little Rock,AR,72116,(501) 771-4220,34.788994,-92.228228
2,1,Target Stores,2404 Promenade Blvd,Rogers,AR,72758,(479) 986-1100,36.2998601,-94.1732322
2,1,Target Stores,3699 Hwy 95,Bullhead City,AZ,86442,(928) 704-5064,35.0520665,-114.5892373
2,1,Target Stores,951 N Promenade Pkwy,Casa Grande,AZ,85294,(520) 413-6971,32.8812012,-111.6836742
2,1,Target Stores,2880 S Alma School Rd,Chandler,AZ,85286,(480) 782-1881,33.263243,-111.861722
2,1,Target Stores,2150 N Arizona Ave,Chandler,AZ,85225,(480) 899-7986,33.3386283,-111.8438811
2,1,Target Stores,3425 W Frye Rd,Chandler,AZ,85226,(480) 281-0007,33.29596,-111.89981
2,1,Target Stores,1650 S Milton Rd,Flagstaff,AZ,86001,(928) 774-3500,35.184166,-111.65984
2,1,Target Stores,16825 E Shea Blvd,Fountain Hills,AZ,85268,(480) 837-8557,33.573522,-111.7178516
2,1,Target Stores,1515 E Warner Rd,Gilbert,AZ,85296,(480) 892-2282,33.334095,-111.757045
2,1,Target Stores,3931 S Gilbert Rd,Gilbert,AZ,85297,(480) 281-0201,33.2795664,-111.7893202
2,1,Target Stores,10404 N 43rd Ave,Glendale,AZ,85302,(623) 931-4434,33.579208,-112.152616
2,1,Target Stores,9350 W Northern Ave,Glendale,AZ,85305,(623) 877-8440,33.5514658,-112.2597676
2,1,Target Stores,995 S Cotton Lane,Goodyear,AZ,85338,(480) 627-3275,33.43751,-112.421844
2,1,Target Stores,1515 N Litchfield Rd,Goodyear,AZ,85395,(623) 935-3510,33.4625447,-112.3583573
2,1,Target Stores,1135 S Gilbert Rd,Mesa,AZ,85204,(480) 926-3443,33.3990327,-111.7972384
2,1,Target Stores,1525 S Power Rd,Mesa,AZ,85206,(480) 396-0403,33.388845,-111.683129
2,1,Target Stores,2151 N Power Rd,Mesa,AZ,85215,(480) 830-2035,33.4545209,-111.683085
2,1,Target Stores,1230 S Longmore Ave,Mesa,AZ,85202,(480) 281-0105,33.3920353,-111.8655074
2,1,Target Stores,5110 S Power Rd,Mesa,AZ,85212,(480) 281-0268,33.3231435,-111.6900673
2,1,Target Stores,10555 N Oracle Rd,Oro Valley,AZ,85737,(520) 219-9862,32.3968397,-110.9588704
2,1,Target Stores,8055 W Bell Rd,Peoria,AZ,85382,(623) 979-0250,33.636258,-112.228106
2,1,Target Stores,24890 N Lake Pleasant Pkwy,Peoria,AZ,85383,(623) 376-7300,33.7099264,-112.2754273
2,1,Target Stores,4734 E Ray Rd,Phoenix,AZ,85044,(480) 893-9333,33.32137,-111.981214
2,1,Target Stores,4515 E Thomas Rd,Phoenix,AZ,85018,(602) 952-1797,33.4801135,-111.9850859
2,1,Target Stores,2727 W Agua Fria Fwy,Phoenix,AZ,85027,(623) 869-8070,33.666611,-112.118879
2,1,Target Stores,5715 N 19th Ave,Phoenix,AZ,85015,(602) 308-3604,33.5202117,-112.0996465
2,1,Target Stores,12602 N Paradise Village Pkwy W,Phoenix,AZ,85032,(602) 953-2151,33.5995644,-111.9880102
2,1,Target Stores,7409 W Virginia Ave,Phoenix,AZ,85035,(623) 245-1800,33.475707,-112.218587
2,1,Target Stores,21001 N Tatum Blvd Ste 20,Phoenix,AZ,85050,(480) 419-9380,33.6629442,-112.0182329
2,1,Target Stores,2140 E Baseline Rd,Phoenix,AZ,85042,(602) 281-1119,33.379041,-112.034286
2,1,Target Stores,16806 N 7th St,Phoenix,AZ,85022,(602) 794-3601,33.6389315,-112.0658089
2,1,Target Stores,1851 E Highway 69,Prescott,AZ,86301,(928) 771-8400,34.5493089,-112.431845
2,1,Target Stores,21398 S Ellsworth Loop Rd,Queen Creek,AZ,85242,(480) 214-4810,33.2486638,-111.6342993
2,1,Target Stores,15444 N Frank Lloyd Wright Blvd,Scottsdale,AZ,85260,(480) 860-2800,33.6295444,-111.8883732
2,1,Target Stores,9000 E Indian Bend Rd,Scottsdale,AZ,85250,(480) 951-4403,33.5385022,-111.8652089
2,1,Target Stores,32351 N Scottsdale Rd,Scottsdale,AZ,85262,(480) 575-7043,33.7785919,-111.9257534
2,1,Target Stores,4151 E Highway 90,Sierra Vista,AZ,85635,(520) 452-0035,31.5546569,-110.2546186
2,1,Target Stores,13731 W Bell Rd,Surprise,AZ,85374,(623) 975-4122,33.6372994,-112.3537259
2,1,Target Stores,1818 E Baseline Rd,Tempe,AZ,85283,(480) 831-9162,33.379342,-111.907813
2,1,Target Stores,1800 E Rio Salado Pkwy Ste 120,Tempe,AZ,85281,(480) 214-2667,33.429348,-111.9090381
2,1,Target Stores,9830 W. Lower Buckeye Rd,Tolleson,AZ,85353,(623) 687-2136,33.4233453,-112.2700654
2,1,Target Stores,3901 W Ina Rd,Tucson,AZ,85741,(520) 744-3553,32.336642,-111.048714
2,1,Target Stores,6500 E Grant Rd,Tucson,AZ,85715,(520) 290-1711,32.249152,-110.852876
2,1,Target Stores,5255 E Broadway Blvd,Tucson,AZ,85711,(520) 745-8001,32.222769,-110.880584
2,1,Target Stores,1225 W Irvington Rd,Tucson,AZ,85714,(520) 295-1277,32.160277,-110.989638
2,1,Target Stores,3699 E Broadway Blvd,Tucson,AZ,85716,(520) 917-0116,32.2216767,-110.9138589
2,1,Target Stores,9615 E Old Spanish Trl,Tucson,AZ,85748,(520) 296-4290,32.207761,-110.786429
2,1,Target Stores,4040 N Oracle Rd,Tucson,AZ,85705,(520) 202-1501,32.2800636,-110.9780586
2,1,Target Stores,1450 S Yuma Palms Pkwy,Yuma,AZ,85365,(928) 343-7470,32.6990564,-114.6030932
2,1,Target Stores,1057 Eastshore Hwy,Albany,CA,94710,(510) 982-0512,37.8850539,-122.307663
2,1,Target Stores,2120 W Main St,Alhambra,CA,91801,(626) 308-3290,34.091086,-118.147144
2,1,Target Stores,26932 La Paz Rd,Aliso Viejo,CA,92656,(949) 643-0337,33.571167,-117.705603
2,1,Target Stores,8148 E Santa Ana Canyon Rd,Anaheim,CA,92808,(714) 921-9091,33.865844,-117.74731
2,1,Target Stores,101 S Euclid St,Anaheim,CA,92802,(714) 422-1120,33.831325,-117.942674
2,1,Target Stores,5769 Lone Tree Way,Antioch,CA,94531,(925) 752-0002,37.964559,-121.737796
2,1,Target Stores,19201 Bear Valley Rd,Apple Valley,CA,92308,(760) 247-4111,34.4708176,-117.2427442
2,1,Target Stores,20288 US Highway 18,Apple Valley,CA,92307,(760) 240-7654,34.527494,-117.217659
2,1,Target Stores,1000 Commerce Ave,Atwater,CA,95301,(209) 357-4820,37.341526,-120.611494
2,1,Target Stores,2700 Bell Rd,Auburn,CA,95603,(530) 889-5650,38.943321,-121.095848
2,1,Target Stores,809 North Azusa Avenue,Azusa,CA,91702,(626) 629-1121,-22.95764,18.49041
2,1,Target Stores,1300 Wible Rd,Bakersfield,CA,93304,(661) 836-2391,35.342202,-119.037631
2,1,Target Stores,3401 Mall View Rd,Bakersfield,CA,93306,(661) 872-9929,35.394718,-118.955605
2,1,Target Stores,9100 Rosedale Hwy,Bakersfield,CA,93312,(661) 589-0554,35.385475,-119.1032698
2,1,Target Stores,NA,Bakersfield,CA,NA,NA,-22.95764,18.49041
2,1,Target Stores,11000 Stockdale Hwy,Bakersfield,CA,93311,(661) 617-3657,35.3500736,-119.1255886
2,1,Target Stores,3100 Baldwin Park Blvd,Baldwin Park,CA,91706,(626) 851-9404,34.0696,-117.9768238
2,1,Target Stores,855 E Birch St,Brea,CA,92821,(714) 989-5013,33.917864,-117.8878781
2,1,Target Stores,7530 Orangethorpe Ave,Buena Park,CA,90621,(714) 676-0013,33.857325,-118.0009
2,1,Target Stores,1800 W Empire Ave,Burbank,CA,91504,(818) 238-0132,34.189227,-118.3307287
2,1,Target Stores,209 W Ventura Blvd,Camarillo,CA,93010,(805) 384-0040,34.2167646,-119.0729563
2,1,Target Stores,6700 Topanga Canyon Blvd,Canoga Park,CA,91303,(818) 746-9922,34.191843,-118.602589
2,1,Target Stores,20700 S Avalon Blvd Ste 750,Carson,CA,90746,(310) 819-3011,33.8430206,-118.2603423
2,1,Target Stores,651 W Sepulveda Blvd,Carson,CA,90745,(310) 507-0020,33.809454,-118.285983
2,1,Target Stores,67750 E Palm Canyon Dr,Cathedral City,CA,92234,(760) 321-7425,33.787553,-116.480209
2,1,Target Stores,20200 Bloomfield Ave,Cerritos,CA,90703,(562) 860-9909,33.847128,-118.06221
2,1,Target Stores,11525 South St,Cerritos,CA,90703,(562) 274-0063,33.8611149,-118.0932856
2,1,Target Stores,1951 E 20th St,Chico,CA,95928,(530) 343-3770,39.7272027,-121.8049156
2,1,Target Stores,5555 Philadelphia St,Chino,CA,91710,(909) 627-8433,34.032761,-117.682047
2,1,Target Stores,3944 Grand Ave,Chino,CA,91710,(909) 465-5804,34.001487,-117.718767
2,1,Target Stores,1240 Broadway,Chula Vista,CA,91911,(619) 425-3850,32.605379,-117.0795507
2,1,Target Stores,40 N 4th Ave,Chula Vista,CA,91910,(619) 425-5120,32.6516611,-117.0885107
2,1,Target Stores,910 Eastlake Pkwy,Chula Vista,CA,91914,(619) 213-1010,32.6504,-116.96765
2,1,Target Stores,5837 Sunrise Blvd,Citrus Heights,CA,95610,(916) 966-5267,38.672631,-121.273851
2,1,Target Stores,900 Shaw Ave,Clovis,CA,93612,(559) 297-4691,36.807187,-119.698803
2,1,Target Stores,695 W Herndon Ave,Clovis,CA,93612,(559) 321-0009,36.839797,-119.728192
2,1,Target Stores,5001 Junipero Serra Blvd,Colma,CA,94014,(650) 992-8433,37.6734793,-122.4645006
2,1,Target Stores,1621 South Alameda St,Compton,CA,90220,(310) 735-0096,33.8795689,-118.219525
2,1,Target Stores,2615 Tuscanny St,Corona,CA,92881,(951) 277-3075,33.8264349,-117.516156
2,1,Target Stores,3030 Harbor Blvd Ste A,Costa Mesa,CA,92626,(714) 979-0372,33.6825776,-117.9176425
2,1,Target Stores,10820 Jefferson Blvd,Culver City,CA,90230,(310) 839-5200,33.999139,-118.3938985
2,1,Target Stores,6000 Sepulveda Blvd,Culver City,CA,90230,(310) 754-4614,33.9846508,-118.3950507
2,1,Target Stores,20745 Stevens Creek Blvd,Cupertino,CA,95014,(408) 725-2651,37.324188,-122.036144
2,1,Target Stores,6835 Katella Ave,Cypress,CA,90630,(714) 220-2000,33.80392,-118.013149
2,1,Target Stores,133 Serramonte Ctr,Daly City,CA,94015,(650) 755-2393,37.6704999,-122.471026
2,1,Target Stores,4601 2nd St,Davis,CA,95618,(530) 761-0126,38.554052,-121.699643
2,1,Target Stores,747 Grand Ave,Diamond Bar,CA,91765,(909) 610-2149,34.0045861,-117.8215249
2,1,Target Stores,1050 Huntington Dr,Duarte,CA,91010,(626) 303-8858,34.137514,-117.98307
2,1,Target Stores,7200 Amador Plaza Rd,Dublin,CA,94568,(925) 829-8900,37.7068865,-121.9291307
2,1,Target Stores,250 Broadway,El Cajon,CA,92021,(619) 442-9641,32.809662,-116.959378
2,1,Target Stores,2911 Jamacha Rd,El Cajon,CA,92019,(619) 660-2948,32.738585,-116.938921
2,1,Target Stores,2295 N Imperial Ave,El Centro,CA,92243,(760) 482-5400,32.8146154,-115.5695612
2,1,Target Stores,4400 Town Center Blvd,El Dorado Hills,CA,95762,(916) 605-0184,38.6499026,-121.0621181
2,1,Target Stores,7505 Laguna Blvd,Elk Grove,CA,95758,(916) 683-5356,38.426429,-121.415577
2,1,Target Stores,1010 N El Camino Real,Encinitas,CA,92024,(760) 633-1406,33.0631657,-117.2649217
2,1,Target Stores,1280 Auto Park Way,Escondido,CA,92029,(760) 489-6119,33.1125557,-117.100407
2,1,Target Stores,2525 4th St,Eureka,CA,95501,(707) 442-0201,40.805565,-124.144249
2,1,Target Stores,2059 Cadenasso Dr,Fairfield,CA,94533,(707) 426-1105,38.246448,-122.068764
2,1,Target Stores,430 Blue Ravine Rd,Folsom,CA,95630,(916) 984-9131,38.671453,-121.152721
2,1,Target Stores,16964 Slover Ave,Fontana,CA,92337,(909) 356-4242,34.064891,-117.4342541
2,1,Target Stores,15272 Summit Ave,Fontana,CA,92336,(909) 463-9872,34.1521528,-117.4733347
2,1,Target Stores,26762 Portola Pkwy,Foothill Ranch,CA,92610,(949) 454-2360,33.676599,-117.664145
2,1,Target Stores,39201 Fremont Blvd,Fremont,CA,94538,(510) 795-6305,37.544845,-121.984738
2,1,Target Stores,3150 W Shaw Ave,Fresno,CA,93711,(559) 275-7059,36.809562,-119.847364
2,1,Target Stores,3173 E Shields Ave,Fresno,CA,93726,(559) 228-8471,36.78057,-119.771009
2,1,Target Stores,7600 N Blackstone Ave,Fresno,CA,93720,(559) 431-0104,36.847249,-119.787114
2,1,Target Stores,5740 N Blackstone Ave,Fresno,CA,93710,(559) 431-8622,36.8215822,-119.7882435
2,1,Target Stores,2920 Yorba Linda Blvd,Fullerton,CA,92831,(714) 579-3090,33.888058,-117.877048
2,1,Target Stores,1893 W Malvern Ave,Fullerton,CA,92833,(714) 278-1024,33.8774032,-117.9623516
2,1,Target Stores,200 W Orangethorpe Ave,Fullerton,CA,92832,(714) 992-4565,33.8584696,-117.9272521
2,1,Target Stores,12100 Harbor Blvd,Garden Grove,CA,92840,(714) 971-4826,33.7865264,-117.9137117
2,1,Target Stores,13831 Brookhurst St,Garden Grove,CA,92843,(714) 534-2142,33.7618143,-117.9562515
2,1,Target Stores,2169 W Redondo Beach Blvd,Gardena,CA,90247,(310) 327-0762,33.886983,-118.316107
2,1,Target Stores,6705 Camino Arroyo,Gilroy,CA,95020,(408) 848-6466,37.0000471,-121.5547766
2,1,Target Stores,2195 Glendale Galleria,Glendale,CA,91210,(818) 334-1400,34.144801,-118.2563169
2,1,Target Stores,11133 Balboa Blvd,Granada Hills,CA,91344,(818) 360-2999,34.2726344,-118.5022211
2,1,Target Stores,140 N 12th Ave,Hanford,CA,93230,(559) 582-9298,36.3238127,-119.6761519
2,1,Target Stores,2700 W 120th St,Hawthorne,CA,90250,(323) 492-1000,33.922448,-118.321489
2,1,Target Stores,2499 Whipple Rd,Hayward,CA,94544,(510) 471-9166,37.607702,-122.063045
2,1,Target Stores,19661 Hesperian Blvd,Hayward,CA,94541,(510) 731-0001,37.6673368,-122.1194765
2,1,Target Stores,3527 W Florida Ave,Hemet,CA,92545,(951) 652-9585,33.74579,-117.008902
2,1,Target Stores,12795 Main St,Hesperia,CA,92345,(760) 949-3062,34.4265358,-117.3850114
2,1,Target Stores,1790 Airline Hwy,Hollister,CA,95023,(831) 636-3722,36.83532,-121.3894505
2,1,Target Stores,9882 Adams Ave,Huntington Beach,CA,92646,(714) 849-1814,33.6710427,-117.9562472
2,1,Target Stores,42625 Jackson St,Indio,CA,92203,(442) 863-3600,33.739677,-116.218001
2,1,Target Stores,3471 W Century Blvd,Inglewood,CA,90303,(310) 677-2436,33.9456462,-118.3324242
2,1,Target Stores,3750 Barranca Pkwy,Irvine,CA,92606,(949) 857-8337,33.6852977,-117.8125248
2,1,Target Stores,13200 Jamboree Rd,Irvine,CA,92602,(714) 838-1209,33.727159,-117.785153
2,1,Target Stores,115 Fortune Dr,Irvine,CA,92618,(949) 885-0114,33.6479956,-117.7405162
2,1,Target Stores,1000 W Imperial Hwy,La Habra,CA,90631,(714) 459-6034,33.9172371,-117.9575592
2,1,Target Stores,5500 Grossmont Ctr Dr,La Mesa,CA,91942,(619) 461-1960,32.7788608,-117.0101674
2,1,Target Stores,78935 US Hwy 111,La Quinta,CA,92253,(760) 564-0492,33.708867,-116.289893
2,1,Target Stores,2462 Foothill Blvd,La Verne,CA,91750,(909) 593-2421,34.111015,-117.759977
2,1,Target Stores,18287 Collier Ave,Lake Elsinore,CA,92530,(951) 674-2620,33.689188,-117.342216
2,1,Target Stores,141 Lakewood Center Mall,Lakewood,CA,90712,(562) 894-0019,33.8525723,-118.1402772
2,1,Target Stores,43525 10th St W,Lancaster,CA,93534,(661) 949-8584,34.6735207,-118.1490906
2,1,Target Stores,16858 Golden Valley Pkwy,Lathrop,CA,95330,(209) 242-5041,37.8082952,-121.2985672
2,1,Target Stores,950 Groveland LN,Lincoln,CA,95648,(916) 251-3002,38.8700627,-121.3038729
2,1,Target Stores,4300 Las Positas Rd,Livermore,CA,94551,(925) 606-1445,37.7014012,-121.7466594
2,1,Target Stores,2355 W Kettleman Ln,Lodi,CA,95242,(209) 369-9371,38.1168856,-121.302872
2,1,Target Stores,2270 N Bellflower Blvd,Long Beach,CA,90815,(562) 493-5411,33.7979313,-118.1226917
2,1,Target Stores,6750 Cherry Ave,Long Beach,CA,90805,(562) 295-2971,33.877324,-118.166187
2,1,Target Stores,5600 Whittier Blvd,Los Angeles,CA,90022,(323) 725-1121,34.017946,-118.150348
2,1,Target Stores,3535 S La Cienega Blvd,Los Angeles,CA,90016,(310) 895-1131,34.022806,-118.373493
2,1,Target Stores,2626 Colorado Blvd,Los Angeles,CA,90041,(323) 258-1355,34.141333,-118.224033
2,1,Target Stores,1405 W Pacheco Blvd,Los Banos,CA,93635,(209) 827-2080,37.0543929,-120.8735301
2,1,Target Stores,1200 N Sepulveda Blvd,Manhattan Beach,CA,90266,(310) 546-5601,33.8884317,-118.3945311
2,1,Target Stores,280 Spreckels Ave,Manteca,CA,95336,(209) 823-9982,37.7948514,-121.1971664
2,1,Target Stores,133 General Stilwell Dr,Marina,CA,93933,(831) 883-5720,36.6672514,-121.8104846
2,1,Target Stores,30340 Haun Rd,Menifee,CA,92584,(951) 723-6151,33.68041,-117.173116
2,1,Target Stores,3280 R St,Merced,CA,95348,(209) 725-3482,37.3230154,-120.4868235
2,1,Target Stores,12471 Limonite Ave,Mira Loma,CA,91752,(951) 256-5261,33.9756315,-117.5513804
2,1,Target Stores,24500 Alicia Pkwy,Mission Viejo,CA,92691,(949) 583-1298,33.606439,-117.688517
2,1,Target Stores,25601 Jeronimo Rd,Mission Viejo,CA,92691,(949) 680-1064,33.6217776,-117.6832516
2,1,Target Stores,3405 Mchenry Ave,Modesto,CA,95350,(209) 572-3341,37.687499,-120.995907
2,1,Target Stores,3900 Sisk Rd,Modesto,CA,95356,(209) 543-9561,37.6939463,-121.0644273
2,1,Target Stores,9052 Central Ave,Montclair,CA,91763,(909) 624-5717,34.089657,-117.69095
2,1,Target Stores,800 New Los Angeles Ave,Moorpark,CA,93021,(805) 530-0028,34.278678,-118.867471
2,1,Target Stores,27100 Eucalyptus Ave,Moreno Valley,CA,92555,(951) 571-8014,33.937712,-117.189572
2,1,Target Stores,1061 Cochrane Rd,Morgan Hill,CA,95037,(408) 310-4050,37.157385,-121.65353
2,1,Target Stores,555 Showers Dr,Mountain View,CA,94040,(650) 965-7764,37.4021022,-122.1062774
2,1,Target Stores,41040 California Oaks Rd,Murrieta,CA,92562,(951) 696-7527,33.56544,-117.203518
2,1,Target Stores,27818 Clinton Keith Rd,Murrieta,CA,92562,(951) 704-1123,33.604119,-117.173881
2,1,Target Stores,205 Soscol Ave,Napa,CA,94559,(707) 224-1058,38.2826177,-122.2772683
2,1,Target Stores,4000 Bel Aire Plaza,Napa,CA,94558,(707) 225-3016,38.322465,-122.307827
2,1,Target Stores,3060 Plaza Bonita Rd,National City,CA,91950,(619) 791-2749,32.6539836,-117.0646074
2,1,Target Stores,400 Newpark Mall,Newark,CA,94560,(510) 744-1790,37.527743,-122.001158
2,1,Target Stores,1290 Hamner Ave,Norco,CA,92860,(951) 371-1872,33.901123,-117.564336
2,1,Target Stores,11051 Victory Blvd,North Hollywood,CA,91606,(818) 761-3083,34.188175,-118.371391
2,1,Target Stores,8840 Corbin Ave,Northridge,CA,91324,(818) 772-0494,34.230976,-118.560743
2,1,Target Stores,8999 Balboa Blvd,Northridge,CA,91325,(818) 924-9001,34.234506,-118.5033536
2,1,Target Stores,10600 Firestone Blvd,Norwalk,CA,90650,(562) 406-8870,33.925627,-118.107089
2,1,Target Stores,12051 Imperial Hwy,Norwalk,CA,90650,(562) 409-5036,33.918142,-118.075635
2,1,Target Stores,200 Vintage Way,Novato,CA,94945,(415) 892-3313,38.0894594,-122.5532645
2,1,Target Stores,2255 S El Camino Real,Oceanside,CA,92054,(760) 967-8335,33.1841513,-117.329591
2,1,Target Stores,4200 E 4th St,Ontario,CA,91764,(909) 579-3040,34.075752,-117.561423
2,1,Target Stores,2191 N Tustin St,Orange,CA,92865,(714) 974-2800,33.824512,-117.83473
2,1,Target Stores,250 W Esplanade Dr,Oxnard,CA,93036,(805) 983-1411,34.2317139,-119.17691
2,1,Target Stores,9725 Laurel Canyon Blvd,Pacoima,CA,91331,(818) 896-8214,34.244872,-118.418789
2,1,Target Stores,72549 Highway 111,Palm Desert,CA,92260,(442) 341-9307,33.7239904,-116.4029669
2,1,Target Stores,39440 10th St W,Palmdale,CA,93551,(661) 265-0906,34.5998129,-118.1463015
2,1,Target Stores,38019 47Th Street E,Palmdale,CA,93552,(661) 998-2500,34.5811542,-118.0303189
2,1,Target Stores,777 E Colorado Blvd,Pasadena,CA,91101,(626) 584-1606,34.146842,-118.13455
2,1,Target Stores,3121 E Colorado Blvd,Pasadena,CA,91107,(626) 584-2931,34.146938,-118.08418
2,1,Target Stores,2305 Theatre Dr,Paso Robles,CA,93446,(805) 227-0105,35.583861,-120.698611
2,1,Target Stores,8800 Whittier Blvd,Pico Rivera,CA,90660,(562) 949-6200,34.001114,-118.084764
2,1,Target Stores,1400 Fitzgerald Dr,Pinole,CA,94564,(510) 222-0558,37.9878334,-122.3093124
2,1,Target Stores,4301 Century Blvd,Pittsburg,CA,94565,(925) 778-8950,38.0064813,-121.8409838
2,1,Target Stores,560 Contra Costa Blvd,Pleasant Hill,CA,94523,(925) 685-6069,37.9772472,-122.0664205
2,1,Target Stores,1363 W Henderson Ave,Porterville,CA,93257,(559) 719-2203,36.078313,-119.047286
2,1,Target Stores,14823 Pomerado Rd,Poway,CA,92064,(858) 679-8202,32.980385,-117.06085
2,1,Target Stores,10881 Olson Dr,Rancho Cordova,CA,95670,(916) 503-2512,38.595975,-121.284682
2,1,Target Stores,10576 Foothill Blvd,Rancho Cucamonga,CA,91730,(909) 948-9952,34.108566,-117.573968
2,1,Target Stores,30602 Rancho Santa Margarita Pkwy,Rancho Santa Margarita,CA,92688,(949) 459-1543,33.63736,-117.6082774
2,1,Target Stores,1280 Dana Dr,Redding,CA,96003,(530) 223-0123,40.5866828,-122.3482305
2,1,Target Stores,27320 W Lugonia Ave,Redlands,CA,92374,(909) 307-1602,34.07121,-117.207196
2,1,Target Stores,1601 Kingsdale Ave,Redondo Beach,CA,90278,(310) 750-0003,33.868827,-118.357585
2,1,Target Stores,2485 El Camino Real,Redwood City,CA,94063,(650) 363-8940,37.4755885,-122.2174584
2,1,Target Stores,4500 Macdonald Ave,Richmond,CA,94805,(510) 253-1000,37.9321402,-122.3274104
2,1,Target Stores,2425 Claribel Rd,Riverbank,CA,95367,(209) 863-1270,37.713275,-120.952716
2,1,Target Stores,3520 Tyler St,Riverside,CA,92503,(951) 351-8271,33.906849,-117.459507
2,1,Target Stores,3333 Arlington Ave,Riverside,CA,92506,(951) 784-6430,33.947442,-117.382471
2,1,Target Stores,2755 Canyon Springs Pkwy,Riverside,CA,92507,(951) 697-6778,33.9387208,-117.2821603
2,1,Target Stores,475 Rohnert Park Expy W,Rohnert Park,CA,94928,(707) 586-2901,38.3468742,-122.7203183
2,1,Target Stores,3600 Rosemead Blvd,Rosemead,CA,91770,(626) 280-8024,34.0750553,-118.0726752
2,1,Target Stores,1925 Douglas Blvd,Roseville,CA,95661,(916) 786-8787,38.7458977,-121.2538868
2,1,Target Stores,10451 Fairway Dr,Roseville,CA,95678,(916) 780-1020,38.7909856,-121.2899595
2,1,Target Stores,17751 Colima Rd,Rowland Heights,CA,91748,(626) 913-2880,33.9902689,-117.9187328
2,1,Target Stores,2505 Riverside Blvd,Sacramento,CA,95818,(916) 444-0993,38.5626258,-121.4970782
2,1,Target Stores,5001 Madison Ave,Sacramento,CA,95841,(916) 348-3701,38.661791,-121.349125
2,1,Target Stores,1919 Fulton Ave,Sacramento,CA,95825,(916) 483-6093,38.6006606,-121.4033781
2,1,Target Stores,8101 Cosumnes River Blvd,Sacramento,CA,95823,(916) 525-3576,38.4587068,-121.4136021
2,1,Target Stores,3601 North Freeway Blvd,Sacramento,CA,95834,(916) 576-0487,38.640769,-121.498669
2,1,Target Stores,6507 4th Ave,Sacramento,CA,95817,NA,38.549227,-121.425983
2,1,Target Stores,1640 N Main St,Salinas,CA,93906,(831) 442-0547,36.7127579,-121.6523789
2,1,Target Stores,499 W Orange Show Rd,San Bernardino,CA,92408,(909) 381-3391,34.0785437,-117.292004
2,1,Target Stores,2380 Sterling Ave,San Bernardino,CA,92404,(909) 881-2671,34.137803,-117.245152
2,1,Target Stores,1150 El Camino Real,San Bruno,CA,94066,(650) 827-0171,37.6357627,-122.4188446
2,1,Target Stores,3245 Sports Arena Blvd,San Diego,CA,92110,(619) 223-2491,32.7511235,-117.2097813
2,1,Target Stores,8001 Othello Ave,San Diego,CA,92111,(858) 576-1570,32.816502,-117.151055
2,1,Target Stores,8251 Mira Mesa Blvd,San Diego,CA,92126,(858) 530-1901,32.9106943,-117.1459837
2,1,Target Stores,1288 Camino Del Rio N,San Diego,CA,92108,(619) 542-0025,32.767559,-117.1506703
2,1,Target Stores,3424 College Ave,San Diego,CA,92115,(619) 471-0025,32.741007,-117.055583
2,1,Target Stores,5680 Balboa Av,San Diego,CA,92111,(858) 309-6564,32.8256427,-117.1558867
2,1,Target Stores,888 W Arrow Hwy,San Dimas,CA,91773,(909) 394-0335,34.103639,-117.823369
2,1,Target Stores,1811 Hillsdale Ave,San Jose,CA,95124,(408) 267-7900,37.2635044,-121.9174043
2,1,Target Stores,2155 Morrill Ave,San Jose,CA,95132,(408) 946-6791,37.4137021,-121.8766871
2,1,Target Stores,450 N Capital Ave,San Jose,CA,95133,(408) 254-8931,37.374343,-121.844968
2,1,Target Stores,1600 Saratoga Ave,San Jose,CA,95129,(408) 871-7984,37.291284,-121.989617
2,1,Target Stores,879 Blossom Hill Rd,San Jose,CA,95123,(408) 513-3002,37.252379,-121.860588
2,1,Target Stores,1750 Story Rd,San Jose,CA,95122,(408) 273-0054,37.3399602,-121.8401922
2,1,Target Stores,533 Coleman Ave,San Jose,CA,95110,(408) 346-2022,37.3390569,-121.904461
2,1,Target Stores,3155 Silver Creek Rd,San Jose,CA,95121,(408) 238-7800,37.307802,-121.812577
2,1,Target Stores,2161 Monterey Hwy,San Jose,CA,95125,(408) 660-1703,37.305525,-121.8632461
2,1,Target Stores,NA,San Jose,CA,NA,NA,-22.95764,18.49041
2,1,Target Stores,15555 E 14th St Ste 400,San Leandro,CA,94578,(510) 276-2699,37.7029982,-122.1259439
2,1,Target Stores,2220 Bridgepointe Pkwy,San Mateo,CA,94404,(650) 341-0734,37.5582963,-122.2835174
2,1,Target Stores,1701 N Gaffey St,San Pedro,CA,90731,(310) 507-6289,33.760097,-118.293876
2,1,Target Stores,2610 Bishop Dr,San Ramon,CA,94583,(925) 277-0202,37.7620987,-121.9644503
2,1,Target Stores,2040 California Ave,Sand City,CA,93955,(831) 392-1990,36.620927,-121.843113
2,1,Target Stores,3300 S Bristol St,Santa Ana,CA,92704,(714) 641-4944,33.702852,-117.887294
2,1,Target Stores,1330 E 17th St,Santa Ana,CA,92705,(714) 541-4593,33.758975,-117.850426
2,1,Target Stores,1441 W 17th St,Santa Ana,CA,92706,(714) 481-0030,33.761435,-117.88802
2,1,Target Stores,19105 Golden Valley Rd,Santa Clarita,CA,91387,(661) 977-5154,34.394236,-118.464421
2,1,Target Stores,10621 Carmenita Rd,Santa Fe Springs,CA,90670,(562) 946-0851,33.937588,-118.048198
2,1,Target Stores,223 E Betteravia Rd,Santa Maria,CA,93454,(805) 922-9904,34.922655,-120.433748
2,1,Target Stores,1980 Santa Rosa Ave,Santa Rosa,CA,95407,(707) 575-0665,38.4172698,-122.7093498
2,1,Target Stores,9846 Mission Gorge Rd,Santee,CA,92071,(619) 449-9790,32.84197,-116.982485
2,1,Target Stores,12300 Seal Beach Blvd,Seal Beach,CA,90740,(562) 596-9887,33.7831067,-118.0697894
2,1,Target Stores,950 East 33rd St,Signal Hill,CA,90755,(562) 427-7751,33.816821,-118.182195
2,1,Target Stores,2907 Cochran St,Simi Valley,CA,93065,(805) 583-8933,34.280566,-118.739525
2,1,Target Stores,NA,Simi Valley,CA,NA,NA,-22.95764,18.49041
2,1,Target Stores,5700 Firestone Blvd,South Gate,CA,90280,(562) 806-2911,33.9483112,-118.1673642
2,1,Target Stores,4707 Pacific Ave,Stockton,CA,95207,(209) 476-8081,37.991663,-121.314773
2,1,Target Stores,10424 Trinity Parkway,Stockton,CA,95219,(209) 235-0251,38.05188,-121.3721947
2,1,Target Stores,298 W McKinley Ave,Sunnyvale,CA,94086,(408) 702-1012,37.373856,-122.0325382
2,1,Target Stores,29676 Rancho California Rd,Temecula,CA,92591,(951) 676-2668,33.506297,-117.145988
2,1,Target Stores,2705 Teller Rd,Thousand Oaks,CA,91320,(805) 480-9114,34.190914,-118.934545
2,1,Target Stores,3433 Sepulveda Blvd,Torrance,CA,90505,(310) 214-1561,33.8264466,-118.3457882
2,1,Target Stores,2800 Naglee Rd,Tracy,CA,95304,(209) 833-3494,37.7575148,-121.4580832
2,1,Target Stores,2195 E Prosperity Ave,Tulare,CA,93274,(559) 631-1128,36.2241952,-119.3145286
2,1,Target Stores,3000 Countryside Dr,Turlock,CA,95380,(209) 632-0132,37.5206963,-120.8783959
2,1,Target Stores,2300 Park Ave,Tustin,CA,92782,(714) 361-2100,33.699789,-117.827379
2,1,Target Stores,1931 Campus Ave,Upland,CA,91784,(909) 985-0348,34.13319,-117.640734
2,1,Target Stores,3000 Harbison Dr,Vacaville,CA,95687,(707) 452-8053,38.361061,-121.961703
2,1,Target Stores,24425 Magic Mountain Pkwy,Valencia,CA,91355,(661) 254-8001,34.4208961,-118.5619194
2,1,Target Stores,904 Admiral Callaghan Lane,Vallejo,CA,94591,(707) 642-0419,38.1321857,-122.2226214
2,1,Target Stores,5711 Sepulveda Blvd,Van Nuys,CA,91411,(818) 779-0163,34.1749989,-118.4661862
2,1,Target Stores,14920 Raymer St,Van Nuys,CA,91405,(818) 922-1001,34.212509,-118.461217
2,1,Target Stores,4200 E Main St,Ventura,CA,93003,(805) 644-9871,34.261619,-119.236528
2,1,Target Stores,245 S Mills Rd,Ventura,CA,93003,(805) 535-2752,34.2699821,-119.2490444
2,1,Target Stores,15321 Palmdale Rd,Victorville,CA,92392,(760) 241-3357,34.506084,-117.328608
2,1,Target Stores,4247 S Mooney Blvd,Visalia,CA,93277,(559) 749-0740,36.2921836,-119.3168114
2,1,Target Stores,3308 N Dinuba Blvd,Visalia,CA,93291,(559) 302-1850,36.359121,-119.2969732
2,1,Target Stores,1751 University Dr,Vista,CA,92083,(760) 941-0220,33.1692589,-117.214838
2,1,Target Stores,3150 Business Park Dr,Vista,CA,92081,(760) 208-6111,33.13833,-117.228035
2,1,Target Stores,1871 N Main St,Walnut Creek,CA,94596,(925) 979-0083,37.904768,-122.0635662
2,1,Target Stores,1415 Main St,Watsonville,CA,95076,(831) 761-9194,36.9153033,-121.774097
2,1,Target Stores,2831 E Eastland Ctr Dr,West Covina,CA,91791,(626) 859-0221,34.0730135,-117.8838331
2,1,Target Stores,2370 S Azusa Ave,West Covina,CA,91792,(626) 667-5400,34.033481,-117.911372
2,1,Target Stores,6635 Fallbrook Ave,West Hills,CA,91307,(818) 999-2390,34.190745,-118.626931
2,1,Target Stores,7100 Santa Monica Blvd Ste 201,West Hollywood,CA,90046,(323) 603-0004,34.0905552,-118.3445506
2,1,Target Stores,2005 Town Center Plz,West Sacramento,CA,95691,(916) 384-0977,38.5498272,-121.5361808
2,1,Target Stores,16400 Beach Blvd,Westminster,CA,92683,(714) 841-4449,33.725561,-117.986246
2,1,Target Stores,200 Westminster Mall,Westminster,CA,92683,(714) 657-1351,33.745614,-118.012094
2,1,Target Stores,15614 Whittwood Ln,Whittier,CA,90603,(562) 371-9003,33.9429483,-117.9963296
2,1,Target Stores,2185 Bronze Star Dr,Woodland,CA,95776,(530) 665-4148,38.6726701,-121.7246367
2,1,Target Stores,20801 Ventura Blvd,Woodland Hills,CA,91364,(818) 713-2707,34.1544724,-118.5914696
2,1,Target Stores,1153 Butte House Rd,Yuba City,CA,95991,(530) 671-6881,39.1461801,-121.6325971
2,1,Target Stores,7899 Wadsworth Blvd,Arvada,CO,80003,(303) 425-0124,39.840098,-105.085611
2,1,Target Stores,16910 E Quincy Ave,Aurora,CO,80015,(303) 699-1020,39.636693,-104.790183
2,1,Target Stores,1400 S Havana St,Aurora,CO,80012,(303) 755-8530,39.690883,-104.863478
2,1,Target Stores,14200 E Ellsworth Ave,Aurora,CO,80012,(303) 214-0114,39.7150729,-104.821641
2,1,Target Stores,7400 S Gartrell Rd,Aurora,CO,80016,(303) 209-2827,39.58147,-104.72224
2,1,Target Stores,15700 E Briarwood Cir,Aurora,CO,80016,(720) 214-6000,39.5924613,-104.8047531
2,1,Target Stores,2800 Pearl St,Boulder,CO,80301,(303) 449-3400,40.021734,-105.256559
2,1,Target Stores,2171 Prairie Center Pkwy,Brighton,CO,80601,(303) 219-9055,39.956145,-104.779922
2,1,Target Stores,1660 W Midway Blvd,Broomfield,CO,80020,(303) 460-1177,39.920675,-105.088948
2,1,Target Stores,5010 Founders Pkwy,Castle Rock,CO,80108,(303) 663-4322,39.4504837,-104.8688126
2,1,Target Stores,335 N Academy Blvd,Colorado Springs,CO,80909,(719) 596-6220,38.837815,-104.756637
2,1,Target Stores,5240 N Academy Blvd,Colorado Springs,CO,80918,(719) 594-9600,38.9052398,-104.7776338
2,1,Target Stores,1630 E Cheyenne Mountain Blvd,Colorado Springs,CO,80906,(719) 540-2366,38.792787,-104.801229
2,1,Target Stores,3810 Bloomington St,Colorado Springs,CO,80922,(719) 574-4351,38.887975,-104.718348
2,1,Target Stores,9670 Prominent Pt,Colorado Springs,CO,80924,(719) 302-4266,38.9727174,-104.7438045
2,1,Target Stores,2155 S Sheridan Blvd,Denver,CO,80227,(303) 986-2261,39.677566,-105.055794
2,1,Target Stores,7930 Northfield Blvd,Denver,CO,80238,(303) 209-8720,39.7854629,-104.8948073
2,1,Target Stores,1985 Sheridan Blvd,Edgewater,CO,80214,(720) 274-3665,39.746441,-105.055566
2,1,Target Stores,6767 S Clinton St,Englewood,CO,80112,(303) 790-2583,39.593165,-104.881891
2,1,Target Stores,105 W Troutman Pkwy,Fort Collins,CO,80525,(970) 223-9100,40.528557,-105.0772506
2,1,Target Stores,2936 Council Tree Ave,Fort Collins,CO,80525,(970) 530-3120,40.526993,-105.022683
2,1,Target Stores,4301 E Virginia Ave,Glendale,CO,80246,(303) 209-0182,39.708478,-104.937897
2,1,Target Stores,110 W Meadows Dr,Glenwood Springs,CO,81601,(970) 945-8006,39.555508,-107.343682
2,1,Target Stores,2424 Highway 6 and 50,Grand Junction,CO,81505,(970) 245-8056,39.2240584,-108.5938124
2,1,Target Stores,4400 Centerplace Dr,Greeley,CO,80634,(970) 330-5443,40.3936597,-104.7499522
2,1,Target Stores,1950 E County Line Rd,Highlands Ranch,CO,80126,(303) 797-1911,39.565219,-104.965885
2,1,Target Stores,1265 Sgt Jon Stiles Dr,Highlands Ranch,CO,80129,(303) 323-4971,39.5495273,-105.0053251
2,1,Target Stores,14500 W Colfax Ave Unit B1,Lakewood,CO,80401,(303) 273-9940,39.7315929,-105.158507
2,1,Target Stores,9390 W Cross Dr,Littleton,CO,80123,(720) 922-1475,39.61074,-105.101006
2,1,Target Stores,10001 Commons St,Lone Tree,CO,80124,(303) 209-1851,39.534909,-104.884171
2,1,Target Stores,551 S Hover Rd,Longmont,CO,80501,(720) 864-4393,40.1574194,-105.1306603
2,1,Target Stores,1725 Rocky Mtn Ave,Loveland,CO,80538,(970) 669-5423,40.409392,-105.003698
2,1,Target Stores,3530 Wolverine Dr,Montrose,CO,81401,(970) 497-8980,38.4460672,-107.8673539
2,1,Target Stores,11150 S Twenty Mile Rd,Parker,CO,80134,(303) 209-0166,39.5130283,-104.7724669
2,1,Target Stores,3300 Dillon Dr,Pueblo,CO,81008,(719) 545-5631,38.303111,-104.6057919
2,1,Target Stores,3650 Riverpoint Pkwy,Sheridan,CO,80110,(303) 974-6661,39.6500064,-105.0089061
2,1,Target Stores,PO Box 26870,Silverthorne,CO,80497,(970) 468-2268,39.6326298,-106.0779794
2,1,Target Stores,400 Marshall Rd,Superior,CO,80027,(303) 209-0106,39.9567882,-105.1743834
2,1,Target Stores,1001 E 120th Ave,Thornton,CO,80233,(303) 280-0400,39.916023,-104.974414
2,1,Target Stores,10445 Reed St,Westminster,CO,80021,(303) 410-8310,39.88633,-105.078705
2,1,Target Stores,14451 Orchard Pkwy,Westminster,CO,80020,(303) 209-0163,39.9589969,-104.995177
2,1,Target Stores,5071 Kipling St,Wheat Ridge,CO,80033,(303) 209-1848,39.788103,-105.112208
2,1,Target Stores,20 West Main St,Ansonia,CT,6401,(203) 278-5055,41.3402473,-73.0793349
2,1,Target Stores,7 Stony Hill Rd,Bethel,CT,6801,(203) 448-1029,41.414962,-73.401988
2,1,Target Stores,2177 Killingly CMNS,Dayville,CT,6241,(860) 412-1283,41.839425,-71.8842421
2,1,Target Stores,90 Elm St,Enfield,CT,6082,(860) 741-2676,41.996918,-72.5823813
2,1,Target Stores,195 River Road,Lisbon,CT,6351,(860) 823-2960,41.5829907,-71.9967222
2,1,Target Stores,125 Buckland Hills Dr,Manchester,CT,6042,(860) 327-0082,41.8089402,-72.5502725
2,1,Target Stores,474 Chamberlain Hwy,Meriden,CT,6451,(203) 634-6049,41.552611,-72.815333
2,1,Target Stores,1191 Boston Post Rd,Milford,CT,6460,(203) 306-5063,41.2361731,-73.0391466
2,1,Target Stores,475 Hartford Rd,New Britain,CT,6053,(860) 348-9100,41.71088,-72.763709
2,1,Target Stores,3265 Berlin Turnpike,Newington,CT,6111,(860) 616-0022,41.6571232,-72.7248695
2,1,Target Stores,200 Universal Dr N,North Haven,CT,6473,(203) 859-3490,41.3545809,-72.8717376
2,1,Target Stores,25 Boston Post Rd,Orange,CT,6477,(203) 859-3694,41.2804323,-72.9874244
2,1,Target Stores,600 Executive Blvd,Southington,CT,6489,(860) 406-6754,41.612777,-72.9048
2,1,Target Stores,21 Broad St,Stamford,CT,6901,(203) 388-0006,41.0555815,-73.5431117
2,1,Target Stores,1922 E Main St,Torrington,CT,6790,(860) 618-4007,41.819199,-73.075278
2,1,Target Stores,120 Hawley Ln,Trumbull,CT,6611,(203) 455-0102,41.233494,-73.149832
2,1,Target Stores,5065 Main St Ste Target,Trumbull,CT,6611,(203) 873-2013,41.2428563,-73.2006639
2,1,Target Stores,300 Chase Ave,Waterbury,CT,6704,(203) 437-3673,41.2306979,-73.064036
2,1,Target Stores,900 Hartford Tpke,Waterford,CT,6385,(860) 442-3300,41.37756,-72.15011
2,1,Target Stores,1075 Kennedy Rd,Windsor,CT,6095,(860) 907-3068,41.8935342,-72.6504358
2,1,Target Stores,3100 14th St NW Suite 201,Washington,DC,20010,(202) 777-3773,38.9295156,-77.0329286
2,1,Target Stores,NA,Christiana,DE,NA,NA,-22.95764,18.49041
2,1,Target Stores,148 John Hunn Brown Rd,Dover,DE,19901,(302) 741-0434,39.1600087,-75.5108464
2,1,Target Stores,1050 Brandywine Pkwy,Wilmington,DE,19803,(302) 478-2500,39.82993,-75.5402512
2,1,Target Stores,886 W State Road 436,Altamonte Springs,FL,32714,(407) 788-7377,28.6626293,-81.4114142
2,1,Target Stores,21265 Biscayne Blvd,Aventura,FL,33180,(305) 933-4616,25.971806,-80.140756
2,1,Target Stores,21637 State Road 7,Boca Raton,FL,33428,(561) 483-3400,26.3555733,-80.2034596
2,1,Target Stores,26831 S Tamiami Trl,Bonita Springs,FL,34134,(239) 948-2300,26.349174,-81.805595
2,1,Target Stores,10201 Hagen Ranch Rd,Boynton Beach,FL,33437,(561) 536-0261,26.526317,-80.165492
2,1,Target Stores,650 N Congress Ave,Boynton Beach,FL,33426,(561) 396-2202,26.533576,-80.088574
2,1,Target Stores,6150 14th St W,Bradenton,FL,34207,(941) 756-2700,27.43225,-82.577825
2,1,Target Stores,187 Brandon Town Center Dr,Brandon,FL,33511,(813) 654-4955,27.936035,-82.323902
2,1,Target Stores,2430 Santa Barbara Blvd,Cape Coral,FL,33914,(239) 458-5868,26.606406,-81.977248
2,1,Target Stores,1890 Pine Island Road NE,Cape Coral,FL,33909,(239) 829-2639,26.669628,-81.932959
2,1,Target Stores,4410 S Highway 17 92,Casselberry,FL,32707,(407) 830-7979,28.6678749,-81.3124341
2,1,Target Stores,2747 Gulf To Bay Blvd,Clearwater,FL,33759,(727) 431-0231,27.9587793,-82.7243092
2,1,Target Stores,2660 East Hwy 50,Clermont,FL,34711,(352) 394-8510,28.548972,-81.705191
2,1,Target Stores,4400 N State Road 7,Coral Springs,FL,33073,(954) 366-2134,26.3003637,-80.1819268
2,1,Target Stores,9600 Westview Dr,Coral Springs,FL,33076,(954) 282-5000,26.296867,-80.252266
2,1,Target Stores,5000 Grandview Pkwy,Davenport,FL,33837,(863) 256-1051,28.232965,-81.643644
2,1,Target Stores,5800 S University Dr,Davie,FL,33328,(954) 377-0041,26.047789,-80.249764
2,1,Target Stores,2380 W International Speedway Blvd,Daytona Beach,FL,32114,(386) 257-4778,29.183717,-81.0796079
2,1,Target Stores,1200 S Federal Hwy,Deerfield Beach,FL,33441,(954) 428-4970,26.302078,-80.092577
2,1,Target Stores,3599 W Hillsboro Blvd,Deerfield Beach,FL,33442,(954) 333-5214,26.3179867,-80.1526369
2,1,Target Stores,1200 Linton Blvd,Delray Beach,FL,33444,(561) 265-3500,26.437475,-80.085099
2,1,Target Stores,853 Harbor Blvd,Destin,FL,32541,(850) 650-7525,30.390729,-86.48151
2,1,Target Stores,8040 Mediterranean Dr,Estero,FL,33928,(239) 495-4920,26.406674,-81.806126
2,1,Target Stores,3200 N Federal Hwy,Fort Lauderdale,FL,33306,(954) 390-7992,26.1681062,-80.1156245
2,1,Target Stores,13711 S Tamiami Trl,Fort Myers,FL,33912,(239) 481-8860,26.54242,-81.868509
2,1,Target Stores,10000 Gulf Center Dr,Fort Myers,FL,33913,(239) 432-2641,26.483737,-81.786908
2,1,Target Stores,15880 San Carlos Blvd,Ft Myers,FL,33908,(239) 265-9002,26.509716,-81.944186
2,1,Target Stores,9350 Dynasty Dr,Ft Myers,FL,33905,(239) 265-9022,26.6155529,-81.801235
2,1,Target Stores,3970 SW Archer Rd,Gainesville,FL,32608,(352) 376-5260,29.620919,-82.383951
2,1,Target Stores,5900 Lake Worth Rd,Greenacres,FL,33463,(561) 963-3382,26.618044,-80.137049
2,1,Target Stores,1750 W 37th St,Hialeah,FL,33012,(305) 507-0014,25.853803,-80.3176359
2,1,Target Stores,300 Hollywood Mall,Hollywood,FL,33021,(954) 963-1200,26.0111033,-80.1734624
2,1,Target Stores,444 Monument Rd,Jacksonville,FL,32225,(904) 721-4909,30.3289325,-81.5481718
2,1,Target Stores,9041 Southside Blvd,Jacksonville,FL,32256,(904) 464-0043,30.195004,-81.547875
2,1,Target Stores,10490 San Jose Blvd,Jacksonville,FL,32257,(904) 268-4334,30.188334,-81.629587
2,1,Target Stores,6331 Roosevelt Blvd,Jacksonville,FL,32244,(904) 596-1065,30.235344,-81.694794
2,1,Target Stores,13740 Beach Blvd,Jacksonville,FL,32224,(904) 248-4363,30.2863705,-81.4550032
2,1,Target Stores,4567 River City Dr,Jacksonville,FL,32246,(904) 596-0020,30.2604628,-81.5248655
2,1,Target Stores,9525 Crosshill Blvd,Jacksonville,FL,32222,(904) 248-4366,30.1990621,-81.8250785
2,1,Target Stores,490 Marsh Landing Pkwy,Jacksonville Beach,FL,32250,(904) 273-5581,30.253781,-81.390375
2,1,Target Stores,3003 W Vine St,Kissimmee,FL,34741,(407) 846-6611,28.306533,-81.432704
2,1,Target Stores,4795 W Irlo Bronson Memorial Hwy,Kissimmee,FL,34746,(407) 594-0029,28.2529101,-81.4388858
2,1,Target Stores,3200 Rolling Oaks Blvd,Kissimmee,FL,34747,(321) 677-3971,28.34518,-81.6146649
2,1,Target Stores,4155 W Lake Mary Blvd,Lake Mary,FL,32746,(407) 330-9330,28.754591,-81.348299
2,1,Target Stores,500 N Congress Ave,Lake Park,FL,33403,(561) 352-2098,26.805156,-80.082842
2,1,Target Stores,5900 State Road 7,Lake Worth,FL,33449,(561) 273-8259,26.59298,-80.202923
2,1,Target Stores,3570 Harden Blvd,Lakeland,FL,33803,(863) 648-4412,27.999194,-81.974405
2,1,Target Stores,4005 Highway 98 N,Lakeland,FL,33809,(863) 859-1622,28.091834,-81.971171
2,1,Target Stores,10500 Ulmerton Rd,Largo,FL,33771,(727) 581-6000,27.8929345,-82.7848052
2,1,Target Stores,7730 W Commercial Blvd,Lauderhill,FL,33351,(954) 572-6724,26.1936913,-80.2538609
2,1,Target Stores,10401 US Highway 441,Leesburg,FL,34788,(352) 360-1100,28.9124933,-81.8005724
2,1,Target Stores,1040 Dale Mabry Hwy,Lutz,FL,33548,(813) 435-2933,28.173036,-82.470504
2,1,Target Stores,250 E Miracle Strip Pkwy,Mary Esther,FL,32569,(850) 243-4188,30.410821,-86.659516
2,1,Target Stores,2750 W New Haven Ave,Melbourne Village,FL,32904,(321) 727-3238,28.0789567,-80.6653802
2,1,Target Stores,250 Crockett Blvd,Merritt Island,FL,32953,(321) 452-1014,28.470872,-80.6992633
2,1,Target Stores,15005 SW 88th St,Miami,FL,33196,(305) 386-1244,25.6697865,-80.4660256
2,1,Target Stores,7795 SW 40th St,Miami,FL,33155,(305) 262-5767,25.7357799,-80.321482
2,1,Target Stores,8350 S Dixie Hwy,Miami,FL,33143,(305) 668-0262,25.692912,-80.3055399
2,1,Target Stores,20500 SW 112th Ave,Miami,FL,33189,(305) 235-0839,25.5734243,-80.3380213
2,1,Target Stores,3401 N Miami Ave Ste 100,Miami,FL,33127,(786) 437-0164,25.8096757,-80.1950454
2,1,Target Stores,5601 NW 183rd St,Miami Gardens,FL,33055,(305) 760-7008,25.940325,-80.2913839
2,1,Target Stores,16901 Miramar Pkwy,Miramar,FL,33027,(954) 435-2571,25.980292,-80.3721149
2,1,Target Stores,17450 US Highway 441,Mount Dora,FL,32757,(352) 385-0516,28.8074615,-81.6683025
2,1,Target Stores,2324 Pine Ridge Rd,Naples,FL,34109,(239) 435-0051,26.209184,-81.7710029
2,1,Target Stores,2415 Tarpon Bay Blvd,Naples,FL,34119,(239) 552-1100,26.2705989,-81.7401144
2,1,Target Stores,14075 Biscayne Blvd,North Miami Beach,FL,33181,(305) 944-5341,25.9058984,-80.1585869
2,1,Target Stores,2000 SW College Rd,Ocala,FL,34471,(352) 629-1333,29.17392,-82.157242
2,1,Target Stores,16400 State Road 54,Odessa,FL,33556,(813) 383-0010,28.187648,-82.547804
2,1,Target Stores,2575 Enterprise Rd,Orange City,FL,32763,(386) 774-5574,28.916283,-81.2929879
2,1,Target Stores,1490 County Rd 220,Orange Park,FL,32003,(904) 278-8652,30.104973,-81.7130522
2,1,Target Stores,1919 Wells Rd,Orange Park,FL,32073,(904) 264-2748,30.188504,-81.736469
2,1,Target Stores,718 Maguire Blvd,Orlando,FL,32803,(407) 896-0401,28.555405,-81.345157
2,1,Target Stores,880 Sand Lake Rd,Orlando,FL,32809,(407) 856-5459,28.449619,-81.391096
2,1,Target Stores,4750 Millenia Plaza Way,Orlando,FL,32839,(407) 541-0019,28.493121,-81.430755
2,1,Target Stores,325 N Alafaya Trl,Orlando,FL,32828,(407) 482-8155,28.552053,-81.201947
2,1,Target Stores,7501 W Colonial Dr,Orlando,FL,32818,(407) 290-6728,28.553342,-81.485787
2,1,Target Stores,2155 Town Center Blvd,Orlando,FL,32837,(407) 251-5133,28.3699148,-81.4075976
2,1,Target Stores,120 W Grant St,Orlando,FL,32806,(407) 608-1580,28.515619,-81.380099
2,1,Target Stores,820 Oviedo Marketplace Blvd,Oviedo,FL,32765,(407) 366-5900,28.657563,-81.235487
2,1,Target Stores,4727 Highway 90,Pace,FL,32571,(850) 995-7820,30.601269,-87.126867
2,1,Target Stores,5100 E Highway 100,Palm Coast,FL,32164,(386) 313-3951,29.477179,-81.219052
2,1,Target Stores,900 E Lake Rd,Palm Harbor,FL,34685,(727) 786-6969,28.063587,-82.707277
2,1,Target Stores,2340 Highway 77,Panama City,FL,32405,(850) 785-8966,30.1933293,-85.6499181
2,1,Target Stores,15555 Starfish St,Panama City Beach,FL,32413,(850) 236-3720,30.2568577,-85.9100089
2,1,Target Stores,11253 Pines Blvd,Pembroke Pines,FL,33026,(954) 435-3161,26.009136,-80.299001
2,1,Target Stores,4711 Bayou Blvd,Pensacola,FL,32503,(850) 494-9070,30.46845,-87.20883
2,1,Target Stores,1749 E Nine Mile Rd,Pensacola,FL,32514,(850) 473-8647,30.530092,-87.224205
2,1,Target Stores,2950 S Blue Angel Pkwy,Pensacola,FL,32506,(850) 454-3000,30.362794,-87.357729
2,1,Target Stores,7150 US 19 N,Pinellas Park,FL,33781,(727) 803-0022,27.8435655,-82.7077354
2,1,Target Stores,8201 Federated West Roadway,Plantation,FL,33324,(954) 377-0085,26.119023,-80.258793
2,1,Target Stores,1400A Tamiami Trl,Port Charlotte,FL,33948,(941) 255-1181,27.012846,-82.142666
2,1,Target Stores,1771 Dunlawton Ave,Port Orange,FL,32127,(386) 322-1348,29.109713,-81.028173
2,1,Target Stores,10720 SW Village Pkwy,Port St Lucie,FL,34987,(772) 293-6152,27.2698276,-80.4262961
2,1,Target Stores,10150 Bloomingdale Ave,Riverview,FL,33578,(813) 387-1161,27.893784,-82.33224
2,1,Target Stores,1440 US Hwy 1 S,Saint Augustine,FL,32084,(904) 810-2336,29.875528,-81.322395
2,1,Target Stores,4450 Park St N,Saint Petersburg,FL,33709,(727) 548-0400,27.812436,-82.756272
2,1,Target Stores,8151 Dr Martin Luther King St N,Saint Petersburg,FL,33702,(727) 576-2735,27.846581,-82.64402
2,1,Target Stores,1201 W P Ball Blvd,Sanford,FL,32771,(407) 547-0007,28.7999108,-81.3370391
2,1,Target Stores,8401 S Tamiami Trl,Sarasota,FL,34238,(941) 925-3377,27.228181,-82.492464
2,1,Target Stores,5350 Fruitville Rd,Sarasota,FL,34232,(941) 379-6660,27.33647,-82.462778
2,1,Target Stores,101  N Cattlemen Rd,Sarasota,FL,34243,(941) 360-7520,27.335937,-82.4494807
2,1,Target Stores,4401 Commercial Way,Spring Hill,FL,34606,(352) 596-1411,28.4958261,-82.5985852
2,1,Target Stores,3101 Aerial Way,Spring Hill,FL,34604,(352) 593-2168,28.4786882,-82.4795687
2,1,Target Stores,2650 NW Federal Hwy,Stuart,FL,34994,(772) 692-3388,27.172238,-80.232248
2,1,Target Stores,12801 W Sunrise Blvd,Sunrise,FL,33323,(954) 846-2600,26.1512497,-80.3101684
2,1,Target Stores,2120 Apalachee Pkwy,Tallahassee,FL,32301,(850) 671-2041,30.4306277,-84.2450201
2,1,Target Stores,3700 Bradfordville Rd,Tallahassee,FL,32309,(850) 894-3213,30.560985,-84.215396
2,1,Target Stores,15240 N Dale Mabry Hwy,Tampa,FL,33618,(813) 962-2281,28.088635,-82.504968
2,1,Target Stores,13658 University Plaza St,Tampa,FL,33613,(813) 972-3396,28.0720124,-82.4278292
2,1,Target Stores,6295 W Waters Ave,Tampa,FL,33634,(813) 885-2311,28.027739,-82.548892
2,1,Target Stores,3625 W Gandy Blvd,Tampa,FL,33611,(813) 835-8333,27.894683,-82.505092
2,1,Target Stores,1544 N Dale Mabry Hwy,Tampa,FL,33607,(813) 262-0244,27.9577963,-82.5056762
2,1,Target Stores,11627 West Hillsborough Ave,Tampa,FL,33635,(813) 749-5961,28.015911,-82.61292
2,1,Target Stores,716 N US Highway 441/27,The Villages,FL,32159,(352) 205-8934,28.9177956,-81.8879884
2,1,Target Stores,3055 Columbia Blvd,Titusville,FL,32780,(321) 360-1086,28.5516774,-80.8407319
2,1,Target Stores,2900 Little Rd,Trinity,FL,34655,(727) 376-2140,28.200897,-82.6646279
2,1,Target Stores,4271 Tamiami Trl S,Venice,FL,34293,(941) 492-9224,27.0236113,-82.3343375
2,1,Target Stores,5800 20th St,Vero Beach,FL,32966,(772) 778-0376,27.640347,-80.447808
2,1,Target Stores,8455 N Wickham Rd,Viera,FL,32940,(321) 242-9631,28.227828,-80.719784
2,1,Target Stores,1201 County Road 581,Wesley Chapel,FL,33543,(813) 907-6687,28.18379,-82.3534899
2,1,Target Stores,4305 Norfolk Pkwy,West Melbourne,FL,32904,(321) 821-7340,28.0388537,-80.6611085
2,1,Target Stores,10155 Okeechobee Blvd,West Palm Beach,FL,33411,(561) 204-2349,26.710947,-80.202964
2,1,Target Stores,1760 Palm Beach Lakes Blvd,West Palm Beach,FL,33401,(561) 847-7480,26.7226764,-80.0861186
2,1,Target Stores,3343 Daniels Rd,Winter Garden,FL,34787,(407) 395-0111,28.5210401,-81.5852532
2,1,Target Stores,3770 N Goldenrod Rd,Winter Park,FL,32792,(407) 670-0388,28.59528,-81.287759
2,1,Target Stores,463737 State Rd 200,Yulee,FL,32097,(904) 548-1240,30.629776,-81.553307
2,1,Target Stores,3378 Cobb Pkwy NW,Acworth,GA,30101,(678) 202-0996,34.0362763,-84.6846707
2,1,Target Stores,2721 Dawson Rd,Albany,GA,31707,(229) 888-1333,31.621094,-84.22459
2,1,Target Stores,6000 N Point Pkwy,Alpharetta,GA,30022,(770) 664-5395,34.046532,-84.286629
2,1,Target Stores,2600 Holcomb Bridge Rd,Alpharetta,GA,30022,(678) 775-7620,34.0009625,-84.2820024
2,1,Target Stores,3065 Atlanta Hwy,Athens,GA,30606,(706) 208-9379,33.94165,-83.441355
2,1,Target Stores,3535 Peachtree Rd NE,Atlanta,GA,30326,(404) 237-9494,33.851546,-84.358665
2,1,Target Stores,2400 N Druid Hills Rd NE,Atlanta,GA,30329,(404) 267-0060,33.828105,-84.3279093
2,1,Target Stores,1275 Caroline St NE,Atlanta,GA,30307,(404) 260-0200,33.756606,-84.346463
2,1,Target Stores,100 Perimeter Center Pl,Atlanta,GA,30346,(678) 259-0888,33.93045,-84.34163
2,1,Target Stores,375 18th St,Atlanta,GA,30363,(678) 954-4265,33.793087,-84.3985892
2,1,Target Stores,2539 Piedmont Rd NE,Atlanta,GA,30324,(404) 720-1081,33.8240054,-84.3631229
2,1,Target Stores,235 Robert C Daniel Jr Pkwy,Augusta,GA,30909,(706) 667-6368,33.490267,-82.0811669
2,1,Target Stores,4125 Austell Rd,Austell,GA,30106,(678) 945-4550,33.852034,-84.602859
2,1,Target Stores,916 Loganville Hwy,Bethlehem,GA,30620,(678) 975-3060,33.9439411,-83.7560692
2,1,Target Stores,200 Glynn Isle,Brunswick,GA,31525,(912) 261-4868,31.2025757,-81.4803368
2,1,Target Stores,3205 Woodward Crossing Blvd,Buford,GA,30519,(678) 482-2367,34.0701465,-83.9813678
2,1,Target Stores,2022 Cumming Hwy,Canton,GA,30114,(678) 880-4311,34.2373973,-84.4579459
2,1,Target Stores,1129 S Park St,Carrollton,GA,30117,(770) 838-9221,33.5585499,-85.0762139
2,1,Target Stores,100 Cherokee Pl,Cartersville,GA,30121,(770) 387-9595,34.172648,-84.785931
2,1,Target Stores,1591 Bradley Park Dr,Columbus,GA,31904,(706) 321-0831,32.5347485,-84.9710691
2,1,Target Stores,2195 Highway 20 SE,Conyers,GA,30013,(770) 785-6470,33.6312013,-84.0150439
2,1,Target Stores,1525 Market Place Blvd,Cumming,GA,30041,(678) 455-9618,34.186027,-84.134371
2,1,Target Stores,2950 Chapel Hill Rd,Douglasville,GA,30135,(770) 947-5303,33.7261647,-84.7350838
2,1,Target Stores,5950 State Bridge Rd,Duluth,GA,30097,(770) 476-5548,34.0143921,-84.188962
2,1,Target Stores,3935 Venture Dr,Duluth,GA,30096,(770) 232-1929,33.950828,-84.143778
2,1,Target Stores,3660 Marketplace Blvd,East Point,GA,30344,(404) 267-0063,33.6593689,-84.4997221
2,1,Target Stores,4223 Washington Rd,Evans,GA,30809,(706) 210-8591,33.52664,-82.118521
2,1,Target Stores,107 Pavilion Pkwy,Fayetteville,GA,30214,(770) 719-9766,33.481366,-84.4387
2,1,Target Stores,5865 Spout Springs Rd,Flowery Branch,GA,30542,(770) 967-1205,34.178706,-83.911389
2,1,Target Stores,514 Shallowford Rd NW,Gainesville,GA,30504,(770) 532-6670,34.290164,-83.84625
2,1,Target Stores,5220 Jimmy Lee Smith Pkwy,Hiram,GA,30141,(678) 567-0142,33.8855461,-84.7410815
2,1,Target Stores,740 Ernest W Barrett Pkwy NW,Kennesaw,GA,30144,(770) 425-6895,34.00958,-84.573215
2,1,Target Stores,875 Lawrenceville Suwanee Rd #4000,Lawrenceville,GA,30043,(770) 338-4460,33.9688699,-84.0165813
2,1,Target Stores,8109 Mall Pkwy,Lithonia,GA,30038,(678) 259-0046,33.6921941,-84.0917361
2,1,Target Stores,4685 Presidential Pkwy,Macon,GA,31206,(478) 405-0273,32.817381,-83.715283
2,1,Target Stores,3040 Shallowford Rd,Marietta,GA,30062,(770) 321-8545,34.035368,-84.4603319
2,1,Target Stores,2535 Dallas Hwy SW,Marietta,GA,30064,(770) 792-7933,33.944719,-84.6251939
2,1,Target Stores,1401 Johnson Ferry Rd,Marietta,GA,30062,(770) 240-0005,33.984475,-84.427681
2,1,Target Stores,1850 Jonesboro Rd,Mcdonough,GA,30253,(678) 583-2184,33.467591,-84.216868
2,1,Target Stores,13055 Highway 9 N,Milton,GA,30004,(770) 225-1780,34.1062881,-84.2694591
2,1,Target Stores,1940 Mount Zion Rd,Morrow,GA,30260,(770) 472-3355,33.566866,-84.326158
2,1,Target Stores,555 Bullsboro Dr,Newnan,GA,30265,(770) 502-0294,33.392593,-84.758524
2,1,Target Stores,3200 Holcomb Bridge Rd,Norcross,GA,30092,(770) 849-0885,33.951156,-84.232113
2,1,Target Stores,1209 Peachtree Pkwy N,Peachtree City,GA,30269,(770) 282-2165,33.4363159,-84.5907205
2,1,Target Stores,1135 Woodstock Rd,Roswell,GA,30075,(770) 998-0144,34.0625197,-84.3960027
2,1,Target Stores,5610 Roswell Rd,Sandy Springs,GA,30342,(678) 704-8120,33.907943,-84.3787427
2,1,Target Stores,14065 Abercorn St,Savannah,GA,31419,(912) 925-2667,31.9841887,-81.1752251
2,1,Target Stores,1907 E Victory Dr,Savannah,GA,31404,(912) 644-1600,32.040506,-81.068172
2,1,Target Stores,2201 Cobb Pkwy SE,Smyrna,GA,30080,(770) 952-2241,33.8957148,-84.4807275
2,1,Target Stores,1905 Scenic Hwy N,Snellville,GA,30078,(770) 736-1113,33.876778,-84.014937
2,1,Target Stores,2625 Peachtree Pkwy,Suwanee,GA,30024,(678) 513-8013,34.0942415,-84.1746818
2,1,Target Stores,4241 Lavista Rd,Tucker,GA,30084,(770) 270-5375,33.8467279,-84.2451037
2,1,Target Stores,1815 Norman Dr,Valdosta,GA,31601,(229) 242-0330,30.8437081,-83.3179944
2,1,Target Stores,2929 Watson Blvd,Warner Robins,GA,31093,(478) 971-2141,32.616615,-83.68472
2,1,Target Stores,140 Woodstock Square Ave,Woodstock,GA,30189,(678) 494-5307,34.0854604,-84.546626
2,1,Target Stores,4380 Lawehana St,Honolulu,HI,96818,(808) 441-3118,21.354759,-157.929368
2,1,Target Stores,74-5455 Makala Blvd,Kailua-Kona,HI,96740,(808) 334-4020,19.647938,-156.00306
2,1,Target Stores,4450 Kapolei Pkwy Ste 100,Kapolei,HI,96707,(808) 457-3679,21.3296836,-158.093679
2,1,Target Stores,3414 8th St SW,Altoona,IA,50009,(515) 967-9343,41.641995,-93.504337
2,1,Target Stores,320 S Duff Ave,Ames,IA,50010,(515) 663-9500,42.019277,-93.60755
2,1,Target Stores,2135 SE Delaware Ave,Ankeny,IA,50021,(515) 964-9000,41.7097234,-93.5783226
2,1,Target Stores,214 Viking Plaza Dr,Cedar Falls,IA,50613,(319) 553-1120,42.481582,-92.444288
2,1,Target Stores,1030 Blairs Ferry Rd NE,Cedar Rapids,IA,52402,(319) 393-1600,42.036705,-91.651068
2,1,Target Stores,3400 Edgewood Rd SW,Cedar Rapids,IA,52404,(319) 396-4444,41.943971,-91.717523
2,1,Target Stores,2900 S 25th St,Clinton,IA,52732,(563) 243-9909,41.8157684,-90.2448601
2,1,Target Stores,1441 Coral Ridge Ave,Coralville,IA,52241,(319) 351-5150,41.6900047,-91.6084364
2,1,Target Stores,3804 Metro Dr,Council Bluffs,IA,51501,(712) 309-3380,41.219915,-95.838315
2,1,Target Stores,5225 Elmore Ave,Davenport,IA,52807,(563) 344-9447,41.572703,-90.526632
2,1,Target Stores,1111 E Army Post Rd Ste 2204,Des Moines,IA,50315,(515) 287-3438,41.5226464,-93.602886
2,1,Target Stores,5901 Douglas Ave,Des Moines,IA,50322,(515) 331-6115,41.6295359,-93.6998984
2,1,Target Stores,3500 Dodge St,Dubuque,IA,52003,(563) 557-9800,42.489963,-90.721985
2,1,Target Stores,2910 1st Ave S,Fort Dodge,IA,50501,(515) 573-7950,42.506273,-94.157017
2,1,Target Stores,3450 4th St SW,Mason City,IA,50401,(641) 423-8335,43.149779,-93.252394
2,1,Target Stores,1020 N Quincy Ave,Ottumwa,IA,52501,(641) 684-4229,41.0164727,-92.4384767
2,1,Target Stores,5775 Sunnybrook Dr,Sioux City,IA,51106,(712) 274-8644,42.4504648,-96.3325037
2,1,Target Stores,11148 Plum Dr,Urbandale,IA,50322,(515) 270-6556,41.6474174,-93.7669531
2,1,Target Stores,1501 E San Marnan Dr,Waterloo,IA,50702,(319) 226-6500,42.465722,-92.328028
2,1,Target Stores,525 S Gear Ave,West Burlington,IA,52655,(319) 752-2023,40.821126,-91.171705
2,1,Target Stores,1800 Valley West Dr,West Des Moines,IA,50266,(515) 225-3784,41.599292,-93.753196
2,1,Target Stores,5405 Mill Civic Pkwy,West Des Moines,IA,50266,(515) 223-0262,41.5680235,-93.8146526
2,1,Target Stores,633 N Milwaukee St,Boise,ID,83704,(208) 375-3275,43.610382,-116.2857897
2,1,Target Stores,6280 N Eagle Rd,Boise,ID,83713,(208) 938-8350,43.6614143,-116.3516951
2,1,Target Stores,315 W Canfield Ave,Coeur D Alene,ID,83815,(208) 772-7523,47.73522,-116.791429
2,1,Target Stores,2171 S 25th E,Idaho Falls,ID,83406,(208) 535-2285,43.4778329,-111.983341
2,1,Target Stores,16300 N Market Place Blvd,Nampa,ID,83687,(208) 465-6800,43.609585,-116.589443
2,1,Target Stores,1611 Blue Lakes Blvd N,Twin Falls,ID,83301,(208) 736-0700,42.591205,-114.462824
2,1,Target Stores,750 S Randall Rd,Algonquin,IL,60102,(847) 458-5340,42.162237,-88.338688
2,1,Target Stores,300 Homer M Adams Pkwy,Alton,IL,62002,(618) 465-4950,38.919814,-90.1701016
2,1,Target Stores,1700 E Rand Rd,Arlington Heights,IL,60004,(847) 222-0925,42.101975,-87.961532
2,1,Target Stores,115 N Randall Rd,Batavia,IL,60510,(630) 406-8152,41.852175,-88.342
2,1,Target Stores,7100 S Cicero Ave,Bedford Park,IL,60629,(708) 563-9050,41.7629685,-87.742872
2,1,Target Stores,5601 Belleville Crossing St,Belleville,IL,62226,(618) 310-1901,38.5375354,-90.0093266
2,1,Target Stores,1188 W Boughton Rd,Bolingbrook,IL,60440,(630) 378-5544,41.70472,-88.121785
2,1,Target Stores,1615 N State Route 50,Bourbonnais,IL,60914,(815) 933-8890,41.1741297,-87.8542082
2,1,Target Stores,800 Broadview Village Sq,Broadview,IL,60155,(708) 731-5555,41.8514206,-87.852914
2,1,Target Stores,1717 E West Rd,Calumet City,IL,60409,(708) 730-3000,41.5993881,-87.5652938
2,1,Target Stores,2102 N Prospect Ave,Champaign,IL,61822,(217) 355-3325,40.1417829,-88.255737
2,1,Target Stores,2656 N Elston Ave,Chicago,IL,60647,(773) 252-1994,41.928766,-87.684659
2,1,Target Stores,2939 W Addison St,Chicago,IL,60618,(773) 604-7680,41.9466601,-87.7014316
2,1,Target Stores,8560 S Cottage Grove Ave,Chicago,IL,60619,(773) 371-8555,41.738884,-87.606764
2,1,Target Stores,4433 S Pulaski Rd,Chicago,IL,60632,(773) 579-2120,41.8127165,-87.723673
2,1,Target Stores,1154 S Clark St,Chicago,IL,60605,(312) 212-6300,41.868393,-87.63115
2,1,Target Stores,6525 W Diversey Ave,Chicago,IL,60707,(773) 804-3610,41.9299869,-87.789138
2,1,Target Stores,1940 W 33rd St,Chicago,IL,60608,(773) 843-3250,41.835522,-87.673537
2,1,Target Stores,2112 W Peterson Ave,Chicago,IL,60659,(773) 761-3001,41.991387,-87.682907
2,1,Target Stores,11840 S Marshfield Ave,Chicago,IL,60643,(773) 396-5506,41.6786325,-87.6625139
2,1,Target Stores,4466 N Broadway St,Chicago,IL,60640,NA,41.9631305,-87.656352
2,1,Target Stores,2901 S Cicero Ave,Cicero,IL,60804,(708) 863-6830,41.839619,-87.7418577
2,1,Target Stores,5071 Cal Sag Rd,Crestwood,IL,60445,(708) 385-9722,41.6585099,-87.7475952
2,1,Target Stores,5580 Northwest Hwy,Crystal Lake,IL,60014,(815) 356-9265,42.228513,-88.305426
2,1,Target Stores,355 W Mound Rd,Decatur,IL,62526,(217) 875-6060,39.8902318,-88.9586333
2,1,Target Stores,2555 Sycamore Rd,Dekalb,IL,60115,(815) 787-6970,41.955865,-88.7221517
2,1,Target Stores,2350 Troy Rd,Edwardsville,IL,62025,(618) 659-3200,38.8414469,-89.9440061
2,1,Target Stores,300 S Randall Rd,Elgin,IL,60123,(847) 695-1992,42.0253114,-88.339106
2,1,Target Stores,2209 Howard St,Evanston,IL,60202,(847) 733-1144,42.0209104,-87.7053113
2,1,Target Stores,4701 N Illinois St,Fairview Heights,IL,62208,(618) 310-2074,38.571336,-89.985161
2,1,Target Stores,1071 W Carl Sandburg Dr,Galesburg,IL,61401,(309) 344-3211,40.974952,-90.3890986
2,1,Target Stores,175 W Army Trail Rd,Glendale Heights,IL,60139,(630) 582-0043,41.937546,-88.09939
2,1,Target Stores,2241 Willow Rd,Glenview,IL,60025,(847) 657-0095,42.1024147,-87.813926
2,1,Target Stores,6601 Grand Ave,Gurnee,IL,60031,(847) 244-4990,42.383651,-87.965634
2,1,Target Stores,2099 Skokie Valley Rd,Highland Park,IL,60035,(847) 266-8022,42.191676,-87.825297
2,1,Target Stores,130 S Mannheim Rd,Hillside,IL,60162,(708) 375-5071,41.8675497,-87.8833058
2,1,Target Stores,9250 Joliet Rd,Hodgkins,IL,60525,(708) 387-2350,41.7811639,-87.860046
2,1,Target Stores,2800 N Sutton Road,HoffMan Estates,IL,60192,(847) 645-1170,42.0714062,-88.1900699
2,1,Target Stores,17605 S Halsted St,Homewood,IL,60430,(708) 335-5250,41.5696536,-87.6361173
2,1,Target Stores,2701 Plainfield Rd,Joliet,IL,60435,(815) 439-6940,41.576674,-88.154076
2,1,Target Stores,555 S Rand Rd,Lake Zurich,IL,60047,(847) 726-1174,42.1868382,-88.1043505
2,1,Target Stores,13460 S Archer Ave,Lemont,IL,60439,(630) 243-6511,41.643692,-88.004583
2,1,Target Stores,60 Yorktown Shopping Ctr,Lombard,IL,60148,(630) 495-9560,41.8427669,-88.0052864
2,1,Target Stores,9833 N Alpine Rd,Machesney Park,IL,61115,(815) 639-3300,42.36717,-89.027752
2,1,Target Stores,3000 W Deyoung St,Marion,IL,62959,(618) 997-8174,37.7483665,-88.9778958
2,1,Target Stores,4647 Promenade Way,Matteson,IL,60443,(708) 898-5008,41.5039235,-87.7131018
2,1,Target Stores,1860 N Richmond Rd,Mchenry,IL,60051,(815) 385-1085,42.3549792,-88.267241
2,1,Target Stores,850 W North Ave,Melrose Park,IL,60160,(708) 338-2784,41.905295,-87.843508
2,1,Target Stores,900 42nd Avenue Dr,Moline,IL,61265,(309) 764-7500,41.4695522,-90.5244902
2,1,Target Stores,3100 W Hwy 60,Mundelein,IL,60060,(847) 367-2650,42.284168,-88.044461
2,1,Target Stores,1951 W Jefferson Ave,Naperville,IL,60540,(630) 357-0056,41.7701163,-88.2039878
2,1,Target Stores,2370 E Lincoln Hwy,New Lenox,IL,60451,(815) 462-6001,41.507186,-87.921059
2,1,Target Stores,6150 W Touhy Ave,Niles,IL,60714,(847) 588-2800,42.013029,-87.780447
2,1,Target Stores,239 Golf Mill Ctr,Niles,IL,60714,(847) 768-9217,42.051528,-87.83768
2,1,Target Stores,301 Veterans Pkwy,Normal,IL,61761,(309) 454-5648,40.5183163,-88.9701082
2,1,Target Stores,4050 N Harlem Ave,Norridge,IL,60706,(708) 583-6980,41.9628292,-87.8072064
2,1,Target Stores,1800 Orchard Gateway Blvd,North Aurora,IL,60542,(630) 518-9042,41.7999041,-88.366953
2,1,Target Stores,4120 West 95th St,Oak Lawn,IL,60453,(708) 741-4052,41.7204757,-87.7243203
2,1,Target Stores,15850 S 94th Ave,Orland Park,IL,60462,(708) 349-1122,41.6025125,-87.8480824
2,1,Target Stores,3020 Route 34,Oswego,IL,60543,(630) 554-4000,41.6976642,-88.3196531
2,1,Target Stores,679 E Dundee Rd,Palatine,IL,60074,(847) 202-5120,42.1391361,-88.0257554
2,1,Target Stores,5001 N Big Hollow Rd,Peoria,IL,61615,(309) 691-9030,40.7511296,-89.6358568
2,1,Target Stores,4370 Venture Dr,Peru,IL,61354,(815) 224-2442,41.3632047,-89.1293591
2,1,Target Stores,12800 S State Route 59,Plainfield,IL,60585,(815) 577-5100,41.6493975,-88.2035062
2,1,Target Stores,6560 E State St,Rockford,IL,61108,(815) 227-9788,42.2610481,-88.9509626
2,1,Target Stores,349 S Weber Rd,Romeoville,IL,60446,(815) 524-9801,41.612249,-88.121487
2,1,Target Stores,7000 Mannheim Rd,Rosemont,IL,60018,(847) 795-1760,42.0055165,-87.8846555
2,1,Target Stores,2621 W Schaumburg Rd,Schaumburg,IL,60194,(847) 798-0192,42.023416,-88.146179
2,1,Target Stores,1235 E Higgins Rd,Schaumburg,IL,60173,(847) 413-1080,42.0377028,-88.0486214
2,1,Target Stores,3400 Green Mountcrossing Dr,Shiloh,IL,62269,(618) 628-3333,38.572985,-89.92325
2,1,Target Stores,1111 Brook Forest Ave,Shorewood,IL,60431,(815) 609-6800,41.541075,-88.19951
2,1,Target Stores,530 Randall Rd,South Elgin,IL,60177,(847) 697-1017,41.9759708,-88.3438432
2,1,Target Stores,3445 Freedom Dr,Springfield,IL,62704,(217) 546-5003,39.7491239,-89.708584
2,1,Target Stores,3885 E Main St,St Charles,IL,60174,(630) 232-3980,41.9210544,-88.265158
2,1,Target Stores,1001 Sutton Rd,Streamwood,IL,60107,(630) 372-3330,42.0166863,-88.2029733
2,1,Target Stores,7300 191st St,Tinley Park,IL,60487,(815) 806-3210,41.5457096,-87.795421
2,1,Target Stores,313 E Townline Rd,Vernon Hills,IL,60061,(847) 680-0390,42.239016,-87.956945
2,1,Target Stores,50 E North Ave,Villa Park,IL,60181,(630) 833-7411,41.9073181,-87.9771195
2,1,Target Stores,28201 Diehl Rd,Warrenville,IL,60555,(630) 657-5555,41.8007978,-88.169943
2,1,Target Stores,3050 N Lewis Ave,Waukegan,IL,60087,(847) 599-9069,42.407528,-87.856489
2,1,Target Stores,999 W Main St,West Dundee,IL,60118,(847) 836-1060,42.097506,-88.2956652
2,1,Target Stores,601 S County Farm Rd,Wheaton,IL,60187,(630) 510-1590,41.8591418,-88.1402367
2,1,Target Stores,1400 W Lake Cook Rd,Wheeling,IL,60090,(847) 215-5051,42.1541502,-87.9503286
2,1,Target Stores,7601 Kingery Hwy,Willowbrook,IL,60527,(630) 321-2080,41.7620731,-87.9417665
2,1,Target Stores,401 W Irving Park Rd,Wood Dale,IL,60191,(630) 594-5510,41.9657163,-87.9930255
2,1,Target Stores,2333 63rd St,Woodridge,IL,60517,(630) 434-0909,41.7722734,-88.0391659
2,1,Target Stores,1652 North Beecher Rd,Yorkville,IL,60560,(630) 385-3200,41.6622848,-88.4649013
2,1,Target Stores,5501 S Scatterfield Rd,Anderson,IN,46013,(765) 649-2521,40.0545067,-85.6743082
2,1,Target Stores,10209 E US Highway 36,Avon,IN,46123,(317) 271-6483,39.7637085,-86.3422035
2,1,Target Stores,2966 E 3rd St,Bloomington,IN,47401,(812) 336-3473,39.1641949,-86.494556
2,1,Target Stores,15160 N Meridian St,Carmel,IN,46032,(317) 815-0560,40.0084185,-86.1275659
2,1,Target Stores,10401 N Michigan Rd,Carmel,IN,46032,(317) 876-0809,39.9363997,-86.2325882
2,1,Target Stores,1125 Veterans Pkwy,Clarksville,IN,47129,(812) 284-4524,38.3262167,-85.7646234
2,1,Target Stores,1865 N National Rd,Columbus,IN,47201,(812) 376-0450,39.218196,-85.885446
2,1,Target Stores,4000 1st Ave,Evansville,IN,47710,(812) 426-2218,38.016501,-87.576455
2,1,Target Stores,6625 E Lloyd Expy,Evansville,IN,47715,(812) 402-8500,37.975706,-87.471558
2,1,Target Stores,11750 Commercial Dr,Fishers,IN,46038,(317) 845-4945,39.959428,-86.00989
2,1,Target Stores,6119 Stellhorn Rd,Fort Wayne,IN,46815,(260) 485-8640,41.122068,-85.063504
2,1,Target Stores,3801 Coldwater Rd,Fort Wayne,IN,46805,(260) 470-6360,41.1024994,-85.1220031
2,1,Target Stores,1102 S Thomas Rd,Fort Wayne,IN,46807,(260) 434-4580,41.076168,-85.2032279
2,1,Target Stores,3938 Midway Rd,Goshen,IN,46526,(574) 875-6400,41.62195,-85.905728
2,1,Target Stores,155 University Dr E,Granger,IN,46530,(574) 243-7442,41.720357,-86.1787827
2,1,Target Stores,895 S State Rd 135,Greenwood,IN,46143,(317) 883-5200,39.603074,-86.1572489
2,1,Target Stores,10451 Indianapolis Blvd,Highland,IN,46322,(219) 924-1527,41.5237265,-87.4712934
2,1,Target Stores,8448 Center Run Dr,Indianapolis,IN,46250,(317) 845-9823,39.910243,-86.059171
2,1,Target Stores,6925 W 38th St,Indianapolis,IN,46254,(317) 329-1034,39.821639,-86.27962
2,1,Target Stores,10202 E Washington St,Indianapolis,IN,46229,(317) 899-3198,39.7751656,-85.9872159
2,1,Target Stores,4850 E Southport Rd,Indianapolis,IN,46237,(317) 787-4169,39.6678373,-86.0887384
2,1,Target Stores,1300 E 86th St Ste 35,Indianapolis,IN,46240,(317) 810-0044,39.9136268,-86.137157
2,1,Target Stores,6101 N Keystone Ave,Indianapolis,IN,46220,(317) 454-7504,39.866682,-86.119684
2,1,Target Stores,1037 S Reed Rd,Kokomo,IN,46902,(765) 457-7577,40.4722182,-86.1079622
2,1,Target Stores,3630 State Road 26 E,Lafayette,IN,47905,(765) 446-8551,40.4195791,-86.84739
2,1,Target Stores,2661 E US Highway 30,Merrillville,IN,46410,(219) 942-0402,41.4828144,-87.3328139
2,1,Target Stores,3601 N Barr St,Muncie,IN,47303,(765) 254-9027,40.222187,-85.380819
2,1,Target Stores,8005 Calumet Ave,Munster,IN,46321,(219) 836-2489,41.5443613,-87.5099057
2,1,Target Stores,2209 State St,New Albany,IN,47150,(812) 945-5046,38.305451,-85.841961
2,1,Target Stores,2673 E Main St,Plainfield,IN,46168,(317) 839-4027,39.716183,-86.355438
2,1,Target Stores,1400 E Ireland Rd,South Bend,IN,46614,(574) 299-1402,41.6273845,-86.2290537
2,1,Target Stores,9885 Wicker Ave,St John,IN,46373,(219) 365-8162,41.443555,-87.4703029
2,1,Target Stores,2420 Laporte Ave,Valparaiso,IN,46383,(219) 531-6448,41.4679964,-87.0320267
2,1,Target Stores,2024 North Rock Rd,Derby,KS,67037,(316) 448-4553,37.56849,-97.242211
2,1,Target Stores,2401 E Kansas Ave,Garden City,KS,67846,(620) 275-1101,37.9796679,-100.843223
2,1,Target Stores,1529 E 17th Ave,Hutchinson,KS,67501,(620) 662-1800,38.0711,-97.8988
2,1,Target Stores,10900 Stadium Pkwy,Kansas City,KS,66111,(913) 905-0316,39.127111,-94.831362
2,1,Target Stores,3201 S Iowa St,Lawrence,KS,66046,(785) 832-0660,38.925737,-95.263487
2,1,Target Stores,800 Commons Pl,Manhattan,KS,66503,(785) 770-3643,39.171644,-96.605727
2,1,Target Stores,6100 Broadmoor St,Mission,KS,66202,(913) 262-2434,39.0246739,-94.6708709
2,1,Target Stores,20255 W 154th St,Olathe,KS,66062,(913) 782-5975,38.848926,-94.819906
2,1,Target Stores,15345 W 119th St,Olathe,KS,66062,(913) 393-4400,38.8271089,-94.7898731
2,1,Target Stores,12200 Blue Valley Pkwy,Overland Park,KS,66213,(913) 327-7770,38.9086506,-94.6724351
2,1,Target Stores,8101 W 151st,Overland Park,KS,66223,(913) 905-0419,38.8630091,-94.6760395
2,1,Target Stores,11501 W 97th St,Overland Park,KS,66214,(913) 905-0285,38.9505888,-94.7186695
2,1,Target Stores,2939 Market Pl,Salina,KS,67401,(785) 825-1354,38.784277,-97.609386
2,1,Target Stores,15700 Shawnee Mission Pkwy,Shawnee,KS,66217,(913) 962-8222,39.0096652,-94.7846938
2,1,Target Stores,2120 SW Wanamaker Rd,Topeka,KS,66614,(785) 273-9841,39.0283986,-95.7597566
2,1,Target Stores,301 S Towne East Mall Dr,Wichita,KS,67207,(316) 688-1556,37.683297,-97.251731
2,1,Target Stores,7575 Maple St,Wichita,KS,67209,(316) 729-5348,37.6780039,-97.4317137
2,1,Target Stores,10800 E 21st St N,Wichita,KS,67206,(316) 636-4206,37.72434,-97.211566
2,1,Target Stores,2727 N Maize Rd,Wichita,KS,67205,(316) 721-4289,37.7319132,-97.4653846
2,1,Target Stores,160 American Ave,Bowling Green,KY,42104,(270) 842-0013,36.950502,-86.43754
2,1,Target Stores,1631 Ring Rd,Elizabethtown,KY,42701,(270) 769-6402,37.7295958,-85.8796034
2,1,Target Stores,1100 Hansel Dr,Florence,KY,41042,(859) 371-7771,39.019449,-84.633481
2,1,Target Stores,131 West Reynolds Rd,Lexington,KY,40503,(859) 273-9403,37.9927597,-84.5256451
2,1,Target Stores,1940 Pavillon Way,Lexington,KY,40509,(859) 263-7448,38.022135,-84.415575
2,1,Target Stores,9070 Dixie Hwy,Louisville,KY,40258,(502) 933-1315,38.125346,-85.854654
2,1,Target Stores,4640 Taylorsville Rd,Louisville,KY,40220,(502) 493-8717,38.215621,-85.594876
2,1,Target Stores,4101 Towne Center Dr,Louisville,KY,40241,(502) 326-9185,38.2969357,-85.5546409
2,1,Target Stores,3600 Mall Rd,Louisville,KY,40218,(502) 456-6768,38.19859,-85.670717
2,1,Target Stores,7311 Jefferson Blvd,Louisville,KY,40219,(502) 964-1053,38.14553,-85.67308
2,1,Target Stores,4174 Westport Rd,Louisville,KY,40207,(502) 992-1039,38.258438,-85.64278
2,1,Target Stores,12975 Shelbyville Rd,Louisville,KY,40243,(502) 992-1237,38.243229,-85.511115
2,1,Target Stores,5151 Frederica St,Owensboro,KY,42301,(270) 686-7033,37.717072,-87.122849
2,1,Target Stores,2206 Memorial Dr,Alexandria,LA,71301,(318) 448-4351,31.2798893,-92.4601575
2,1,Target Stores,6885 Siegen Ln,Baton Rouge,LA,70809,(225) 293-0984,30.3869954,-91.0631608
2,1,Target Stores,2001 Millerville Rd,Baton Rouge,LA,70816,(225) 272-4275,30.4398431,-91.0242292
2,1,Target Stores,2735 Beene Blvd,Bossier City,LA,71111,(318) 678-6800,32.55852,-93.707279
2,1,Target Stores,69320 Highway 21,Covington,LA,70433,(985) 871-7093,30.442368,-90.1402396
2,1,Target Stores,2030 Hammond Square Dr,Hammond,LA,70403,(985) 277-3203,30.4806696,-90.461841
2,1,Target Stores,1731 Manhattan Blvd,Harvey,LA,70058,(504) 227-2014,29.8881277,-90.0560246
2,1,Target Stores,1727 Martin Luther King Jr Blvd,Houma,LA,70360,(985) 223-2575,29.5779003,-90.810357
2,1,Target Stores,4313 Ambassador Caffery Pkwy,Lafayette,LA,70508,(337) 406-2536,30.160681,-92.049044
2,1,Target Stores,3225 Louisiana Ave,Lafayette,LA,70501,(337) 769-7515,30.265649,-91.996595
2,1,Target Stores,1720 W Prien Lake Rd,Lake Charles,LA,70601,(337) 474-2391,30.2293526,-93.2131232
2,1,Target Stores,4500 Veterans Memorial Blvd,Metairie,LA,70006,(504) 888-2184,30.0034792,-90.1828346
2,1,Target Stores,4103 Pecanland Mall Dr,Monroe,LA,71203,(318) 361-3781,32.5093109,-92.1193012
2,1,Target Stores,7110 Youree Dr,Shreveport,LA,71105,(318) 797-1190,32.43992,-93.719121
2,1,Target Stores,61121 Airport Rd,Slidell,LA,70460,(985) 649-6903,30.3205478,-89.8258223
2,1,Target Stores,385 Centre Ave,Abington,MA,2351,(781) 347-9003,42.1111414,-70.9297562
2,1,Target Stores,NA,Braintree,MA,NA,NA,-22.95764,18.49041
2,1,Target Stores,240 Independence Way,Danvers,MA,1923,(978) 762-4439,42.552552,-70.937195
2,1,Target Stores,7 Allstate Rd,Dorchester,MA,2125,(617) 602-1921,42.329311,-71.062669
2,1,Target Stores,1 Mystic View Rd,Everett,MA,2149,(617) 420-0000,42.3986996,-71.0724969
2,1,Target Stores,400 Cochituate Rd,Framingham,MA,1701,(508) 628-3136,42.3048009,-71.4003434
2,1,Target Stores,367 Russell St,Hadley,MA,1035,(413) 586-5945,42.3563676,-72.5478422
2,1,Target Stores,1167 Washington St,Hanover,MA,2339,(781) 499-1961,42.1369655,-70.8417562
2,1,Target Stores,35 Computer Dr,Haverhill,MA,1832,(978) 377-9003,42.786373,-71.119174
2,1,Target Stores,50 Holyoke St,Holyoke,MA,1040,(413) 532-0240,42.167072,-72.640056
2,1,Target Stores,101 Independence Mall Way,Kingston,MA,2364,(781) 585-5825,41.9702517,-70.7161725
2,1,Target Stores,655 Cheshire Rd,Lanesboro,MA,1237,(413) 236-4210,42.4897052,-73.2033925
2,1,Target Stores,86 Orchard Hill Park Dr,Leominster,MA,1453,(978) 534-2914,42.5259932,-71.7126095
2,1,Target Stores,181 Plain St,Lowell,MA,1852,(978) 703-2020,42.6246609,-71.3181074
2,1,Target Stores,423 Donald Lynch Blvd,Marlborough,MA,1752,(508) 573-1004,42.3600819,-71.6069448
2,1,Target Stores,67 Pleasant Valley St,Methuen,MA,1844,(978) 983-2020,42.7404434,-71.1605827
2,1,Target Stores,250 Fortune Blvd,Milford,MA,1757,(508) 478-5880,42.1612705,-71.5042259
2,1,Target Stores,70 Worcester Providence Tpke #100,Millbury,MA,1527,(508) 865-3116,42.1996124,-71.7780874
2,1,Target Stores,1205 S Washington St,North Attleboro,MA,2760,(508) 699-9118,41.939602,-71.353442
2,1,Target Stores,479 State Rd,North Dartmouth,MA,2747,(508) 979-7530,41.6367949,-71.002434
2,1,Target Stores,91 Taunton St,Plainville,MA,2762,(508) 643-5008,42.0279838,-71.3100021
2,1,Target Stores,36 Furlong Dr,Revere,MA,2151,(781) 922-6030,42.3998647,-70.9989151
2,1,Target Stores,227 Highland Ave,Salem,MA,1970,(978) 224-4000,42.503687,-70.919962
2,1,Target Stores,400 Lynn Fells Pkwy,Saugus,MA,1906,(781) 307-0000,42.4807749,-71.0232671
2,1,Target Stores,79 Commerce Way,Seekonk,MA,2771,(508) 336-1117,41.795546,-71.318003
2,1,Target Stores,180 Somerville Ave,Somerville,MA,2143,(617) 776-4036,42.3766496,-71.0907969
2,1,Target Stores,41 Robert Dr,South Easton,MA,2375,(508) 230-0005,42.027098,-71.143465
2,1,Target Stores,1 Hawes Way,Stoughton,MA,2072,(781) 847-4000,42.154066,-71.071203
2,1,Target Stores,81 Taunton Depot Dr,Taunton,MA,2780,(508) 824-8004,41.878334,-71.068616
2,1,Target Stores,2421 Cranberry Hwy Ste 110,Wareham,MA,2571,(508) 273-0436,41.77865,-70.7425374
2,1,Target Stores,550 Arsenal St,Watertown,MA,2472,(617) 924-6574,42.364128,-71.157556
2,1,Target Stores,330 Turnpike Rd,Westborough,MA,1581,(508) 366-1426,42.280354,-71.655347
2,1,Target Stores,101 Commerce Way,Woburn,MA,1801,(781) 904-0002,42.5182561,-71.1368287
2,1,Target Stores,529 Lincoln St,Worcester,MA,1605,(508) 852-3094,42.2947994,-71.7733257
2,1,Target Stores,1025 Middleton Rd,Aberdeen,MD,21001,(410) 297-8710,39.521253,-76.178119
2,1,Target Stores,403 Constant Friendship Blvd,Abingdon,MD,21009,(410) 670-9000,39.46004,-76.316389
2,1,Target Stores,1911 Towne Centre Blvd,Annapolis,MD,21401,(443) 837-3540,38.98057,-76.541744
2,1,Target Stores,5230 Campbell Blvd,Baltimore,MD,21236,(410) 933-9632,39.370952,-76.45166
2,1,Target Stores,3201 Tioga Parkway,Baltimore,MD,21215,(410) 369-1007,39.3176,-76.656573
2,1,Target Stores,580 Marketplace Dr,Bel Air,MD,21014,(410) 638-7532,39.525476,-76.35029
2,1,Target Stores,4600 Mitchellville Rd,Bowie,MD,20716,(301) 352-3830,38.952743,-76.722339
2,1,Target Stores,10401 Martin Luther King Jr Hwy,Bowie,MD,20720,(301) 955-0107,38.953976,-76.825121
2,1,Target Stores,15922 Crain Highway SE,Brandywine,MD,20613,(301) 720-9000,38.67243,-76.873313
2,1,Target Stores,45155 First Colony Way,California,MD,20619,(301) 862-5003,38.297503,-76.513062
2,1,Target Stores,9901 York Rd,Cockeysville,MD,21030,(410) 683-4985,39.461765,-76.6340139
2,1,Target Stores,6111 Dobbin Rd,Columbia,MD,21045,(410) 290-1123,39.1976453,-76.8130084
2,1,Target Stores,3101 Donnell Dr,District Heights,MD,20747,(301) 778-1651,38.849094,-76.886572
2,1,Target Stores,28539 Marlboro Ave,Easton,MD,21601,(410) 770-6180,38.781809,-76.086472
2,1,Target Stores,4390 Montgomery Rd,Ellicott City,MD,21043,(410) 203-1700,39.2500318,-76.8120456
2,1,Target Stores,5437 Urbana Pike,Frederick,MD,21704,(301) 624-1790,39.3805157,-77.3993379
2,1,Target Stores,25 Grand Corner Ave,Gaithersburg,MD,20878,(301) 721-1760,39.1190113,-77.2026103
2,1,Target Stores,20908 Frederick Rd,Germantown,MD,20876,(301) 515-6882,39.2006624,-77.2454423
2,1,Target Stores,7951 Nolpark Ct,Glen Burnie,MD,21061,(410) 969-2257,39.1341697,-76.6352718
2,1,Target Stores,6717 Ritchie Hwy,Glen Burnie,MD,21061,(410) 487-0038,39.1387693,-76.6009384
2,1,Target Stores,6100 Greenbelt Rd,Greenbelt,MD,20770,(301) 837-0054,38.9977639,-76.90826
2,1,Target Stores,17213 Cole Rd,Hagerstown,MD,21740,(301) 582-9118,39.619978,-77.77293
2,1,Target Stores,3500 East West Hwy Ste 1200,Hyattsville,MD,20782,(301) 955-0005,38.9678739,-76.9575283
2,1,Target Stores,60 Shining Willow Way,La Plata,MD,20646,(301) 934-5900,38.541151,-76.98175
2,1,Target Stores,10500 Campus Way S,Largo,MD,20774,(301) 324-7080,38.896007,-76.825919
2,1,Target Stores,3343 Corridor Marketplace,Laurel,MD,20724,(301) 483-0934,39.0967801,-76.810284
2,1,Target Stores,1330 Martin Blvd,Middle River,MD,21220,(410) 406-9081,39.3336425,-76.4498121
2,1,Target Stores,11200 Reisterstown Rd,Owings Mills,MD,21117,(410) 654-9800,39.4331564,-76.7990976
2,1,Target Stores,1737 Reisterstown Rd,Pikesville,MD,21208,(410) 486-4141,39.384045,-76.732481
2,1,Target Stores,5700 Bou Ave,Rockville,MD,20852,(301) 945-0018,39.0560695,-77.1148974
2,1,Target Stores,125 E North Point Dr,Salisbury,MD,21804,(410) 572-6144,38.4160259,-75.5663544
2,1,Target Stores,12000 Cherry Hill Rd,Silver Spring,MD,20904,(301) 586-0724,39.0540046,-76.9535673
2,1,Target Stores,1238 Putty Hill Ave,Towson,MD,21286,(410) 823-4423,39.395335,-76.581113
2,1,Target Stores,3300 Western Pkwy,Waldorf,MD,20603,(301) 645-7114,38.6206509,-76.9224496
2,1,Target Stores,200 Malcolm Dr,Westminster,MD,21157,(410) 848-6180,39.566942,-76.974097
2,1,Target Stores,11160 Veirs Mill Rd,Wheaton,MD,20902,(301) 946-8006,39.0396679,-77.0549725
2,1,Target Stores,119 Crossing Way,Augusta,ME,4330,(207) 622-8000,44.3120944,-69.8057331
2,1,Target Stores,60 Longview Dr,Bangor,ME,4401,(207) 945-3133,44.8400127,-68.7429847
2,1,Target Stores,430 Mariner Way,Biddeford,ME,4005,(207) 284-2510,43.4731977,-70.511303
2,1,Target Stores,200 Running Hill Rd,South Portland,ME,4106,(207) 871-1156,43.635392,-70.347133
2,1,Target Stores,125 Topsham Fair Mall Rd,Topsham,ME,4086,(207) 504-5050,43.93394,-69.985332
2,1,Target Stores,3100 Fairlane Dr,Allen Park,MI,48101,(313) 768-0064,42.2956886,-83.195715
2,1,Target Stores,2000 Waters Rd,Ann Arbor,MI,48103,(734) 996-0700,42.2438526,-83.7691383
2,1,Target Stores,650 Brown Rd,Auburn Hills,MI,48326,(248) 393-8106,42.7065449,-83.2912796
2,1,Target Stores,5700 Beckley Rd,Battle Creek,MI,49015,(269) 979-4940,42.2610308,-85.1843765
2,1,Target Stores,4135 Wilder Rd,Bay City,MI,48706,(989) 686-1770,43.6237534,-83.8904075
2,1,Target Stores,960 Fairplain Dr,Benton Harbor,MI,49022,(269) 925-1205,42.081155,-86.434972
2,1,Target Stores,2400 S Telegraph Rd,Bloomfield Hills,MI,48302,(248) 409-1951,42.603771,-83.2943839
2,1,Target Stores,8043 Challis Rd,Brighton,MI,48116,(810) 229-0038,42.5439318,-83.7930978
2,1,Target Stores,1925 Market Place Dr,Caledonia,MI,49316,(616) 698-1026,42.8458899,-85.6160246
2,1,Target Stores,43670 Ford Rd,Canton,MI,48187,(734) 454-1133,42.323025,-83.471664
2,1,Target Stores,47330 Michigan Ave,Canton,MI,48188,(734) 714-2012,42.2673453,-83.5046732
2,1,Target Stores,51400 Gratiot Ave,Chesterfield,MI,48051,(586) 598-8100,42.677462,-82.828864
2,1,Target Stores,33860 S Gratiot Ave,Clinton Township,MI,48035,(586) 791-9900,42.545682,-82.902678
2,1,Target Stores,15901 Ford Rd,Dearborn,MI,48126,(313) 336-5000,42.3285708,-83.1993457
2,1,Target Stores,26650 Ford Rd,Dearborn Heights,MI,48127,(313) 565-0404,42.328086,-83.302469
2,1,Target Stores,30020 Grand River Ave,Farmington Hills,MI,48336,(248) 476-1808,42.4503118,-83.3414655
2,1,Target Stores,3255 Owen Rd,Fenton,MI,48430,(810) 714-0975,42.7871083,-83.737362
2,1,Target Stores,G3515 Miller Rd,Flint,MI,48507,(810) 230-7310,42.9817552,-83.7568288
2,1,Target Stores,3701 Lapeer Rd,Flint,MI,48503,(810) 744-4040,43.012194,-83.638212
2,1,Target Stores,4300 24th Ave,Fort Gratiot,MI,48059,(810) 385-5000,43.033823,-82.4532399
2,1,Target Stores,5120 28th St SE,Grand Rapids,MI,49512,(616) 222-4889,42.9127163,-85.5407504
2,1,Target Stores,18000 Vernier Rd,Harper Woods,MI,48225,(313) 371-9751,42.449753,-82.938128
2,1,Target Stores,3456 W Shore Dr,Holland,MI,49424,(616) 820-0093,42.831407,-86.092115
2,1,Target Stores,10025 E Highland Rd,Howell,MI,48843,(810) 632-2304,42.6331351,-83.7534369
2,1,Target Stores,1076 Jackson Xing,Jackson,MI,49202,(517) 788-3900,42.2670217,-84.4261858
2,1,Target Stores,334 Chicago Dr,Jenison,MI,49428,(616) 457-7020,42.902283,-85.79038
2,1,Target Stores,5350 W Main St,Kalamazoo,MI,49009,(269) 349-6148,42.296167,-85.655615
2,1,Target Stores,500 E Edgewood Blvd,Lansing,MI,48911,(517) 882-9084,42.6635149,-84.543567
2,1,Target Stores,5609 W Saginaw Hwy,Lansing,MI,48917,(517) 886-9488,42.7410073,-84.62579
2,1,Target Stores,20100 Haggerty Rd,Livonia,MI,48152,(734) 953-6620,42.4328812,-83.4304707
2,1,Target Stores,29451 Plymouth Rd,Livonia,MI,48150,(734) 793-0637,42.367841,-83.33431
2,1,Target Stores,20877 Hall Rd,Macomb,MI,48044,(586) 464-1128,42.6311721,-82.911873
2,1,Target Stores,32001 John R Rd,Madison Heights,MI,48071,(248) 585-9000,42.528313,-83.107806
2,1,Target Stores,3250 US Hwy 41 W,Marquette,MI,49855,(906) 226-0088,46.551404,-87.4602774
2,1,Target Stores,6820 Eastman Ave,Midland,MI,48642,(989) 832-0200,43.6576229,-84.2471666
2,1,Target Stores,2121 N Monroe St,Monroe,MI,48162,(734) 457-2902,41.9468195,-83.3878291
2,1,Target Stores,4097 E Blue Grass Rd,Mount Pleasant,MI,48858,(989) 773-0218,43.5753961,-84.7666715
2,1,Target Stores,5057 Harvey St,Muskegon,MI,49444,(231) 798-1592,43.1604317,-86.2057513
2,1,Target Stores,27100 Wixom Rd,Novi,MI,48374,(248) 374-1282,42.488269,-83.534204
2,1,Target Stores,4890 Marsh Rd,Okemos,MI,48864,(517) 347-0700,42.724443,-84.41392
2,1,Target Stores,6839 S Westnedge Ave,Portage,MI,49002,(269) 327-3180,42.2189244,-85.5894099
2,1,Target Stores,2887 S Rochester Rd,Rochester Hills,MI,48307,(248) 853-1590,42.638063,-83.12957
2,1,Target Stores,2772 Tittabawassee Rd,Saginaw,MI,48604,(989) 793-7226,43.482681,-83.970542
2,1,Target Stores,13221 Hall Rd,Shelby Township,MI,48315,(586) 254-7100,42.628118,-82.996114
2,1,Target Stores,8200 26 Mile Rd,Shelby Township,MI,48316,(586) 677-8687,42.711494,-83.030857
2,1,Target Stores,21400 Northwestern Hwy,Southfield,MI,48075,(248) 423-4202,42.4487639,-83.2067576
2,1,Target Stores,30333 Southfield Rd,Southfield,MI,48076,(248) 430-0062,42.4986723,-83.2398943
2,1,Target Stores,35700 Van Dyke Ave,Sterling Heights,MI,48312,(586) 795-9960,42.5565078,-83.0266239
2,1,Target Stores,2310 Metropolitan Pkwy,Sterling Heights,MI,48310,(586) 698-1027,42.561557,-83.084875
2,1,Target Stores,14099 Pardee Rd,Taylor,MI,48180,(734) 374-0303,42.203868,-83.255782
2,1,Target Stores,3130 S Airport Rd W,Traverse City,MI,49684,(231) 947-2992,44.7255198,-85.6359306
2,1,Target Stores,1301 Coolidge Hwy,Troy,MI,48084,(248) 614-9792,42.544699,-83.188913
2,1,Target Stores,3248 Alpine Ave NW,Walker,MI,49544,(616) 784-8311,43.0223717,-85.6888218
2,1,Target Stores,495 Haggerty Hwy,Walled Lake,MI,48390,(248) 960-7900,42.537811,-83.4810481
2,1,Target Stores,28800 Dequindre Rd,Warren,MI,48092,(586) 353-1150,42.493333,-83.0849907
2,1,Target Stores,355 Summit Dr,Waterford,MI,48328,(248) 681-1818,42.645048,-83.334648
2,1,Target Stores,35401 Warren Rd,Westland,MI,48185,(734) 728-4444,42.337434,-83.390744
2,1,Target Stores,23555 Allen Rd,Woodhaven,MI,48183,(734) 692-7200,42.1394094,-83.2260361
2,1,Target Stores,5455 Clyde Park Ave SW,Wyoming,MI,49509,(616) 249-1008,42.865105,-85.686389
2,1,Target Stores,3749 Carpenter Rd,Ypsilanti,MI,48197,(734) 975-4396,42.23576,-83.676716
2,1,Target Stores,4404 Highway 29 S,Alexandria,MN,56308,(320) 763-6661,45.8500124,-95.3901144
2,1,Target Stores,2000 Bunker Lake Blvd NW,Andover,MN,55304,(763) 852-0113,45.2176509,-93.316387
2,1,Target Stores,15150 Cedar Ave,Apple Valley,MN,55124,(952) 891-5500,44.729636,-93.214713
2,1,Target Stores,15560 Pilot Knob Rd,Apple Valley,MN,55124,(952) 236-3165,44.7237094,-93.1750744
2,1,Target Stores,1701 18th Ave NW,Austin,MN,55912,(507) 437-1164,43.6847796,-92.993406
2,1,Target Stores,14546 Dellwood Dr N,Baxter,MN,56425,(218) 828-3535,46.3633952,-94.2411832
2,1,Target Stores,2100 Paul Bunyan Dr NW,Bemidji,MN,56601,(218) 759-0820,47.4955688,-94.9109599
2,1,Target Stores,1500 109th Ave NE,Blaine,MN,55449,(763) 354-1000,45.165588,-93.232704
2,1,Target Stores,2555 W 79th St,Bloomington,MN,55431,(952) 888-7701,44.85982,-93.3114348
2,1,Target Stores,6100 Shingle Creek Pkwy,Brooklyn Center,MN,55430,(763) 566-0739,45.0551429,-93.3003292
2,1,Target Stores,7535 W Broadway Ave,Brooklyn Park,MN,55428,(763) 425-5400,45.0910551,-93.3781877
2,1,Target Stores,1300 State Highway 55 NE,Buffalo,MN,55313,(763) 682-4996,45.2042547,-93.9151707
2,1,Target Stores,810 County Rd 42 W,Burnsville,MN,55337,(952) 236-3003,44.7489874,-93.2886609
2,1,Target Stores,215 Balsam St N,Cambridge,MN,55008,(763) 689-3858,45.5762085,-93.198604
2,1,Target Stores,11990 Business Park Blvd N,Champlin,MN,55316,(763) 354-1006,45.1730094,-93.3881804
2,1,Target Stores,851 W 78th St,Chanhassen,MN,55317,(952) 470-0206,44.861506,-93.543082
2,1,Target Stores,111 Pioneer Trl,Chaska,MN,55318,(952) 361-3043,44.8275565,-93.6008696
2,1,Target Stores,8600 Springbrook Dr NW,Coon Rapids,MN,55433,(763) 785-0322,45.1270791,-93.2686768
2,1,Target Stores,3300 124th Ave NW,Coon Rapids,MN,55433,(763) 323-2931,45.1960508,-93.3504376
2,1,Target Stores,8655 E Point Douglas Rd S,Cottage Grove,MN,55016,(651) 458-8179,44.8320996,-92.9175955
2,1,Target Stores,5537 W Broadway Ave,Crystal,MN,55428,(763) 533-2231,45.0524429,-93.365025
2,1,Target Stores,1902 Miller Trunk Hwy,Duluth,MN,55811,(218) 727-8851,46.808705,-92.1676449
2,1,Target Stores,2000 Cliff Lake Rd,Eagan,MN,55122,(651) 688-8706,44.791341,-93.205989
2,1,Target Stores,8225 Flying Cloud Dr,Eden Prairie,MN,55344,(952) 944-0700,44.855942,-93.425518
2,1,Target Stores,7000 York Ave S,Edina,MN,55435,(952) 925-4610,44.8721412,-93.3338547
2,1,Target Stores,2300 College Way,Fergus Falls,MN,56537,(218) 736-4360,46.289872,-96.113012
2,1,Target Stores,356 12th St SW,Forest Lake,MN,55025,(651) 464-4700,45.27465,-93.000174
2,1,Target Stores,755 53rd Ave NE,Fridley,MN,55421,(763) 571-9361,45.066026,-93.251137
2,1,Target Stores,2140 S Pokegama Ave,Grand Rapids,MN,55744,(218) 326-3011,47.2092669,-93.527
2,1,Target Stores,875 General Sieben Dr,Hastings,MN,55033,(651) 480-2080,44.737136,-92.888594
2,1,Target Stores,1370 Highway 15,Hutchinson,MN,55350,(320) 587-7113,44.8708394,-94.375598
2,1,Target Stores,18275 Kenrick Ave,Lakeville,MN,55044,(952) 892-5400,44.683751,-93.291273
2,1,Target Stores,749 Apollo Dr,Lino Lakes,MN,55014,(651) 784-7601,45.1847642,-93.1053161
2,1,Target Stores,1850 Adams St,Mankato,MN,56001,(507) 625-1011,44.173232,-93.955057
2,1,Target Stores,15300 Grove Circle N,Maple Grove,MN,55369,(763) 447-2506,45.1366094,-93.4748501
2,1,Target Stores,300 Clydesdale Trl,Medina,MN,55340,(763) 852-0006,45.045449,-93.528818
2,1,Target Stores,2500 E Lake St,Minneapolis,MN,55406,(612) 721-5701,44.9494431,-93.2371514
2,1,Target Stores,1650 New Brighton Blvd,Minneapolis,MN,55413,(612) 781-7033,45.0052518,-93.2294226
2,1,Target Stores,900 Nicollet Mall,Minneapolis,MN,55403,(612) 338-0085,44.9749156,-93.2743529
2,1,Target Stores,13201 Ridgedale Dr,Minnetonka,MN,55305,(952) 542-8250,44.9705767,-93.4476558
2,1,Target Stores,4848 County Road 101,Minnetonka,MN,55345,(952) 401-3830,44.9158333,-93.5032767
2,1,Target Stores,1447 East 7th St,Monticello,MN,55362,(763) 271-1100,45.297489,-93.7864717
2,1,Target Stores,3301 Highway 10 E,Moorhead,MN,56560,(218) 233-2326,46.875335,-96.728287
2,1,Target Stores,1914 S Broadway St,New Ulm,MN,56073,(507) 359-8099,44.293466,-94.443653
2,1,Target Stores,2199  Hwy 36 E,North Saint Paul,MN,55109,(651) 779-5986,45.013985,-93.008341
2,1,Target Stores,2323 Highway 3 S,Northfield,MN,55057,(507) 645-4777,44.4336008,-93.1856544
2,1,Target Stores,7900 32nd St N,Oakdale,MN,55128,(651) 855-0990,44.9962253,-92.9456182
2,1,Target Stores,15800 87th St NE,Otsego,MN,55330,(763) 252-1315,45.278502,-93.5639053
2,1,Target Stores,301 Park Dr,Owatonna,MN,55060,(507) 451-1882,44.0867906,-93.2495031
2,1,Target Stores,4175 Vinewood Ln N,Plymouth,MN,55442,(763) 553-0302,45.031238,-93.450726
2,1,Target Stores,151 Tyler Rd N,Red Wing,MN,55066,(651) 388-7704,44.5680401,-92.5848533
2,1,Target Stores,6445 Richfield Pkwy,Richfield,MN,55423,(612) 252-0473,44.8855619,-93.2483334
2,1,Target Stores,3827 Marketplace Dr NW,Rochester,MN,55901,(507) 536-2555,44.063128,-92.503406
2,1,Target Stores,4611 Maine Ave SE,Rochester,MN,55904,(507) 206-5020,43.954081,-92.464605
2,1,Target Stores,21615 S Diamond Lake Rd,Rogers,MN,55374,(763) 428-1394,45.197664,-93.554328
2,1,Target Stores,1515 County Road B W,Roseville,MN,55113,(651) 631-0330,45.00752,-93.164105
2,1,Target Stores,4201 W Division St,Saint Cloud,MN,56301,(320) 253-4740,45.5534642,-94.2104446
2,1,Target Stores,125 Lincoln Ave SE,Saint Cloud,MN,56304,(320) 654-0096,45.5648036,-94.14564
2,1,Target Stores,3601 Highway 100 S,Saint Louis Park,MN,55416,(952) 926-8855,44.9369993,-93.3468487
2,1,Target Stores,1744 Suburban Ave,Saint Paul,MN,55106,(651) 778-1188,44.9492758,-93.0274737
2,1,Target Stores,1300 University Ave W,Saint Paul,MN,55104,(651) 642-1146,44.9529493,-93.1556893
2,1,Target Stores,14333 Hwy 13,Savage,MN,55378,(952) 226-1444,44.7432142,-93.3796482
2,1,Target Stores,1685 17th Ave E,Shakopee,MN,55379,(952) 445-5332,44.7738044,-93.505226
2,1,Target Stores,3800 Lexington Ave N,Shoreview,MN,55126,(651) 486-0048,45.056467,-93.145041
2,1,Target Stores,8900 Highway 7,St Louis Park,MN,55426,(952) 852-0296,44.954644,-93.3847969
2,1,Target Stores,2021 Market Dr,Stillwater,MN,55082,(651) 439-0292,45.0366031,-92.8397819
2,1,Target Stores,975 County Road E,Vadnais Heights,MN,55127,(651) 483-9637,45.0522666,-93.0601281
2,1,Target Stores,1001 13th St S,Virginia,MN,55792,(218) 741-7104,47.5121367,-92.5481298
2,1,Target Stores,875 E Main Street,Waconia,MN,55387,(952) 442-9333,44.8455819,-93.769779
2,1,Target Stores,1750 Robert St S,West St Paul,MN,55118,(651) 455-6671,44.8931334,-93.0780541
2,1,Target Stores,2505 1st St S,Willmar,MN,56201,(320) 235-0916,45.0982991,-95.0426085
2,1,Target Stores,860 Mankato Ave,Winona,MN,55987,(507) 452-7006,44.0323053,-91.6205491
2,1,Target Stores,7200 Valley Creek Plz,Woodbury,MN,55125,(651) 735-7083,44.926287,-92.959707
2,1,Target Stores,3849 Vogel Rd,Arnold,MO,63010,(636) 287-1055,38.412595,-90.396762
2,1,Target Stores,15025 Manchester Rd,Ballwin,MO,63011,(636) 391-7500,38.594743,-90.547002
2,1,Target Stores,1106 E North Ave,Belton,MO,64012,(816) 331-3516,38.815746,-94.515976
2,1,Target Stores,1040 NE CORONADO,Blue Springs,MO,64014,(816) 622-3400,39.023807,-94.2484319
2,1,Target Stores,1200 Branson Hills Parkway,Branson,MO,65616,(417) 243-4500,36.673854,-93.226194
2,1,Target Stores,25 Brentwood Promenade Ct,Brentwood,MO,63144,(314) 918-9500,38.6284087,-90.3427674
2,1,Target Stores,12275 Saint Charles Rock Rd,Bridgeton,MO,63044,(314) 291-0600,38.751772,-90.425785
2,1,Target Stores,202 Siemers Dr,Cape Girardeau,MO,63701,(573) 339-1778,37.2993809,-89.580265
2,1,Target Stores,40 THF Blvd,Chesterfield,MO,63005,(636) 536-6207,38.666893,-90.58535
2,1,Target Stores,1272 Town & Country Crossing Dr,Chesterfield,MO,63017,(636) 591-0234,38.6276816,-90.5163878
2,1,Target Stores,2400 Bernadette Dr,Columbia,MO,65203,(573) 445-9544,38.964714,-92.377433
2,1,Target Stores,7955 Highway N,Dardenne Prairie,MO,63368,(636) 625-2820,38.768277,-90.768862
2,1,Target Stores,197 Gravois Bluffs Plaza Dr,Fenton,MO,63026,(636) 326-1479,38.5024131,-90.4469106
2,1,Target Stores,2341 N Highway 67,Florissant,MO,63033,(314) 831-8000,38.8034077,-90.3097989
2,1,Target Stores,17810 E 39th St S,Independence,MO,64055,(816) 373-1800,39.050524,-94.369621
2,1,Target Stores,735 W Stadium Blvd,Jefferson City,MO,65109,(573) 635-8401,38.579351,-92.214206
2,1,Target Stores,8007 W Florissant Ave,Jennings,MO,63136,(314) 513-0194,38.7272974,-90.2768805
2,1,Target Stores,3151 E 7th St,Joplin,MO,64801,(417) 659-8755,37.0842198,-94.4738235
2,1,Target Stores,8420 N Madison Ave,Kansas City,MO,64155,(816) 436-8711,39.2486577,-94.5956722
2,1,Target Stores,4375 N Chouteau Trfy,Kansas City,MO,64117,(816) 452-2164,39.160078,-94.5315029
2,1,Target Stores,8509 State Line Rd,Kansas City,MO,64114,(816) 444-6012,38.9742323,-94.6081643
2,1,Target Stores,9220 NE Barry Rd,Kansas City,MO,64157,(816) 781-4238,39.247207,-94.46388
2,1,Target Stores,1201 W 136th St,Kansas City,MO,64145,(816) 412-0108,38.880049,-94.6069179
2,1,Target Stores,9040 N Skyview Ave,Kansas City,MO,64154,(816) 410-2940,39.2582846,-94.6564822
2,1,Target Stores,1042 S Kirkwood Rd,Kirkwood,MO,63122,(314) 822-4051,38.565314,-90.404674
2,1,Target Stores,1850 NW Chipman Rd,Lees Summit,MO,64081,(816) 524-1405,38.931036,-94.409384
2,1,Target Stores,2300 Highway K,O Fallon,MO,63368,(636) 379-2903,38.777236,-90.6968941
2,1,Target Stores,919 Hwy D,Osage Beach,MO,65065,(573) 302-7969,38.1628979,-92.5990199
2,1,Target Stores,3881 Mexico Rd,Saint Charles,MO,63303,(636) 922-0165,38.7909975,-90.5648563
2,1,Target Stores,4250 Rusty Rd,Saint Louis,MO,63128,(314) 892-6336,38.5065874,-90.3395086
2,1,Target Stores,4255 Hampton Ave,Saint Louis,MO,63109,(314) 802-0122,38.592541,-90.295574
2,1,Target Stores,6241 Mid Rivers Mall Dr,Saint Peters,MO,63304,(636) 939-9433,38.738934,-90.63611
2,1,Target Stores,1825 E Primrose St,Springfield,MO,65804,(417) 889-1511,37.151897,-93.2629
2,1,Target Stores,5201 N Belt Hwy Ste H,St. Joseph,MO,64506,(816) 671-0550,39.816432,-94.81277
2,1,Target Stores,1851 Vernaci Dr,Washington,MO,63090,(636) 825-7700,38.5365387,-90.9837099
2,1,Target Stores,1883 Wentzville Pkwy,Wentzville,MO,63385,(636) 639-7414,38.819541,-90.880439
2,1,Target Stores,3867 Promenade Pkwy,D'iberville,MS,39540,(228) 233-3301,30.4557758,-88.8995201
2,1,Target Stores,170 Promenade Blvd,Flowood,MS,39232,(601) 919-1415,32.3431975,-90.0564616
2,1,Target Stores,6143 U S Highway 98 Ste 80,Hattiesburg,MS,39402,(601) 261-5298,31.3210128,-89.3863145
2,1,Target Stores,7255 Interstate Dr,Horn Lake,MS,38637,(662) 349-1585,34.965731,-90.005275
2,1,Target Stores,6365 I 55 N,Jackson,MS,39213,(601) 956-1150,32.3672122,-90.2338473
2,1,Target Stores,5150 Goodman Rd,Olive Branch,MS,38654,(662) 892-3031,34.9625231,-89.8978803
2,1,Target Stores,2601 Central Ave,Billings,MT,59102,(406) 652-5430,45.77074,-108.582762
2,1,Target Stores,403 Main St,Billings,MT,59105,(406) 256-7020,45.805871,-108.473271
2,1,Target Stores,2550 Catron Rd,Bozeman,MT,59718,(406) 582-9669,45.7121687,-111.0707172
2,1,Target Stores,2000 10th Ave S,Great Falls,MT,59405,(406) 727-9281,47.493267,-111.271673
2,1,Target Stores,3303 N Montana Ave,Helena,MT,59602,(406) 495-8368,46.6198064,-112.0209563
2,1,Target Stores,2365 US Highway 93 N,Kalispell,MT,59901,(406) 751-8700,48.2356517,-114.3268225
2,1,Target Stores,2420 N Reserve St,Missoula,MT,59808,(406) 543-4000,46.888026,-114.037349
2,1,Target Stores,1201 Beaver Creek Commons Dr,Apex,NC,27502,(919) 372-1405,35.74488,-78.877774
2,1,Target Stores,17 McKenna Rd,Arden,NC,28704,(828) 681-0341,35.448628,-82.536468
2,1,Target Stores,115 River Hills Rd,Asheville,NC,28805,(828) 298-1262,35.573362,-82.522429
2,1,Target Stores,1475 University Dr,Burlington,NC,27215,(336) 524-9354,36.0665904,-79.5200477
2,1,Target Stores,2021 Walnut St,Cary,NC,27518,(919) 233-4451,35.757737,-78.7382867
2,1,Target Stores,9531 South Blvd,Charlotte,NC,28273,(704) 556-7082,35.1075589,-80.8809463
2,1,Target Stores,8120 University City Blvd,Charlotte,NC,28213,(704) 599-6332,35.292588,-80.745706
2,1,Target Stores,7860 Rea Rd,Charlotte,NC,28277,(704) 542-1856,35.058922,-80.816128
2,1,Target Stores,8830 Albemarle Rd,Charlotte,NC,28227,(704) 264-0078,35.209248,-80.694428
2,1,Target Stores,9841 Northlake Centre Pkwy,Charlotte,NC,28216,(704) 526-3648,35.349595,-80.85906
2,1,Target Stores,9870 Rea Rd,Charlotte,NC,28277,(704) 264-3521,35.037483,-80.808481
2,1,Target Stores,12830 Walker Branch Dr,Charlotte,NC,28273,(704) 583-2601,35.100358,-80.985083
2,1,Target Stores,900 Metropolitan Ave Ste 2,Charlotte,NC,28204,(704) 973-3121,35.214771,-80.834484
2,1,Target Stores,6150 Bayfield Pkwy,Concord,NC,28027,(704) 262-6080,35.416716,-80.678675
2,1,Target Stores,4037 Durham Chapel Hill Blvd,Durham,NC,27707,(919) 765-0008,35.966507,-78.959146
2,1,Target Stores,8210 Renaissance Pkwy,Durham,NC,27713,(919) 425-0001,35.903933,-78.953081
2,1,Target Stores,2056 Skibo Rd,Fayetteville,NC,28314,(910) 860-4400,35.054966,-78.9743979
2,1,Target Stores,2700 Timber Dr,Garner,NC,27529,(919) 772-9065,35.715327,-78.638482
2,1,Target Stores,1040 Timber Dr E,Garner,NC,27529,(919) 661-2017,35.687478,-78.579629
2,1,Target Stores,197 Old New Hope Rd,Gastonia,NC,28054,(704) 864-3271,35.2528422,-81.1526976
2,1,Target Stores,1204 Sunburst Dr,Goldsboro,NC,27534,(919) 778-2150,35.3799884,-77.9391812
2,1,Target Stores,1212 Bridford Pkwy,Greensboro,NC,27407,(336) 856-1066,36.056534,-79.906684
2,1,Target Stores,2701 Lawndale Dr,Greensboro,NC,27408,(336) 286-2511,36.1046509,-79.821089
2,1,Target Stores,1628 Highwoods Blvd,Greensboro,NC,27410,(336) 455-9900,36.113534,-79.8783899
2,1,Target Stores,3040 S Evans St,Greenville,NC,27834,(252) 355-8020,35.57937,-77.3812126
2,1,Target Stores,1910 Catawba Valley Blvd SE,Hickory,NC,28602,(828) 267-0032,35.700868,-81.307985
2,1,Target Stores,1050 Mall Loop,High Point,NC,27262,(336) 884-5222,35.9917426,-80.0094673
2,1,Target Stores,9801 Sam Furr Rd,Huntersville,NC,28078,(704) 896-1813,35.4431719,-80.861403
2,1,Target Stores,1395D Western Blvd,Jacksonville,NC,28546,(910) 937-6400,34.786059,-77.404364
2,1,Target Stores,1090 S Main St,Kernersville,NC,27284,(336) 992-1680,36.109645,-80.099518
2,1,Target Stores,1000 Shoppes at Midway Dr,Knightdale,NC,27545,(919) 388-6100,35.798015,-78.509781
2,1,Target Stores,1900 Matthews Township Pkwy,Matthews,NC,28105,(704) 845-0948,35.122264,-80.7060599
2,1,Target Stores,2901 W Highway 74,Monroe,NC,28110,(704) 225-8378,35.0213484,-80.5793996
2,1,Target Stores,594 River Hwy,Mooresville,NC,28117,(704) 799-1233,35.597763,-80.871548
2,1,Target Stores,3410 Dr Martin Luther King Jr Blvd,New Bern,NC,28562,(252) 638-2954,35.1017426,-77.0963997
2,1,Target Stores,4700 Green Rd,Raleigh,NC,27604,(919) 850-9298,35.847952,-78.584854
2,1,Target Stores,4841 Grove Barton Rd,Raleigh,NC,27613,(919) 785-1803,35.8709237,-78.7168962
2,1,Target Stores,8651 Brier Creek Pkwy,Raleigh,NC,27617,(919) 765-0005,35.902952,-78.785888
2,1,Target Stores,7900 Old Wake Forest Rd,Raleigh,NC,27616,(919) 790-1024,35.8673294,-78.5693586
2,1,Target Stores,4191 The Circle at North Hills St,Raleigh,NC,27609,(919) 781-9848,35.8092698,-78.6488996
2,1,Target Stores,731 Sutters Creek Blvd,Rocky Mount,NC,27804,(252) 443-1195,35.971998,-77.8131329
2,1,Target Stores,12000 Retail Dr,Wake Forest,NC,27587,(919) 761-1001,35.974184,-78.541852
2,1,Target Stores,6350 Weddington Rd,Wesley Chapel,NC,28104,(704) 234-5271,34.999226,-80.695916
2,1,Target Stores,4711 New Centre Dr,Wilmington,NC,28405,(910) 395-5057,34.248549,-77.880621
2,1,Target Stores,3401 Raleigh Road Pkwy W Ste 1A,Wilson,NC,27896,(252) 265-4500,35.741107,-77.961778
2,1,Target Stores,5420 University Pkwy,Winston Salem,NC,27105,(336) 744-7880,36.168057,-80.278649
2,1,Target Stores,1040 Hanes Mall Blvd,Winston Salem,NC,27103,(336) 774-9687,36.0687714,-80.3200832
2,1,Target Stores,600 Kirkwood Mall,Bismarck,ND,58504,(701) 250-3180,46.7977431,-100.784836
2,1,Target Stores,4202 13th Ave SW,Fargo,ND,58103,(701) 282-7400,46.8616555,-96.8512296
2,1,Target Stores,3601 32nd Ave S,Grand Forks,ND,58201,(701) 787-6177,47.887116,-97.079978
2,1,Target Stores,2400 10th St SW,Minot,ND,58701,(701) 852-5820,48.2075453,-101.3066502
2,1,Target Stores,3808 Twin Creek Dr,Bellevue,NE,68123,(402) 291-6747,41.142151,-95.969937
2,1,Target Stores,4800 3rd Ave,Kearney,NE,68845,(308) 237-0644,40.7229646,-99.0859602
2,1,Target Stores,333 N 48th St,Lincoln,NE,68504,(402) 464-8292,40.816199,-96.654921
2,1,Target Stores,5330 S 56th St,Lincoln,NE,68516,(402) 423-0300,40.75969,-96.640992
2,1,Target Stores,8201 S 40th Street,Lincoln,NE,68516,(402) 420-3540,40.72808,-96.665381
2,1,Target Stores,1510 Market Ln,Norfolk,NE,68701,(402) 379-9933,42.018242,-97.4302387
2,1,Target Stores,4001 N 132nd St,Omaha,NE,68164,(402) 431-0060,41.294216,-96.116988
2,1,Target Stores,17810 W Center Rd,Omaha,NE,68130,(402) 697-4930,41.2344708,-96.192932
2,1,Target Stores,6636 N 73rd Plz,Omaha,NE,68122,(402) 573-2220,41.3191774,-96.0270493
2,1,Target Stores,7200 Dodge St,Omaha,NE,68114,(402) 390-8880,41.260827,-96.024764
2,1,Target Stores,16959 Evans Plaza,Omaha,NE,68116,(402) 970-1000,41.2913391,-96.1800577
2,1,Target Stores,12500 K Plaza,Omaha,NE,68137,(402) 201-2658,41.2137491,-96.109903
2,1,Target Stores,718 N Washington St,Papillion,NE,68046,(402) 597-9900,41.16509,-96.044886
2,1,Target Stores,1401 Frontage Rd,Scottsbluff,NE,69361,(308) 632-6223,41.87,-103.643
2,1,Target Stores,220 S River Rd,Bedford,NH,3110,(603) 263-0061,42.9428455,-71.4736215
2,1,Target Stores,80 Damante Dr,Concord,NH,3301,(603) 227-0809,43.2188159,-71.484478
2,1,Target Stores,1450 Greenland Rd,Greenland,NH,3840,(603) 501-1470,43.0483392,-70.8164143
2,1,Target Stores,100 Quality Dr,Hooksett,NH,3106,(603) 621-1451,43.0452387,-71.4605181
2,1,Target Stores,46 Ash Brook Rd,Keene,NH,3431,(603) 354-2151,42.9261205,-72.305607
2,1,Target Stores,310 Daniel Webster Hwy,Nashua,NH,3060,(603) 891-4858,42.7022767,-71.4373959
2,1,Target Stores,600 Amherst St,Nashua,NH,3063,(603) 324-0039,42.798792,-71.5369408
2,1,Target Stores,203 S Broadway,Salem,NH,3079,(603) 870-0071,42.7642777,-71.2165975
2,1,Target Stores,11 Andrews Rd,Somersworth,NH,3878,(603) 692-6750,43.2346662,-70.8851159
2,1,Target Stores,570 Route 70,Brick,NJ,8723,(732) 262-0600,40.058706,-74.149559
2,1,Target Stores,200 Promenade Blvd,Bridgewater,NJ,8807,(732) 868-8333,40.5626559,-74.5532939
2,1,Target Stores,2703 Route 541,Burlington,NJ,8016,(609) 239-9885,40.0647377,-74.8409196
2,1,Target Stores,2137 Route 38,Cherry Hill,NJ,8002,(856) 317-1445,39.9389308,-75.0232247
2,1,Target Stores,45 Central Ave,Clark,NJ,7066,(732) 882-0736,40.627584,-74.307249
2,1,Target Stores,30 Kingsland Rd,Clifton,NJ,7014,(973) 330-0002,40.8245393,-74.1355003
2,1,Target Stores,4004 Route 130 N,Delran,NJ,8075,(856) 544-9050,40.0140374,-74.9577961
2,1,Target Stores,1900 Deptford Center Rd,Deptford,NJ,8096,(856) 401-8878,39.829855,-75.091937
2,1,Target Stores,130 State Route 10,East Hanover,NJ,7936,(973) 887-3145,40.8107691,-74.3844091
2,1,Target Stores,70 Princeton Hightstown Rd,East Windsor,NJ,8520,(609) 371-2273,40.276815,-74.542004
2,1,Target Stores,543 River Rd,Edgewater,NJ,7020,(201) 402-0252,40.8144408,-73.9820284
2,1,Target Stores,100 Parsonage Rd,Edison,NJ,8837,(732) 744-1100,40.5505114,-74.3352069
2,1,Target Stores,751 Route 73 S,Evesham,NJ,8053,(856) 810-8442,39.867662,-74.923726
2,1,Target Stores,632 Route 46 E,Fairfield,NJ,7004,(973) 396-0069,40.8897957,-74.273725
2,1,Target Stores,630 Main St,Hackensack,NJ,7601,(201) 678-0599,40.8986189,-74.038841
2,1,Target Stores,68 US Highway 46 W,Hackettstown,NJ,7840,(908) 452-9251,40.8559549,-74.8340758
2,1,Target Stores,4955 US Highway 9,Howell,NJ,7731,(732) 363-4182,40.1309068,-74.2234205
2,1,Target Stores,100 14th St,Jersey City,NJ,7310,(201) 499-0017,40.7328133,-74.0359677
2,1,Target Stores,621 W Edgar Rd,Linden,NJ,7036,(908) 474-1733,40.621899,-74.2475053
2,1,Target Stores,209 Stafford Park Blvd,Manahawkin,NJ,8050,(609) 978-4922,39.710756,-74.2841432
2,1,Target Stores,55 US Hwy 9,Manalapan,NJ,7726,(732) 294-5190,40.293482,-74.2985671
2,1,Target Stores,380 Consumer Sq,Mays Landing,NJ,8330,(609) 645-8133,39.4523385,-74.7276626
2,1,Target Stores,2105 Route 35,Middletown,NJ,7748,(732) 706-9222,40.412063,-74.1350444
2,1,Target Stores,400 Ryders Ln,Milltown,NJ,8850,(732) 613-3903,40.4418208,-74.4258248
2,1,Target Stores,2100 N 2nd St,Millville,NJ,8332,(856) 327-7340,39.4207618,-75.0393707
2,1,Target Stores,4196 US Highway 1,Monmouth Junction,NJ,8852,(732) 329-5220,40.3808916,-74.5759857
2,1,Target Stores,4 Centerton Rd,Mount Laurel,NJ,8054,(856) 533-1197,39.968338,-74.91476
2,1,Target Stores,7101 Tonnelle Ave,North Bergen,NJ,7047,(201) 520-1701,40.8015283,-74.0212845
2,1,Target Stores,2331 State Rte 66,Ocean,NJ,7712,(732) 918-6645,40.2479729,-74.029843
2,1,Target Stores,900 Bergen Town Ctr,Paramus,NJ,7652,(201) 881-7660,40.9158666,-74.0607786
2,1,Target Stores,1204 New Brunswick Ave,Phillipsburg,NJ,8865,(908) 387-1305,40.6730866,-75.1396173
2,1,Target Stores,500 Nassau Park Blvd,Princeton,NJ,8540,(609) 951-8555,40.3062942,-74.6769565
2,1,Target Stores,94 State Rt 23,Riverdale,NJ,7457,(973) 850-2861,40.9876858,-74.3253656
2,1,Target Stores,381 Mount Hope Ave,Rockaway,NJ,7866,(973) 989-5740,40.9064552,-74.5468038
2,1,Target Stores,675 Woodbury Glassboro Rd,Sewell,NJ,8080,(856) 415-2380,45.1564168,10.7913751
2,1,Target Stores,487 Cross Keys Rd,Sicklerville,NJ,8081,(856) 740-2173,39.8025,-75.0447222
2,1,Target Stores,5000 Hadley Center Dr,South Plainfield,NJ,7080,(908) 444-2023,40.5484877,-74.4266233
2,1,Target Stores,1331 Hooper Ave,Toms River,NJ,8753,(732) 557-0220,39.989555,-74.174448
2,1,Target Stores,4001 Black Horse Pike,Turnersville,NJ,8012,(856) 875-0082,39.7363152,-75.0398496
2,1,Target Stores,2690 US Hwy 22 E,Union,NJ,7083,(908) 688-2344,40.4212127,-79.3422628
2,1,Target Stores,2235 Springfield Ave,Vauxhall,NJ,7088,(908) 622-9002,40.7162689,-74.285423
2,1,Target Stores,1139 White Horse Rd,Voorhees,NJ,8043,(856) 566-0900,39.84887,-74.983688
2,1,Target Stores,1515 US Highway 22,Watchung,NJ,7069,(908) 769-8699,40.6392987,-74.421848
2,1,Target Stores,8710 Montgomery Blvd NE,Albuquerque,NM,87111,(505) 293-9223,35.129835,-106.547802
2,1,Target Stores,11120 Lomas Blvd NE,Albuquerque,NM,87112,(505) 292-9110,35.0857839,-106.527807
2,1,Target Stores,9371 Coors Blvd NW,Albuquerque,NM,87114,(505) 897-7923,35.186061,-106.664529
2,1,Target Stores,6100 Paseo Del Norte NE,Albuquerque,NM,87113,(505) 346-0135,35.172536,-106.5821559
2,1,Target Stores,4900 E Main St,Farmington,NM,87402,(505) 327-7400,36.7687079,-108.147905
2,1,Target Stores,2541 E Lohman Ave Ste A,Las Cruces,NM,88011,(575) 532-5899,32.3177,-106.745
2,1,Target Stores,4225 Crestview Dr,Rio Rancho,NM,87124,(505) 994-2820,35.2520116,-106.6528633
2,1,Target Stores,2725 N Main St,Roswell,NM,88201,(575) 623-0445,33.4278249,-104.5217081
2,1,Target Stores,3550 Zafarano Dr,Santa Fe,NM,87507,(505) 471-9600,35.639628,-106.0128749
2,1,Target Stores,910 Jacks Valley Rd,Carson City,NV,89705,(775) 267-5151,39.0921741,-119.8043844
2,1,Target Stores,605 N Stephanie St,Henderson,NV,89014,(702) 451-5959,36.0646,-115.047734
2,1,Target Stores,350 W Lake Mead Pkwy,Henderson,NV,89015,(702) 216-1900,36.038165,-114.994552
2,1,Target Stores,695 S Green Valley Pkwy,Henderson,NV,89052,(702) 216-7100,36.0028379,-115.085254
2,1,Target Stores,278 S Decatur Blvd,Las Vegas,NV,89107,(702) 870-1981,36.170969,-115.209485
2,1,Target Stores,1200 S Nellis Blvd,Las Vegas,NV,89104,(702) 438-8866,36.158209,-115.060804
2,1,Target Stores,4001 S Maryland Pkwy,Las Vegas,NV,89119,(702) 732-2218,36.116562,-115.13918
2,1,Target Stores,3210 N Tenaya Way,Las Vegas,NV,89129,(702) 645-5440,36.219173,-115.249555
2,1,Target Stores,3550 S Rainbow Blvd,Las Vegas,NV,89103,(702) 253-5151,36.124735,-115.2414034
2,1,Target Stores,9725 S Eastern Ave,Las Vegas,NV,89183,(702) 914-9555,36.012394,-115.121841
2,1,Target Stores,8750 W Charleston Blvd,Las Vegas,NV,89117,(702) 933-2300,36.161073,-115.287009
2,1,Target Stores,6480 Sky Pointe Dr,Las Vegas,NV,89131,(702) 839-1591,36.2793752,-115.2646035
2,1,Target Stores,4155 S Grand Canyon Dr,Las Vegas,NV,89147,(702) 251-0330,36.1141402,-115.3110891
2,1,Target Stores,4100 Blue Diamond Rd,Las Vegas,NV,89139,(702) 266-8049,36.038793,-115.196586
2,1,Target Stores,6371 N Decatur Blvd,Las Vegas,NV,89130,(702) 515-8540,36.2615175,-115.2073069
2,1,Target Stores,2189 W Craig Rd,North Las Vegas,NV,89032,(702) 648-1005,36.238461,-115.172656
2,1,Target Stores,7090 N 5th St,North Las Vegas,NV,89084,(702) 216-4501,36.288688,-115.1334477
2,1,Target Stores,6845 Sierra Center Pkwy,Reno,NV,89511,(775) 853-8900,39.4641938,-119.7778649
2,1,Target Stores,1550 E Lincoln Way,Sparks,NV,89434,(775) 332-1003,39.5356801,-119.7175841
2,1,Target Stores,1575 Niagara Falls Blvd,Amherst,NY,14228,(716) 831-8750,42.9995238,-78.8221822
2,1,Target Stores,100 Amsterdam Commons,Amsterdam,NY,12010,(518) 770-7180,42.9649121,-74.1907735
2,1,Target Stores,4300 Veterans Memorial Dr,Batavia,NY,14020,(585) 300-2045,43.0153795,-78.2017136
2,1,Target Stores,838 Sunrise Hwy,Bay Shore,NY,11706,(631) 969-8958,40.7260582,-73.276731
2,1,Target Stores,40 W 225th St #50,Bronx,NY,10463,(718) 733-7199,40.8803247,-73.9095279
2,1,Target Stores,700 Exterior St,Bronx Terminal,NY,10451,(718) 401-5651,40.8201574,-73.9304802
2,1,Target Stores,519 Gateway Dr,Brooklyn,NY,11239,(718) 235-6032,40.6525758,-73.8699588
2,1,Target Stores,139 Flatbush Ave,Brooklyn,NY,11217,(718) 290-1109,40.6843909,-73.9776597
2,1,Target Stores,1598 Flatbush Ave,Brooklyn Junction,NY,11210,(718) 637-5005,40.6315574,-73.9465658
2,1,Target Stores,2626 Delaware Ave,Buffalo,NY,14216,(716) 447-0094,42.9555239,-78.873621
2,1,Target Stores,3657 W Genesee St,Camillus,NY,13219,(315) 233-0600,43.046672,-76.236368
2,1,Target Stores,160 N Research Pl,Central Islip,NY,11722,(631) 297-2011,40.77279,-73.201816
2,1,Target Stores,1750 Walden Ave,Cheektowaga,NY,14225,(716) 896-0493,42.910811,-78.772132
2,1,Target Stores,3181 Chili Ave,Chili,NY,14624,(585) 571-3979,43.1043669,-77.7467465
2,1,Target Stores,8061 Brewerton Rd,Cicero,NY,13039,(315) 698-2380,43.161489,-76.122842
2,1,Target Stores,26 Crossing Blvd,Clifton Park,NY,12065,(518) 371-6520,42.857553,-73.772162
2,1,Target Stores,13505 20th Ave,College Point,NY,11356,(718) 661-4346,40.7819535,-73.8298115
2,1,Target Stores,1440 Central Ave,Colonie,NY,12205,(518) 489-1112,42.7062181,-73.8250995
2,1,Target Stores,98 Veterans Memorial Hwy,Commack,NY,11725,(631) 462-8969,40.8393919,-73.2865567
2,1,Target Stores,4 Henry St,Commack,NY,11725,(631) 462-5507,40.8099826,-73.2869739
2,1,Target Stores,1149 Sunrise Hwy,Copiague,NY,11726,(631) 841-5056,40.686596,-73.406411
2,1,Target Stores,4920 Transit Rd,Depew,NY,14043,(716) 608-2020,42.879087,-78.6989229
2,1,Target Stores,8801 Queens Blvd,Elmhurst,NY,11373,(718) 760-5656,40.7353076,-73.874769
2,1,Target Stores,930 County Road 64,Elmira,NY,14903,(607) 796-5910,42.152839,-76.8726049
2,1,Target Stores,2161 N Nine Mile Point Rd,Fairport,NY,14450,(585) 377-0360,43.127954,-77.443223
2,1,Target Stores,100 Willow Park Ctr,Farmingdale,NY,11735,(631) 962-0270,40.7529074,-73.4197676
2,1,Target Stores,340 Towne Dr,Fayetteville,NY,13066,(315) 637-6205,43.0335724,-76.0173175
2,1,Target Stores,SWQ Roosevelt/College Point,Flushing,NY,NA,NA,40.7658085,-73.8330844
2,1,Target Stores,517 E 117th Street,Harlem,NY,10035,NA,40.7955738,-73.931687
2,1,Target Stores,2003 Broadway Mall,Hicksville,NY,11801,(516) 806-2096,40.7749093,-73.5287367
2,1,Target Stores,500 Medley Centre Pkwy,Irondequoit,NY,14622,(585) 797-0089,43.19796,-77.574303
2,1,Target Stores,40 Catherwood Rd,Ithaca,NY,14850,(607) 257-3387,42.483327,-76.490933
2,1,Target Stores,1300 Ulster Ave,Kingston,NY,12401,(845) 336-2045,41.966399,-73.983221
2,1,Target Stores,675 Troy Schenectady Rd,Latham,NY,12110,(518) 782-0348,42.7555626,-73.7726236
2,1,Target Stores,3850 Hempstead Tpke,Levittown,NY,11756,(516) 731-9392,40.724705,-73.494368
2,1,Target Stores,3857 State Route 31,Liverpool,NY,13090,(315) 652-5157,43.1851826,-76.244471
2,1,Target Stores,2975 Horseblock Rd,Medford,NY,11763,(631) 286-0287,40.8245174,-72.988799
2,1,Target Stores,1 N Galleria Dr,Middletown,NY,10941,(845) 692-3700,41.4921518,-74.3352858
2,1,Target Stores,128 Bailey Farm Rd,Monroe,NY,10950,(845) 783-5686,41.317642,-74.153083
2,1,Target Stores,195 N Bedford Rd Ste A,Mount Kisco,NY,10549,(914) 602-0004,41.2166941,-73.720198
2,1,Target Stores,500 East Sandford Blvd,Mount Vernon,NY,10550,(914) 530-3000,40.901004,-73.8177
2,1,Target Stores,1 Sangertown Sq Ste 3,New Hartford,NY,13413,(315) 738-0471,43.0837767,-75.3162279
2,1,Target Stores,50 Route 17 K,Newburgh,NY,12550,(845) 838-7120,41.5031472,-74.0306315
2,1,Target Stores,7414 Niagara Falls Blvd,Niagara Falls,NY,14304,(716) 283-0085,43.0880722,-78.9806296
2,1,Target Stores,5622 Amanda Ln,Orchard Park,NY,14127,(716) 821-9511,42.791946,-78.782999
2,1,Target Stores,60 Smithfield Blvd Suite 49,Plattsburgh,NY,12901,(518) 247-4961,44.702243,-73.491645
2,1,Target Stores,2001 South Rd,Poughkeepsie,NY,12601,(845) 297-0938,41.6235521,-73.9201872
2,1,Target Stores,578 Aviation Rd Ste 1S,Queensbury,NY,12804,(518) 792-6016,43.326835,-73.676618
2,1,Target Stores,625 3rd Ave Ext,Rensselaer,NY,12144,(518) 283-6476,42.6441812,-73.7023549
2,1,Target Stores,1150 Old Country Rd,Riverhead,NY,11901,(631) 208-9424,40.9328069,-72.679373
2,1,Target Stores,2325 Marketplace Dr,Rochester,NY,14623,(585) 424-3370,43.078081,-77.631547
2,1,Target Stores,600 Greece Ridge Center Dr,Rochester,NY,14626,(585) 225-0240,43.2048259,-77.6958596
2,1,Target Stores,3031 Route 50,Saratoga Springs,NY,12866,(518) 226-0003,43.100945,-73.746703
2,1,Target Stores,428 Balltown Rd,Schenectady,NY,12304,(518) 346-8540,42.7741971,-73.8934786
2,1,Target Stores,255 Pond Path Rd,South Setauket,NY,11720,(631) 580-5356,40.8871831,-73.0958642
2,1,Target Stores,50 Spring Valley Market Pl,Spring Valley,NY,10977,(845) 371-5013,41.1050741,-74.0301253
2,1,Target Stores,2900 Veterans Rd W,Staten Island,NY,10309,(718) 701-6205,40.528666,-74.231881
2,1,Target Stores,500 W Sunrise Hwy,Valley Stream,NY,11581,(516) 568-9264,40.6647044,-73.7186551
2,1,Target Stores,3112 Vestal Pkwy E,Vestal,NY,13850,(607) 729-6611,42.0935789,-76.0016767
2,1,Target Stores,7500 Commons Blvd,Victor,NY,14564,(585) 425-0800,43.033521,-77.448102
2,1,Target Stores,21800 Towne Center Dr,Watertown,NY,13601,(315) 786-2540,43.970161,-75.962037
2,1,Target Stores,1050 Ridge Rd,Webster,NY,14580,(585) 216-3000,43.211355,-77.450816
2,1,Target Stores,4120 Palisades Center Dr,West Nyack,NY,10994,(845) 348-6440,41.0981367,-73.9527473
2,1,Target Stores,999 Corporate Dr,Westbury,NY,11590,(516) 222-1003,40.741893,-73.599851
2,1,Target Stores,9 City Pl,White Plains,NY,10601,(914) 821-0012,41.0327217,-73.7650901
2,1,Target Stores,8290 Transit Rd,Williamsville,NY,14221,(716) 639-1945,42.9950641,-78.6984493
2,1,Target Stores,8000 Oak Point Rd,Amherst,OH,44001,(440) 985-7100,41.413116,-82.241696
2,1,Target Stores,35830 Detroit Rd,Avon OH,OH,44011,(440) 937-4301,41.4586228,-82.0164282
2,1,Target Stores,18855 N Market Place Dr,Bainbridge,OH,44202,(330) 995-6549,41.357112,-81.3869069
2,1,Target Stores,2490 N Fairfield Rd,Beavercreek,OH,45431,(937) 431-8660,39.764031,-84.0854432
2,1,Target Stores,8680 Beechmont Ave,Beechmont Area,OH,45255,(513) 474-6006,39.0684387,-84.3226488
2,1,Target Stores,417 Boardman Poland Rd,Boardman,OH,44512,(330) 758-5900,41.0243002,-80.6498335
2,1,Target Stores,5584 Dressler Rd NW,Canton,OH,44720,(330) 494-2153,40.861174,-81.431519
2,1,Target Stores,4825A Marburg Ave,Cincinnati Central,OH,45209,(513) 631-5690,39.1614621,-84.4256369
2,1,Target Stores,3535 Steelyard Dr,Cleveland South,OH,44109,(216) 325-1107,41.458034,-81.689457
2,1,Target Stores,3100 W 117th St,Cleveland West,OH,44111,(216) 325-0772,41.4679405,-81.7713076
2,1,Target Stores,9040 Colerain Ave,Colerain,OH,45251,(513) 719-0037,39.235844,-84.589737
2,1,Target Stores,1717 Olentangy River Rd,Columbus Central,OH,43212,(614) 298-1070,39.9765195,-83.0225692
2,1,Target Stores,8100 E Broad St,Columbus East,OH,43068,(614) 322-9594,39.988044,-82.784988
2,1,Target Stores,1970 Hilliard Rome Rd,Columbus Far SW,OH,43026,(614) 219-5160,39.9913861,-83.1492011
2,1,Target Stores,4199 Morse Xing,Columbus NE,OH,43219,(614) 471-2154,40.05659,-82.920455
2,1,Target Stores,6000 Sawmill Rd,Columbus NW,OH,43017,(614) 798-8160,40.089678,-83.089889
2,1,Target Stores,3720 Soldano Blvd,Columbus SW,OH,43228,(614) 279-4224,39.9552004,-83.0966847
2,1,Target Stores,449 Howe Ave,Cuyahoga Falls,OH,44221,(330) 928-0014,41.1362185,-81.4828198
2,1,Target Stores,2300 Miamisburg Centerville Rd,Dayton South,OH,45459,(937) 435-3817,39.633177,-84.213542
2,1,Target Stores,240 Market Dr,Elyria,OH,44035,(440) 324-1000,41.387725,-82.108892
2,1,Target Stores,3369 Princeton Rd,Fairfield Township,OH,45011,(513) 714-0016,39.387731,-84.504074
2,1,Target Stores,2801 W Market St,Fairlawn,OH,44333,(330) 865-9001,41.1272538,-81.6048879
2,1,Target Stores,20900 Westgate Mall,Fairview Park,OH,44126,(216) 325-0752,41.4612431,-81.8498813
2,1,Target Stores,9841 Waterstone Blvd,Fields Ertel,OH,45249,(513) 677-1888,39.2708955,-84.3279093
2,1,Target Stores,55 Graceland Blvd,Graceland,OH,43214,(614) 781-1978,40.065286,-83.021371
2,1,Target Stores,762 Arlington Rdg,Green,OH,44312,(330) 645-8252,40.984107,-81.495264
2,1,Target Stores,4144 Buckeye Pkwy,Grove City,OH,43123,(614) 305-3954,39.8768827,-83.0373451
2,1,Target Stores,270 Airport Pkwy,Heath,OH,43056,(740) 788-8600,40.022919,-82.461906
2,1,Target Stores,4211 Trueman Blvd,Hilliard,OH,43026,(614) 876-5530,40.0397924,-83.1231194
2,1,Target Stores,5700 Executive Blvd,Huber Heights,OH,45424,(937) 233-0108,39.843947,-84.1246608
2,1,Target Stores,1300 River Valley Blvd,Lancaster,OH,43130,(740) 681-1012,39.7304178,-82.6202002
2,1,Target Stores,8282 Golden Link Blvd,Macedonia,OH,44067,(330) 468-9176,41.3130506,-81.5263329
2,1,Target Stores,2205 Walker Lake Rd,Mansfield,OH,44903,(419) 747-1313,40.7861281,-82.5941386
2,1,Target Stores,1980 Lincoln Way E,Massillon,OH,44646,(330) 833-2265,40.7987858,-81.4968791
2,1,Target Stores,1285 Som Center Rd,Mayfield Heights,OH,44124,(440) 995-9300,41.524742,-81.435354
2,1,Target Stores,1015 N Court St,Medina,OH,44256,(330) 722-7539,41.154617,-81.865105
2,1,Target Stores,9669 Mentor Ave,Mentor,OH,44060,(440) 210-5053,41.683265,-81.296082
2,1,Target Stores,6775 Roosevelt Pkwy,Middletown,OH,45044,(513) 422-0013,39.490931,-84.33337
2,1,Target Stores,100 Rivers Edge,Milford,OH,45150,(513) 831-5294,39.162254,-84.275085
2,1,Target Stores,5555 Youngstown Warren Rd,Niles,OH,44446,(330) 505-1928,41.2107469,-80.7513183
2,1,Target Stores,24646 Brookpark Rd,North Olmsted,OH,44070,(440) 414-0009,41.419929,-81.896635
2,1,Target Stores,6850 Ridge Rd,Parma,OH,44129,(440) 842-9001,41.3787019,-81.736516
2,1,Target Stores,1485 Polaris Pkwy,Polaris,OH,43240,(614) 430-5585,40.1385311,-82.9792511
2,1,Target Stores,2437 Taylor Park Dr,Reynoldsburg,OH,43068,(614) 655-5001,39.933945,-82.793151
2,1,Target Stores,4020 Milan Rd,Sandusky,OH,44870,(419) 609-3340,41.4205391,-82.6735173
2,1,Target Stores,400 Corwin Nixon Blvd,South Lebanon,OH,45065,(513) 494-0700,39.378637,-84.220187
2,1,Target Stores,900 E Kemper Rd,Springdale,OH,45246,(513) 671-8555,39.287002,-84.4852213
2,1,Target Stores,1885 W 1st St,Springfield,OH,45504,(937) 324-2584,39.940586,-83.840361
2,1,Target Stores,4200 Kent Rd,Stow,OH,44224,(330) 688-5928,41.1595005,-81.4403898
2,1,Target Stores,1144 State Route 303,Streetsboro,OH,44241,(330) 626-6400,41.2394084,-81.3528639
2,1,Target Stores,18200 Royalton Rd,Strongsville,OH,44136,(440) 238-9924,41.316065,-81.82893
2,1,Target Stores,4341 Feedwire Rd,Sugarcreek Township,OH,45440,(937) 439-9301,39.658397,-84.1049423
2,1,Target Stores,817 W Alexis Rd,Toledo NE,OH,43612,(419) 478-0559,41.720861,-83.560794
2,1,Target Stores,5225 Monroe St,Toledo NW,OH,43623,(419) 843-3441,41.699634,-83.653811
2,1,Target Stores,9666 Olde US 20,Toledo SE,OH,43460,(419) 872-8310,41.542958,-83.580484
2,1,Target Stores,1465 E Mall Dr,Toledo W,OH,43528,(419) 866-9088,41.615113,-83.694901
2,1,Target Stores,2800 Shiloh Springs Rd,Trotwood,OH,45426,(937) 837-1600,39.81771,-84.288229
2,1,Target Stores,14070 Cedar Rd,University Heights,OH,44118,(216) 416-0025,41.5010554,-81.5327915
2,1,Target Stores,1183 Williams Reserve Blvd,Wadsworth,OH,44281,(330) 335-2610,41.040541,-81.690411
2,1,Target Stores,7644 Voice of America Center Dr,West Chester Township,OH,45069,(513) 712-1001,39.356117,-84.361444
2,1,Target Stores,6150 Glenway Ave,Western Hills,OH,45211,(513) 719-1076,39.1450809,-84.6200033
2,1,Target Stores,3955 E Broad St,Whitehall,OH,43213,(614) 236-1409,39.971496,-82.895261
2,1,Target Stores,36195 Euclid Ave,Willoughby,OH,44094,(440) 975-1922,41.628822,-81.430001
2,1,Target Stores,1150 E. Hillside Dr,Broken Arrow,OK,74012,(918) 615-1900,36.066935,-95.776525
2,1,Target Stores,1200 E 2nd St,Edmond,OK,73034,(405) 844-5072,35.65041,-97.4644299
2,1,Target Stores,7305 SE 29th St,Midwest City,OK,73110,(405) 455-4000,35.436741,-97.396175
2,1,Target Stores,1400 24th Ave NW,Norman,OK,73069,(405) 253-3003,35.235603,-97.482912
2,1,Target Stores,5400 N May Ave,Oklahoma City North,OK,73112,(405) 947-6761,35.5243853,-97.5643466
2,1,Target Stores,8315 N Rockwell Ave,Oklahoma City NW,OK,73132,(405) 506-6086,35.555891,-97.639536
2,1,Target Stores,800 SW 44th St,Oklahoma City South,OK,73109,(405) 631-4411,35.419312,-97.528878
2,1,Target Stores,9010 N 121st East Ave,Owasso,OK,74055,(918) 401-8000,36.289246,-95.844031
2,1,Target Stores,13924 N Pennsylvania Ave,Quail Springs,OK,73134,(405) 752-0183,35.619325,-97.5506149
2,1,Target Stores,1701 S Yale Ave,Tulsa,OK,74112,(918) 744-1701,36.1377077,-95.9205041
2,1,Target Stores,7437 S Olympia Ave W,Tulsa Hills,OK,74132,(918) 877-1620,36.0511959,-95.9204779
2,1,Target Stores,10711 E 71st St,Tulsa SE,OK,74133,(918) 307-8161,36.0609761,-95.8571187
2,1,Target Stores,10019 S Memorial Dr,Tulsa South,OK,74133,(918) 615-5000,36.0193841,-95.8863834
2,1,Target Stores,1700 Garth Brooks Blvd,Yukon,OK,73099,(405) 494-3179,35.4917207,-97.7603238
2,1,Target Stores,2255 14th Ave SE,Albany,OR,97322,(541) 926-5727,44.6286761,-123.078021
2,1,Target Stores,10775 SW Beaverton Hillsdale Hwy,Beaverton,OR,97005,(503) 626-8345,45.4878805,-122.7877289
2,1,Target Stores,63435 N Highway 97,Bend,OR,97701,(541) 330-1434,44.1042896,-121.3009039
2,1,Target Stores,9000 SE Sunnyside Rd,Clackamas,OR,97015,(503) 659-1057,45.4318144,-122.5706552
2,1,Target Stores,4575 W 11th Ave,Eugene,OR,97402,(541) 684-5995,44.0489595,-123.1712983
2,1,Target Stores,21500 NE Halsey St,Fairview,OR,97024,(503) 674-9109,45.5335719,-122.443554
2,1,Target Stores,11826 NE Glisan St,Gateway,OR,97220,(503) 251-9997,45.5517361,-122.5522483
2,1,Target Stores,2295 SE Tualatin Valley Hwy,Hillsboro,OR,97123,(503) 693-1016,45.5074336,-122.9572944
2,1,Target Stores,6450 Keizer Station Blvd NE,Keizer,OR,97303,(503) 856-0601,45.0124049,-122.994532
2,1,Target Stores,2000 Crater Lake Hwy,Medford,OR,97504,(541) 779-0856,42.347339,-122.8765279
2,1,Target Stores,9800 SE Washington St,Portland East,OR,97216,(503) 252-5850,45.51576,-122.5609231
2,1,Target Stores,9401 NE Cascades Pkwy,Portland NE,OR,97220,(971) 230-1930,45.5760271,-122.5661569
2,1,Target Stores,1400 N Hayden Island Dr,Portland NW,OR,97217,(503) 247-0331,45.6139617,-122.6803644
2,1,Target Stores,3790 Center St NE,Salem,OR,97301,(503) 588-7116,44.9382533,-122.9870939
2,1,Target Stores,21365 SW Baler Way,Sherwood,OR,97140,(503) 610-6000,45.3661098,-122.8395968
2,1,Target Stores,2750 Gateway St,Springfield,OR,97477,(541) 741-0410,44.0714704,-123.0451692
2,1,Target Stores,18101 NW Evergreen Pkwy,Tanasbourne,OR,97006,(503) 531-3656,45.5390207,-122.8648112
2,1,Target Stores,9009 SW Hall Blvd,Washington Square,OR,97223,(503) 624-0273,45.456308,-122.780288
2,1,Target Stores,25925 SW Heather Pl,Wilsonville,OR,97070,(503) 682-7781,45.2998418,-122.7737062
2,1,Target Stores,1495 Old York Rd,Abington Township,PA,19001,(215) 572-6977,40.125177,-75.115768
2,1,Target Stores,1600 N Cedar Crest Blvd,Allentown,PA,18104,(610) 398-4006,40.6138129,-75.5334187
2,1,Target Stores,153 Sierra Dr,Altoona,PA,16601,(814) 949-3592,40.4601691,-78.407897
2,1,Target Stores,110 Butler Commons,Butler,PA,16001,(724) 283-2489,40.8498869,-79.927112
2,1,Target Stores,246 Westminster Dr,Carlisle,PA,17013,(717) 243-3887,40.196212,-77.157859
2,1,Target Stores,87 Wagner Rd,Center Township,PA,15061,(724) 728-7258,40.6808645,-80.3123728
2,1,Target Stores,913 Norland Ave,Chambersburg,PA,17201,(717) 709-2062,39.9411056,-77.6309447
2,1,Target Stores,2450 Shoppers Lane,Cheltenham,PA,19150,(267) 628-3280,40.0729157,-75.1691305
2,1,Target Stores,600 Hatton Dr,Concord Township,PA,19342,(610) 808-9054,39.8810105,-75.527683
2,1,Target Stores,1717 Route 228,Cranberry,PA,16066,(724) 778-9000,40.6883371,-80.0797684
2,1,Target Stores,1140 Commerce Blvd,Dickson City,PA,18519,(570) 383-7100,41.467348,-75.638916
2,1,Target Stores,6700 Peach St,Erie,PA,16509,(814) 860-8511,42.055021,-80.09441
2,1,Target Stores,4599 Perkiomen Ave,Exeter Township,PA,19606,(484) 651-1920,40.3065392,-75.8611429
2,1,Target Stores,201 Sunrise Blvd,Exton,PA,19341,(610) 280-7233,40.0391356,-75.6287295
2,1,Target Stores,6206 State Rte 30,Greensburg,PA,15601,(724) 853-7440,40.2948045,-79.4718103
2,1,Target Stores,912 Airport Center Dr,Hanover Township,PA,18109,(610) 573-5710,40.6383488,-75.4394446
2,1,Target Stores,2661 Freeport Rd,Harmar,PA,15238,(412) 820-6780,40.538283,-79.837074
2,1,Target Stores,4600 High Pointe Blvd,Harrisburg East,PA,17111,(717) 558-4150,40.2458177,-76.8073713
2,1,Target Stores,5125 Jonestown Rd Ste 331,Harrisburg North,PA,17112,(717) 671-8098,40.309894,-76.799649
2,1,Target Stores,2385 Covered Bridge Dr,Lancaster East,PA,17602,(717) 390-8727,40.0378755,-76.3055144
2,1,Target Stores,3835 Dryland Way,Lower Nazareth,PA,18045,(610) 250-5280,40.7128707,-75.2858746
2,1,Target Stores,455 Carnegie Blvd,Malvern,PA,19355,NA,40.048674,-75.5206248
2,1,Target Stores,9805 McKnight Rd,McCandless,PA,15237,(412) 369-9411,40.5852765,-80.0411416
2,1,Target Stores,6416 Carlisle Pike,Mechanicsburg,PA,17050,(717) 796-5780,40.2478592,-77.0098238
2,1,Target Stores,4004 Monroeville Blvd,Monroeville,PA,15146,(412) 374-9611,40.434605,-79.772116
2,1,Target Stores,125 Witchwood Dr,Montgomeryville,PA,19454,(215) 699-5688,40.2253907,-75.237226
2,1,Target Stores,288 Mt Nebo Pointe Dr,Mount Nebo,PA,15237,(412) 536-8200,40.535755,-80.0678889
2,1,Target Stores,4220 N 5th Street Hwy,Muhlenberg Township,PA,19560,(610) 921-5140,40.3986134,-75.9275282
2,1,Target Stores,800 Rock Hill Dr,Neshaminy,PA,19020,(215) 364-9511,40.1389787,-74.9601315
2,1,Target Stores,600 Chauvet Dr,North Fayette,PA,15275,(412) 490-0488,40.446245,-80.183473
2,1,Target Stores,8931 Route 30,North Huntingdon,PA,15642,(724) 863-5397,40.321331,-79.6882715
2,1,Target Stores,2331 E Lincoln Hwy,Oxford Valley,PA,19047,(215) 269-0532,40.1835399,-74.8809366
2,1,Target Stores,2701 Castor Ave,Phila-Bridesburg,PA,19134,(215) 305-9050,39.990215,-75.090199
2,1,Target Stores,7400 Bustleton Ave,Phila-Cottman,PA,19152,(267) 350-9480,40.0513666,-75.0593501
2,1,Target Stores,11000 Roosevelt Blvd Ste 3,Philadelphia NE,PA,19116,(215) 305-0000,40.102161,-75.009485
2,1,Target Stores,1 Mifflin St,Philadelphia SE,PA,19148,(215) 463-7311,39.924418,-75.146146
2,1,Target Stores,4000 Monument Rd,Philadelphia West,PA,19131,(267) 233-5020,40.006917,-75.2132309
2,1,Target Stores,2250 Chemical Rd,Plymouth Meeting,PA,19462,(610) 276-0042,40.1031629,-75.2908545
2,1,Target Stores,610 N West End Blvd,Richland Twp,PA,18951,(215) 529-2720,40.4592088,-75.3680163
2,1,Target Stores,550 Grandview Crossing Dr,Richland Twp North,PA,15044,(724) 799-2237,40.6315486,-79.9528451
2,1,Target Stores,4801 McKnight Rd Ste 60,Ross Township,PA,15237,(412) 536-1807,40.522657,-80.006561
2,1,Target Stores,501 Market Place Blvd,Selinsgrove,PA,17870,(570) 743-4930,40.7989735,-76.8621935
2,1,Target Stores,120 Matthew Dr,South Union Twp,PA,15401,(724) 439-6680,39.908212,-79.75825
2,1,Target Stores,2769 Papermill Rd,Spring Township,PA,19610,(610) 374-9875,40.3598379,-75.9836856
2,1,Target Stores,857 Baltimore Pike,Springfield,PA,19064,(610) 338-0530,39.915075,-75.334621
2,1,Target Stores,1200 Baltimore Pike,Springfield West,PA,19064,(484) 470-2320,39.915228,-75.350082
2,1,Target Stores,315 Colonnade Blvd,State College,PA,16803,(814) 861-8660,40.8138441,-77.9038431
2,1,Target Stores,350 Pocono Commons,Stroudsburg,PA,18360,(570) 426-1050,41.0001812,-75.2327985
2,1,Target Stores,PO Box 985,Upper Providence,PA,19456,(610) 650-8700,40.1331104,-75.45548
2,1,Target Stores,1824 E Ridge Pike,Upper Providence N,PA,19468,(610) 226-2151,40.211705,-75.499366
2,1,Target Stores,180 Eagleview Blvd,Uwchlan Township,PA,19341,(484) 713-0150,40.052522,-75.665687
2,1,Target Stores,401 Easton Rd,Warrington,PA,18976,(215) 491-5370,40.2236224,-75.1399747
2,1,Target Stores,335 Washington Rd,Washington,PA,15301,(724) 229-9277,40.1880838,-80.2273401
2,1,Target Stores,360 Waterfront Dr E,Waterfront,PA,15120,(412) 464-2522,40.4004712,-79.9024779
2,1,Target Stores,1717 Lebanon Church Rd,West Mifflin,PA,15236,(412) 502-0020,40.348156,-79.953076
2,1,Target Stores,100 Upland Square Dr.,West Pottsgrove Twp,PA,19464,(484) 654-3580,40.2697216,-75.6555439
2,1,Target Stores,3400 Wilkes-Barre Township Commons,Wilkes-Barre,PA,18702,(570) 829-0511,41.2459149,-75.8813075
2,1,Target Stores,170 S Lycoming Mall Rd,Williamsport,PA,17756,(570) 940-1000,41.2437452,-76.8326225
2,1,Target Stores,2610 Pleasant Valley Rd,York Galleria,PA,17402,(717) 755-2759,39.9721149,-76.6528225
2,1,Target Stores,2251 York Crossing Dr,York West,PA,17408,(717) 764-9661,39.9658936,-76.7756054
2,1,Target Stores,620 George Washington Hwy,Lincoln,RI,2865,(401) 642-0080,41.938342,-71.477537
2,1,Target Stores,371 Putnam Pike Ste A-250,Smithfield,RI,2917,(401) 232-1699,41.5800945,-71.4774291
2,1,Target Stores,1245 Bald Hill Rd,Warwick,RI,2886,(401) 821-0121,41.706824,-71.496142
2,1,Target Stores,400 Bald Hill Rd,Warwick North,RI,2886,(401) 244-1972,41.722536,-71.4757577
2,1,Target Stores,2545 Whiskey Rd,Aiken,SC,29803,(803) 644-2721,33.50418,-81.711223
2,1,Target Stores,3519 Clemson Blvd,Anderson,SC,29621,(864) 224-9772,34.549872,-82.679413
2,1,Target Stores,2070 Sam Rittenberg Blvd,Charleston South,SC,29407,(843) 763-0756,32.7981169,-80.0318028
2,1,Target Stores,6090A Garners Ferry Rd,Columbia Garners Ferry,SC,29209,(803) 647-0168,33.9425519,-80.9539475
2,1,Target Stores,10204 Two Notch Rd,Columbia NE,SC,29229,(803) 419-4086,34.1227485,-80.8748943
2,1,Target Stores,134 Harbison Blvd,Columbia NW,SC,29212,(803) 749-0869,34.066676,-81.1647837
2,1,Target Stores,2791 David H Mcleod Blvd,Florence,SC,29501,(843) 667-6731,34.1893312,-79.8328234
2,1,Target Stores,1112 Woodruff Rd,Greenville,SC,29607,(864) 286-3689,34.8304274,-82.3087999
2,1,Target Stores,6025 Wade Hampton Blvd,Greer,SC,29687,(864) 801-8128,34.9373917,-82.278643
2,1,Target Stores,1050 Fording Island Rd,Hilton Head,SC,29910,(843) 815-3321,32.2345794,-80.8033323
2,1,Target Stores,5119 Sunset Blvd,Lexington,SC,29072,(803) 520-2858,34.006462,-81.194479
2,1,Target Stores,1300 Long Grove Dr,Mt Pleasant,SC,29464,(843) 388-1973,32.8243935,-79.8179798
2,1,Target Stores,1150 Seaboard St,Myrtle Beach,SC,29577,(843) 946-6998,33.713126,-78.893689
2,1,Target Stores,7250 Rivers Ave,North Charleston,SC,29406,(843) 553-4691,32.9333443,-80.0371848
2,1,Target Stores,1900 Springsteen Rd,Rock Hill,SC,29730,(803) 985-3040,34.9390773,-80.9800365
2,1,Target Stores,694 Fairview Rd,Simpsonville,SC,29680,(864) 963-7251,34.705891,-82.259935
2,1,Target Stores,8199 Warren H Abernathy Pkwy,Spartanburg,SC,29301,(864) 574-1211,34.9495672,-81.9320482
2,1,Target Stores,450 Azalea Square Blvd,Summerville,SC,29483,(843) 832-0429,33.040118,-80.157251
2,1,Target Stores,3316 7th Ave SE,Aberdeen,SD,57401,(605) 226-0223,45.458168,-98.4687511
2,1,Target Stores,1415 Eglin St,Rapid City,SD,57703,(605) 341-8620,44.0990278,-103.1884248
2,1,Target Stores,3600 S Louise Ave,Sioux Falls,SD,57106,(605) 361-1551,43.5120636,-96.7703712
2,1,Target Stores,1021 Highline Place,Sioux Falls East,SD,57110,(605) 333-5600,43.538516,-96.6552472
2,1,Target Stores,2000 9th Ave SE,Watertown,SD,57201,(605) 882-0717,44.8899009,-97.0842291
2,1,Target Stores,780 Old Hickory Blvd,Brentwood,TN,37027,(615) 238-0126,36.042509,-86.778553
2,1,Target Stores,1816 Gunbarrel Rd,Chattanooga East,TN,37421,(423) 490-1418,35.0245927,-85.1557269
2,1,Target Stores,5579 Highway 153,Chattanooga North,TN,37343,(423) 870-4768,35.1459154,-85.2502584
2,1,Target Stores,2823 Wilma Rudolph Blvd,Clarksville,TN,37040,(931) 645-8007,36.5866169,-87.292178
2,1,Target Stores,4570 Frontage Rd NW,Cleveland,TN,37312,(423) 790-3000,35.2176676,-84.8674617
2,1,Target Stores,325 New Byhalia Rd,Collierville,TN,38017,(901) 860-0000,35.05043,-89.690437
2,1,Target Stores,1701 Galleria Blvd,Cool Springs,TN,37067,(615) 771-2093,35.9634599,-86.8108915
2,1,Target Stores,475 N Germantown Pkwy,Cordova,TN,38018,(901) 248-0200,35.138459,-89.798087
2,1,Target Stores,11100 Parkside Dr,Farragut,TN,37934,(865) 675-8200,35.900577,-84.1518229
2,1,Target Stores,3064 Columbia Ave,Franklin,TN,37064,(615) 472-2052,35.9250637,-86.8688899
2,1,Target Stores,9235 Poplar Ave,Germantown,TN,38138,(901) 756-6011,35.06487,-89.755667
2,1,Target Stores,1004 Andrews Run,Hendersonville,TN,37075,(615) 826-6895,36.334225,-86.625761
2,1,Target Stores,5330 Cane Ridge Rd,Hickory Hollow,TN,37013,(615) 731-6340,36.0415602,-86.6615237
2,1,Target Stores,93 Stonebrook Pl,Jackson,TN,38305,(731) 664-3848,35.686805,-88.857634
2,1,Target Stores,2116 N Roan St,Johnson City,TN,37601,(423) 854-8899,36.342911,-82.373686
2,1,Target Stores,2626 E Stone Dr Suite 90,Kingsport,TN,37660,(423) 578-1726,36.5517149,-82.4938216
2,1,Target Stores,4700 New Harvest Ln,Knoxville North,TN,37918,(865) 291-0086,36.0388402,-83.8839112
2,1,Target Stores,6670 Clinton Hwy,Knoxville NW,TN,37912,(865) 947-7636,36.008444,-84.021845
2,1,Target Stores,8040 Ray Mears Blvd,Knoxville West,TN,37919,(865) 693-2203,35.9216485,-84.0482238
2,1,Target Stores,800 Watkins Rd,Maryville,TN,37801,(865) 982-1590,35.752356,-83.991622
2,1,Target Stores,601 Colonial Rd,Memphis ,TN,38117,(901) 685-9240,35.11306,-89.903169
2,1,Target Stores,5959 Poplar Ave,Memphis East,TN,38119,(901) 261-5079,35.101192,-89.863249
2,1,Target Stores,7989 US Highway 64,Memphis NE,TN,38133,(901) 383-1649,35.2091855,-89.7989767
2,1,Target Stores,7697 Winchester Rd,Memphis SE,TN,38125,(901) 248-0250,35.047139,-89.806916
2,1,Target Stores,401 S Mount Juliet Rd Ste 600,Mt Juliet,TN,37122,(615) 773-2800,36.1663346,-86.511644
2,1,Target Stores,1851 Old Fort Pkwy,Murfreesboro,TN,37129,(615) 907-2977,35.845694,-86.425301
2,1,Target Stores,3171 Lebanon Pike,Nashville East,TN,37214,(615) 889-4734,36.182962,-86.637688
2,1,Target Stores,6814 Charlotte Pike,Nashville West,TN,37209,(615) 238-0112,36.134486,-86.89216
2,1,Target Stores,2050 Gallatin Rd N,Rivergate,TN,37115,(615) 859-5260,36.2953841,-86.7005159
2,1,Target Stores,803 Industrial Blvd,Smyrna,TN,37167,(615) 768-3017,35.97925,-86.571177
2,1,Target Stores,1033 Crossings Blvd,Spring Hill,TN,37174,(931) 489-1030,35.7417609,-86.937581
2,1,Target Stores,26 White Bridge Rd,White Bridge,TN,37205,(615) 352-8461,36.1291226,-86.8539321
2,1,Target Stores,3710 Ridgemont Dr,Abilene,TX,79606,(325) 695-4470,32.405614,-99.767281
2,1,Target Stores,3730 Belt Line Rd,Addison,TX,75001,(214) 414-0025,32.9511619,-96.854258
2,1,Target Stores,907 W McDermott Dr,Allen,TX,75013,(972) 396-9486,33.099849,-96.681599
2,1,Target Stores,150 E Stacy Rd Ste 2400,Allen North,TX,75002,(469) 342-2004,33.1031744,-96.6705503
2,1,Target Stores,8201 I-40 W,Amarillo,TX,79121,(806) 358-4030,35.1855819,-101.934351
2,1,Target Stores,1600 W Arbrook Blvd,Arlington South,TX,76015,(817) 557-2177,32.683949,-97.135716
2,1,Target Stores,6931 FM 1960 Rd E,Atascocita,TX,77346,(281) 318-2237,30.00051,-95.172645
2,1,Target Stores,10107 Research Blvd,Austin Arboretum,TX,78759,(512) 687-1315,30.3940585,-97.7459328
2,1,Target Stores,5621 N I H 35,Austin East,TX,78723,(512) 651-0202,30.316272,-97.706485
2,1,Target Stores,12901 N I H 35 Ste 3-300,Austin NE,TX,78753,(512) 651-0608,30.3889868,-97.6710889
2,1,Target Stores,8601 Research Blvd,Austin North,TX,78758,(512) 837-5163,30.362595,-97.715735
2,1,Target Stores,10900 Lakeline Mall Dr,Austin NW,TX,78717,(512) 651-3376,30.4761094,-97.7968189
2,1,Target Stores,2300 W Ben White Blvd,Austin South,TX,78704,(512) 445-2266,30.2334762,-97.7919697
2,1,Target Stores,9500 S Interstate 35 Ste G,Austin Southpark,TX,78748,(512) 687-0634,30.1610063,-97.7905902
2,1,Target Stores,5300 S Mo Pac Expy,Austin SW,TX,78749,(512) 892-5535,30.2350355,-97.826631
2,1,Target Stores,4522 Fredricksburg Rd,Balcones Heights ,TX,78201,(210) 280-0000,29.4908015,-98.5518135
2,1,Target Stores,1801 W Bay Area Blvd,Baybrook,TX,77598,(281) 819-4116,29.5362097,-95.1514077
2,1,Target Stores,4510 Garth Rd,Baytown,TX,77521,(281) 427-0265,29.771934,-94.976308
2,1,Target Stores,5850 Eastex Fwy,Beaumont,TX,77708,(409) 898-8270,30.126212,-94.15308
2,1,Target Stores,3702 Ranch Rd 620 S,Bee Cave,TX,78738,(512) 651-0094,30.3164154,-97.9545353
2,1,Target Stores,13700 San Pedro Ave,Bitters,TX,78232,(210) 496-6800,29.564895,-98.4801729
2,1,Target Stores,301 E Morrison Rd,Brownsville North,TX,78526,(956) 698-6120,25.968354,-97.509879
2,1,Target Stores,3061 Wildflower Dr,Bryan,TX,77802,(979) 774-1480,30.665023,-96.322281
2,1,Target Stores,200 NW John Jones Dr,Burleson,TX,76028,(817) 302-0058,32.5238497,-97.3495836
2,1,Target Stores,2620 N Josey Ln,Carrollton,TX,75007,(972) 245-7526,32.986904,-96.889528
2,1,Target Stores,739 N Highway 67,Cedar Hill,TX,75104,(972) 291-6149,32.5884689,-96.9561152
2,1,Target Stores,1101 C-Bar Ranch Trail Lot #2,Cedar Park,TX,78613,(512) 456-2933,30.5282684,-97.8129771
2,1,Target Stores,5700 Overton Ridge Blvd,City view,TX,76132,(817) 423-1600,32.6623667,-97.4219122
2,1,Target Stores,2417 N Haskell Ave,Cityplace Market,TX,75204,(214) 826-0331,32.8039052,-96.7912175
2,1,Target Stores,255 Marina Bay Dr,Clear Lake Shores,TX,77565,(281) 538-7626,29.539283,-95.022808
2,1,Target Stores,2100 Texas Ave S,College Station,TX,77840,(979) 693-8400,30.6104378,-96.3149901
2,1,Target Stores,503 I 45 N,Conroe,TX,77304,(936) 760-2663,30.313993,-95.473505
2,1,Target Stores,6955 Highway 6 N,Copperfield,TX,77084,(281) 550-8955,29.877743,-95.646862
2,1,Target Stores,5425 S Padre Island Dr,Corpus Christi,TX,78411,(361) 993-9342,27.7098644,-97.3759727
2,1,Target Stores,25901 Highway 290,Cypress,TX,77429,(281) 256-8116,29.9690708,-95.6966127
2,1,Target Stores,6419 Skillman St,Dallas NE,TX,75231,(214) 348-0240,32.865708,-96.7451068
2,1,Target Stores,39739 LBJ Fwy,Dallas South,TX,75237,(469) 341-3920,32.6500169,-96.8626514
2,1,Target Stores,1801 S Loop 288,Denton,TX,76205,(940) 220-2122,33.1892833,-97.0987626
2,1,Target Stores,8550 East Fwy,Eastchase,TX,76120,(817) 274-7611,32.7660707,-97.184414
2,1,Target Stores,6101 W Gateway Blvd,El Paso Central,TX,79925,(915) 772-9302,31.782201,-106.409669
2,1,Target Stores,1901 George Dieter Dr,El Paso East,TX,79936,(915) 590-3560,31.770154,-106.305013
2,1,Target Stores,1874 Joe Battle Blvd,El Paso Far East,TX,79936,(915) 849-5010,31.7579296,-106.2665033
2,1,Target Stores,801 Sunland Park Dr,El Paso West,TX,79912,(915) 585-8185,31.818393,-106.547976
2,1,Target Stores,1401 W Glade Rd,Euless,TX,76039,(817) 399-8494,32.880401,-97.104404
2,1,Target Stores,5959 Long Prairie Rd,Flower Mound,TX,75028,(972) 874-6700,33.067516,-97.083142
2,1,Target Stores,301 Carroll St,Fort Worth Central,TX,76107,(817) 302-0290,32.755593,-97.3544971
2,1,Target Stores,11220 FM 2222,Four Points,TX,78730,(512) 651-0086,30.4038127,-97.8536211
2,1,Target Stores,3201 Preston Rd,Frisco,TX,75034,(972) 668-6880,33.1050691,-96.805834
2,1,Target Stores,4885 Eldorado Pkwy,Frisco North,TX,75034,(972) 464-5745,33.173703,-96.844525
2,1,Target Stores,4323 San Felipe St,Galleria,TX,77027,(713) 960-9608,29.740582,-95.4515725
2,1,Target Stores,6128 Broadway St,Galveston,TX,77551,(409) 740-0102,29.290677,-94.840335
2,1,Target Stores,5301 N Garland Ave,Garland East,TX,75040,(972) 535-0252,32.9654371,-96.646275
2,1,Target Stores,1021 W University Ste B3,Georgetown,TX,78628,(512) 869-3163,30.6304437,-97.6984868
2,1,Target Stores,554 W Interstate 20,Grand Prairie,TX,75052,(972) 642-4719,32.6781189,-97.0099977
2,1,Target Stores,5270 S State Highway 360,Grand Prairie S,TX,75052,(469) 348-2100,32.643066,-97.060469
2,1,Target Stores,1101 Ira E Woods Ave,Grapevine,TX,76051,(817) 488-1800,32.930932,-97.087481
2,1,Target Stores,201 E Central Texas Expy Suite 300,Harker Heights,TX,76548,(254) 953-5880,31.0759317,-97.6658546
2,1,Target Stores,1002 Dixieland Rd,Harlingen,TX,78552,(956) 421-4900,26.182768,-97.721997
2,1,Target Stores,2580 Shearn St,Houston Central,TX,77007,(713) 331-0376,29.774307,-95.384834
2,1,Target Stores,2700 Eldridge Pkwy,Houston Far West,TX,77082,(281) 810-5251,29.732919,-95.626621
2,1,Target Stores,984 Gessner Rd,Houston Memorial,TX,77024,(713) 300-0227,29.7690917,-95.5984925
2,1,Target Stores,300 Meyerland Plaza Mall,Houston Meyerland,TX,77096,(713) 292-0030,29.6699914,-95.4830243
2,1,Target Stores,19511 I H 45,Houston North Central,TX,77388,(281) 288-2043,30.9709596,-95.887964
2,1,Target Stores,13250 Northwest Fwy,Houston NW,TX,77040,(713) 939-7878,29.848997,-95.502387
2,1,Target Stores,8503 S Sam Houston Pkwy E,Houston South,TX,77075,(713) 343-8300,29.6211025,-95.2632201
2,1,Target Stores,8500 S Main St,Houston South Central,TX,77025,(713) 666-0967,29.692454,-95.41864
2,1,Target Stores,14302 FM 2920 Rd,Houston Tomball North,TX,77377,(281) 255-6820,30.0712446,-95.6773512
2,1,Target Stores,20777 Hwy 59 N,Humble,TX,77338,(281) 446-1081,30.018891,-95.267979
2,1,Target Stores,259 Interstate 45 S,Huntsville,TX,77340,(936) 649-3073,30.706753,-95.5666749
2,1,Target Stores,1400 Precinct Line Rd,Hurst,TX,76053,(817) 282-8808,32.836462,-97.183806
2,1,Target Stores,3333 W Airport Fwy,Irving,TX,75062,(972) 252-9888,32.839211,-96.990756
2,1,Target Stores,7845 N Macarthur Blvd,Irving North,TX,75063,(972) 506-9924,32.9135769,-96.9612329
2,1,Target Stores,19955 Katy Fwy,Katy,TX,77094,(281) 647-9191,29.786561,-95.7018329
2,1,Target Stores,23710 Westheimer Pkwy,Katy West,TX,77494,(281) 392-8331,29.735795,-95.776224
2,1,Target Stores,5188 Kyle Center Dr,Kyle,TX,78640,(512) 268-7550,30.0113161,-97.8640192
2,1,Target Stores,17502 Lacantera Pkwy,La Cantera,TX,78257,(210) 247-0113,29.6610688,-98.5830907
2,1,Target Stores,202 Highway 332 W,Lake Jackson,TX,77566,(979) 299-0009,29.006936,-95.393987
2,1,Target Stores,6604 Lake Worth Blvd,Lake Worth,TX,76135,(817) 302-0083,32.8111172,-97.4295412
2,1,Target Stores,7501 San Dario Ave,Laredo,TX,78045,(956) 722-6800,27.569536,-99.5000512
2,1,Target Stores,1910 Bob Bullock Loop,Laredo East,TX,78043,(956) 718-3220,27.515786,-99.451575
2,1,Target Stores,1801 Gulf FWY,League City,TX,77539,(281) 534-5420,29.4660841,-95.0849229
2,1,Target Stores,4760 State Highway 121,Lewisville,TX,75056,(469) 287-0346,33.06435,-96.884792
2,1,Target Stores,3092 N Eastman Rd Ste 100,Longview,TX,75605,(903) 323-5000,32.5475475,-94.7274566
2,1,Target Stores,9440 Marsh Ln,Love Field,TX,75220,(214) 357-3980,32.8621631,-96.8726295
2,1,Target Stores,7302 University Ave,Lubbock,TX,79423,(806) 745-7579,33.528265,-101.872224
2,1,Target Stores,6064 Marsha Sharp Freeway,Lubbock West,TX,79407,(806) 788-3600,33.548015,-101.952789
2,1,Target Stores,4200 S Medford Dr,Lufkin,TX,75901,(936) 637-3000,31.31402,-94.719837
2,1,Target Stores,1801 Highway 287 N,Mansfield,TX,76063,(817) 453-0005,32.589204,-97.1606305
2,1,Target Stores,708 E Expressway 83,McAllen,TX,78503,(956) 682-2611,26.186689,-98.213364
2,1,Target Stores,7400 N 10th St,McAllen North,TX,78504,(956) 994-1815,26.2688929,-98.216657
2,1,Target Stores,3600 Nolana Ave,McAllen Northwest,TX,78504,(956) 618-7700,26.244331,-98.253932
2,1,Target Stores,2025 N Central Expy,McKinney,TX,75070,(469) 525-4974,33.2198753,-96.6355399
2,1,Target Stores,8900 State Highway 121,McKinney SW,TX,75070,(972) 439-3397,33.12887,-96.730729
2,1,Target Stores,212 Medallion Shp Ctr,Medallion,TX,75214,(214) 361-2026,32.824251,-96.7440467
2,1,Target Stores,1629 N Town East Blvd,Mesquite,TX,75150,(214) 302-2960,32.8128782,-96.6213324
2,1,Target Stores,4001 N Midland Dr,Midland,TX,79707,(432) 699-7500,32.023748,-102.145082
2,1,Target Stores,2427 E Expressway 83,Mission,TX,78572,(956) 928-7280,26.1958018,-98.2840396
2,1,Target Stores,6000 Highway 6,Missouri City,TX,77459,(281) 403-6662,29.4773092,-95.5302337
2,1,Target Stores,135 Creekside Way,New Braunfels,TX,78130,(830) 608-3280,29.7313838,-98.0735993
2,1,Target Stores,13131 Montfort Dr,North Dallas,TX,75240,(972) 239-8161,32.927831,-96.812811
2,1,Target Stores,16731 Coit Rd,North Dallas Coit Road,TX,75248,(214) 775-0206,33.0962076,-96.7715022
2,1,Target Stores,8532 Davis Blvd,North Richland Hills,TX,76182,(817) 503-0548,32.908266,-97.188075
2,1,Target Stores,12621 W IH 10,NW San Antonio,TX,78230,(210) 690-2222,29.559957,-98.587922
2,1,Target Stores,3909 E 42nd St,Odessa,TX,79762,(432) 366-0398,31.892123,-102.347475
2,1,Target Stores,746 NW Loop 410,Park North,TX,78216,(210) 424-2301,29.516926,-98.50516
2,1,Target Stores,5757 Fairmont Pkwy,Pasadena,TX,77505,(281) 504-0143,29.651981,-95.1528979
2,1,Target Stores,3045 Silverlake Village St,Pearland,TX,77584,(713) 436-4892,29.5538416,-95.3855435
2,1,Target Stores,18700 Limestone Commercial Dr,Pflugerville,TX,78660,(512) 687-2064,30.466934,-97.598769
2,1,Target Stores,120 W Parker Rd,Plano,TX,75075,(972) 424-9575,33.037442,-96.7077319
2,1,Target Stores,2200 Dallas Pkwy,Plano West,TX,75093,(972) 781-6587,33.030363,-96.827055
2,1,Target Stores,3100 Highway 365 Ste 90,Port Arthur,TX,77642,(409) 729-3201,29.949303,-93.989525
2,1,Target Stores,601 S Plano Rd,Richardson Sq Mall,TX,75081,(214) 530-0183,32.9559018,-96.6958939
2,1,Target Stores,751 Alta Mere Dr,Ridgmar,TX,76116,(817) 566-0565,32.748834,-97.432449
2,1,Target Stores,850 Steger Towne Rd,Rockwall,TX,75032,(972) 772-0894,32.8934162,-96.4692276
2,1,Target Stores,23912 Commercial Dr,Rosenberg,TX,77471,(281) 232-1240,29.548776,-95.751705
2,1,Target Stores,121 Louis Henna Blvd,Round Rock,TX,78664,(512) 246-7677,30.4795425,-97.6691008
2,1,Target Stores,4701 Lakeview Pkwy,Rowlett,TX,75088,(972) 265-6060,32.908923,-96.55791
2,1,Target Stores,4235 Sunset Dr,San Angelo,TX,76904,(325) 949-5555,31.431041,-100.5003541
2,1,Target Stores,5355 W Loop 1604 N,San Antonio Culebra,TX,78253,(210) 424-1910,29.5163897,-98.7620968
2,1,Target Stores,7014 FM 78,San Antonio Far E,TX,78244,(210) 424-3004,29.4747162,-98.3471781
2,1,Target Stores,8234 Agora Pkwy,San Antonio NE,TX,78154,(210) 945-9102,29.568796,-98.327309
2,1,Target Stores,18255 Blanco Rd  ,San Antonio North,TX,78258,(210) 764-7876,29.612002,-98.510176
2,1,Target Stores,3227 SE Military Dr,San Antonio SE,TX,78223,(210) 247-0082,29.353523,-98.436046
2,1,Target Stores,11311 Bandera Rd,San Antonio West,TX,78250,(210) 682-2253,29.548052,-98.663425
2,1,Target Stores,8223 State Highway 151,San Antonio Westover,TX,78245,(210) 247-0016,29.4344264,-98.6468455
2,1,Target Stores,700 Barnes Dr,San Marcos,TX,78666,(512) 392-7960,29.8495552,-97.9640518
2,1,Target Stores,4160 Town Center Road,Sherman,TX,75092,(903) 892-4465,33.6928534,-96.7884441
2,1,Target Stores,12701 FM 1960 Rd W,Steeplechase,TX,77065,(281) 949-2219,29.9159852,-95.6163942
2,1,Target Stores,22832 US Highway 281N,Stone Oak,TX,78258,(210) 679-2368,29.6535518,-98.4492168
2,1,Target Stores,16300 Southwest Fwy,Sugar Land,TX,77479,(281) 340-0550,29.596359,-95.6275442
2,1,Target Stores,2810 SW Military Dr,SW Military Drive,TX,78224,(210) 977-8552,32.7685787,-96.6731276
2,1,Target Stores,3550 S General Bruce Dr,Temple,TX,76504,(254) 295-1057,31.092895,-97.386929
2,1,Target Stores,102 Richmond Ranch Rd,Texarkana,TX,75503,(903) 223-0062,33.425125,-94.0476882
2,1,Target Stores,21515 Tomball Pkwy,Tomball Parkway,TX,77070,(281) 655-1427,30.000751,-95.5819775
2,1,Target Stores,7003 S Broadway Ave,Tyler,TX,75703,(903) 939-1900,32.2733647,-95.3094077
2,1,Target Stores,7608 NE Zac Lentz Pkwy,Victoria,TX,77904,(361) 578-3612,28.865658,-96.998938
2,1,Target Stores,725 Hebron Pkwy,Vista Ridge,TX,75057,(972) 459-2605,33.020011,-96.942548
2,1,Target Stores,5401 Bosque Blvd,Waco,TX,76710,(254) 399-0067,31.533355,-97.193417
2,1,Target Stores,8000 Denton Hwy,Watauga,TX,76148,(817) 427-8039,32.889937,-97.256836
2,1,Target Stores,1316 N Highway 77,Waxahachie,TX,75165,(972) 923-8930,32.421763,-96.837789
2,1,Target Stores,122 E Interstate 20,Weatherford,TX,76087,(817) 598-0309,32.7454876,-97.7391355
2,1,Target Stores,10801 Westheimer Rd,Westchase,TX,77042,(713) 782-9950,29.735481,-95.567814
2,1,Target Stores,8605 Westheimer Rd,Westheimer,TX,77063,(713) 331-0373,29.7370277,-95.544455
2,1,Target Stores,32858 FM 2978 Rd,Westwood Village,TX,77354,(281) 296-3049,30.2001196,-95.624767
2,1,Target Stores,4317 Kemp Blvd,Wichita Falls,TX,76308,(940) 691-3310,33.8656138,-98.5358536
2,1,Target Stores,6801 FM 1960 Rd W,Willowbrook,TX,77069,(281) 716-1105,29.96818,-95.5307885
2,1,Target Stores,1100 Lake Woodlands Dr,Woodlands,TX,77380,(281) 364-1281,30.169347,-95.45305
2,1,Target Stores,3440 W FM 544,Wylie,TX,75098,(972) 769-3943,33.009309,-96.593909
2,1,Target Stores,608 W Main St,American Fork,UT,84003,(801) 756-5449,40.378278,-111.815915
2,1,Target Stores,200 N Market Place Dr,Centerville,UT,84014,(801) 292-0071,40.918115,-111.887269
2,1,Target Stores,7025 Park Centre Dr,Fort Union,UT,84121,(801) 255-2292,40.6210656,-111.8171374
2,1,Target Stores,815 W 2000 N,Layton,UT,84041,(801) 773-0287,41.0890717,-111.9812552
2,1,Target Stores,175 W Center St,Orem State Street,UT,84057,(801) 224-6007,40.2954849,-111.6987652
2,1,Target Stores,1135 W Riverdale Rd,Riverdale,UT,84405,(801) 392-1990,41.1754996,-112.0077472
2,1,Target Stores,,Salt Lake City,UT,NA,NA,40.7607793,-111.8910474
2,1,Target Stores,10130 S State St,Sandy South Towne,UT,84070,(801) 255-3301,40.5636093,-111.8908349
2,1,Target Stores,11525 Parkway Plaza Dr,South Jordan,UT,84095,(801) 316-2511,40.541928,-111.978205
2,1,Target Stores,275 S River Rd,St George,UT,84790,(435) 627-2030,37.103207,-113.554226
2,1,Target Stores,6748 Redwood Rd,West Jordan,UT,84084,(801) 565-0006,40.628538,-111.940469
2,1,Target Stores,7779 Jordan Landing Blvd,West Jordan SW,UT,84084,(801) 316-0049,40.610413,-111.984013
2,1,Target Stores,3101 Jefferson Davis Hwy,Alexandria,VA,22305,(703) 706-3840,38.8343465,-77.0494876
2,1,Target Stores,6600 Richmond Hwy,Alexandria Hybla Valley,VA,22306,(703) 253-0018,38.7755859,-77.08266
2,1,Target Stores,16600 Highlands Center Blvd,Bristol,VA,24202,(276) 642-6300,36.6359942,-82.1102903
2,1,Target Stores,14391 Chantilly Crossing Ln,Chantilly,VA,20151,(571) 262-0020,38.8972003,-77.4444727
2,1,Target Stores,312 Connor Dr,Charlottesville,VA,22911,(434) 964-0231,38.12845,-78.441204
2,1,Target Stores,1316 Greenbrier Pkwy,Chesapeake East,VA,23320,(757) 547-1842,36.77146,-76.231522
2,1,Target Stores,233 Carmichael Way,Chesapeake South,VA,23322,(757) 421-6640,36.6584649,-76.2339765
2,1,Target Stores,4200 Portsmouth Blvd,Chesapeake Sq Mall,VA,23321,(757) 465-8400,36.825569,-76.41562
2,1,Target Stores,2530 Weir Rd,Chester,VA,23831,(804) 768-9974,37.3508039,-77.410136
2,1,Target Stores,195 Conston Ave,Christiansburg,VA,24073,(540) 381-9459,37.1572188,-80.4238194
2,1,Target Stores,721 Southpark Blvd,Colonial Heights,VA,23834,(804) 520-0190,37.2500419,-77.3915236
2,1,Target Stores,15341 Montanus Dr,Culpeper,VA,22701,(540) 829-6613,38.486648,-77.9699086
2,1,Target Stores,1550 Holt Garrison Pkwy,Danville,VA,24540,(434) 799-9950,36.5859718,-79.3950228
2,1,Target Stores,4310 Fortuna Center Plz,Dumfries,VA,22025,(703) 586-6132,38.5969778,-77.3327499
2,1,Target Stores,13047 Fair Lakes Shopping Ctr,Fair Lakes,VA,22033,(703) 449-7100,38.8568058,-77.3938728
2,1,Target Stores,10301 New Guinea Rd,Fairfax,VA,22032,(703) 764-5100,38.7988,-77.301142
2,1,Target Stores,6100 Arlington Blvd,Falls Church,VA,22044,(703) 237-8118,38.8683679,-77.1425189
2,1,Target Stores,7107 Forest Hill Ave,Forest Hill,VA,23225,(804) 330-7365,37.5199613,-77.4828366
2,1,Target Stores,1180 Carl D Silver Pkwy,Fredericksburg,VA,22401,(540) 786-6800,38.2991854,-77.5111269
2,1,Target Stores,9785 Jefferson Davis Hwy,Fredericksburg S,VA,22407,(540) 834-1440,38.225606,-77.501292
2,1,Target Stores,10 Crooked Run Plaza,Front Royal,VA,22630,(540) 631-3290,38.963475,-78.193253
2,1,Target Stores,13301 Gateway Center Dr,Gainesville,VA,20155,(571) 261-5052,38.7942391,-77.6069056
2,1,Target Stores,5001 Holt Ave,Hampton,VA,23666,(757) 951-2300,37.0422687,-76.3918685
2,1,Target Stores,1995 E Market St,Harrisonburg,VA,22801,(540) 432-1708,38.4256777,-78.8431555
2,1,Target Stores,1200 Edwards Ferry Rd,Leesburg,VA,20176,(703) 777-8730,39.11565,-77.535529
2,1,Target Stores,4028 Wards Rd,Lynchburg,VA,24502,(434) 239-6163,37.3466983,-79.2112769
2,1,Target Stores,8340 Sudley Rd,Manassas,VA,20109,(703) 392-5630,38.772028,-77.503681
2,1,Target Stores,9900 Sowder Village Sq,Manassas West,VA,20109,(703) 257-6969,38.7393823,-77.5330327
2,1,Target Stores,7235 Bell Creek Rd,Mechanicsville,VA,23111,(804) 559-5802,37.600035,-77.350809
2,1,Target Stores,12130 Jefferson Ave,Newport News,VA,23602,(757) 882-8700,37.107446,-76.492837
2,1,Target Stores,1245 N Military Hwy,Norfolk,VA,23502,(757) 461-9369,36.8655245,-76.2108058
2,1,Target Stores,2460 Prince William Parkway,Potomac Mills,VA,22192,(703) 490-3242,38.6546,-77.288568
2,1,Target Stores,12197 Sunset Hills Rd,Reston,VA,20190,(703) 478-0770,38.9551295,-77.3699921
2,1,Target Stores,4601 Commonwealth Center Pkwy,Richmond Brandermill,VA,23112,(804) 639-0580,37.421005,-77.633712
2,1,Target Stores,5401 W Broad St,Richmond Central,VA,23230,(804) 285-3492,37.5603952,-77.4665136
2,1,Target Stores,4521 S Laburnum Ave,Richmond East,VA,23231,(804) 836-1860,37.5263874,-77.355423
2,1,Target Stores,201 Perimeter Dr,Richmond Far West,VA,23113,(804) 419-8140,37.511275,-77.693214
2,1,Target Stores,9001 Staples Mill Rd,Richmond Near NW,VA,23228,(804) 672-5347,37.639218,-77.5117099
2,1,Target Stores,11290 W Broad St,Richmond NW,VA,23060,(804) 360-8900,37.6524318,-77.6057482
2,1,Target Stores,11301 Midlothian Tpke,Richmond West,VA,23235,(804) 897-5711,37.5035724,-77.6047719
2,1,Target Stores,4737 Valley View Blvd NW,Roanoke,VA,24012,(540) 265-6932,37.2998964,-79.9584275
2,1,Target Stores,5115 Leesburg Pike,Skyline,VA,22041,(703) 253-0021,38.844679,-77.1186542
2,1,Target Stores,6600 Springfield Mall,Springfield,VA,22150,(703) 921-0220,38.776686,-77.173496
2,1,Target Stores,1090 Stafford Market Pl,Stafford,VA,22556,(540) 658-9901,38.469003,-77.40848
2,1,Target Stores,25 S Gateway Dr,Stafford South,VA,22406,(540) 374-4820,38.344491,-77.493757
2,1,Target Stores,46201 Potomac Run Plz,Sterling,VA,20164,(703) 444-8440,39.026099,-77.400369
2,1,Target Stores,45130 Columbia PL,Sterling West,VA,20166,(703) 463-2008,39.008844,-77.438888
2,1,Target Stores,525 First Colonial Rd,Virginia Beach East,VA,23451,(757) 428-0233,36.846536,-76.022349
2,1,Target Stores,2233 Upton Dr,Virginia Beach SE,VA,23454,(757) 430-5100,36.75539,-76.0096499
2,1,Target Stores,2060 S Independence Blvd,Virginia Beach South,VA,23453,(757) 416-1719,36.7883603,-76.1094487
2,1,Target Stores,10100 Brook Rd,Virginia Center Commons,VA,23059,(804) 262-2390,37.6637997,-77.4518278
2,1,Target Stores,811 Town Center Drive,Waynesboro,VA,22980,(540) 941-2280,38.056924,-78.942032
2,1,Target Stores,4630 Monticello Ave,Williamsburg,VA,23188,(757) 258-9794,37.27104,-76.760847
2,1,Target Stores,200 Marquis Pkwy,Williamsburg East,VA,23185,(757) 259-3020,37.25899,-76.641204
2,1,Target Stores,2340 Legge Blvd,Winchester,VA,22601,(540) 535-0220,39.1542828,-78.1718956
2,1,Target Stores,191 Market Street,Winchester North,VA,22603,(540) 545-4960,39.221502,-78.135799
2,1,Target Stores,30 Bellis Fair Pkwy,Bellingham,WA,98226,(360) 734-0220,48.786815,-122.493858
2,1,Target Stores,9400 192nd Ave E,Bonney Lake,WA,98391,(253) 862-5660,47.1722795,-122.1720997
2,1,Target Stores,199 Cascade Mall Dr,Burlington,WA,98233,(360) 757-6737,48.46538,-122.339011
2,1,Target Stores,405 SE Everett Mall Way,Everett,WA,98208,(425) 353-3167,47.9100579,-122.2268252
2,1,Target Stores,4053 Factoria Square Mall SE,Factoria,WA,98006,(425) 562-0830,47.5745664,-122.1724628
2,1,Target Stores,2201 S Commons,Federal Way,WA,98003,(253) 733-7520,47.3133849,-122.3054329
2,1,Target Stores,11400 51st Ave NW,Gig Harbor,WA,98332,(253) 858-9777,47.3613626,-122.6080013
2,1,Target Stores,755 NW Gilman Blvd,Issaquah,WA,98027,(425) 392-3357,47.541885,-122.0507428
2,1,Target Stores,1106 N Columbia Center Blvd,Kennewick,WA,99336,(509) 735-7272,46.2218268,-119.2216692
2,1,Target Stores,26301 104th Ave SE,Kent,WA,98030,(253) 850-9710,47.3663835,-122.203353
2,1,Target Stores,665 Sleater Kinney Rd SE,Lacey,WA,98503,(360) 486-8920,47.0427031,-122.8337649
2,1,Target Stores,9601 Market Pl,Lake Stevens,WA,98258,(425) 397-8144,47.9989468,-122.1012722
2,1,Target Stores,5618 Lakewood Town Center Blvd SW,Lakewood,WA,98499,(253) 581-7171,47.1632549,-122.51138
2,1,Target Stores,205 Three Rivers Dr,Longview,WA,98626,(360) 425-3926,46.142648,-122.899166
2,1,Target Stores,18305 Alderwood Mall Pkwy,Lynnwood,WA,98037,(425) 670-1435,47.8325121,-122.2659677
2,1,Target Stores,16818 Twin Lakes Ave,Marysville,WA,98271,(360) 386-4020,48.1490904,-122.1921975
2,1,Target Stores,9770 N Newport Hwy,North Spokane,WA,99218,(509) 466-3006,47.747788,-117.400047
2,1,Target Stores,3320 S 23rd St,North Tacoma,WA,98405,(253) 627-2112,47.2457073,-122.4773432
2,1,Target Stores,302 NE Northgate Way,Northgate,WA,98125,(206) 494-0897,47.7092687,-122.3246511
2,1,Target Stores,2925 Harrison Ave NW,Olympia,WA,98502,(360) 943-9955,47.044303,-122.937536
2,1,Target Stores,3310 S Meridian,Puyallup,WA,98373,(253) 840-2900,47.1619757,-122.2930595
2,1,Target Stores,10302 156Th St E,Puyallup South,WA,98374,(253) 604-1066,47.1133979,-122.291544
2,1,Target Stores,17700 NE 76th St,Redmond,WA,98052,(425) 556-9533,47.6724526,-122.1036489
2,1,Target Stores,1215 N Landing Way,Renton,WA,98057,(425) 207-0067,47.4964563,-122.2043748
2,1,Target Stores,2941 Queensgate Dr,Richland,WA,99352,(509) 627-7500,46.25852,-119.312585
2,1,Target Stores,3201 NW Randall Way,Silverdale,WA,98383,(360) 692-3966,47.6579679,-122.694232
2,1,Target Stores,301 Strander Blvd,South Center,WA,98188,(206) 575-0682,47.4550982,-122.2585511
2,1,Target Stores,13724 E Sprague Ave,Spokane Valley,WA,99216,(509) 924-8757,47.6567192,-117.2205732
2,1,Target Stores,7809C NE Vancouver Plaza Dr,Vancouver,WA,98662,(360) 253-4324,45.6487775,-122.593223
2,1,Target Stores,16200 SE Mill Plain Blvd,Vancouver East,WA,98684,(360) 449-6420,45.617628,-122.5072398
2,1,Target Stores,8801 NE Hazel Dell Ave,Vancouver NW,WA,98665,(360) 713-0004,45.6861077,-122.6688848
2,1,Target Stores,1102 Springwater St,Wenatchee,WA,98801,(509) 664-5060,47.4379608,-120.3275769
2,1,Target Stores,2800 SW Barton St,West Seattle,WA,98126,(206) 932-1153,47.522045,-122.368749
2,1,Target Stores,13950 NE 178th Pl,Woodinville,WA,98072,(425) 482-6410,47.7586595,-122.1547033
2,1,Target Stores,12 N Fair Ave,Yakima,WA,98901,(509) 248-3314,46.6062133,-120.4901705
2,1,Target Stores,4301 W Wisconsin Ave,Appleton,WI,54913,(920) 731-5566,44.2619309,-88.4153847
2,1,Target Stores,1800 S Kensington Dr,Appleton East,WI,54915,(920) 749-9770,44.245913,-88.357271
2,1,Target Stores,2050 Lime Kiln Rd,Bellevue,WI,54311,(920) 406-0755,44.465748,-87.985911
2,1,Target Stores,2553 Sun Valley Dr,Delafield,WI,53018,(262) 646-5200,43.051473,-88.37782
2,1,Target Stores,3649 S Hastings Way,Eau Claire,WI,54701,(715) 838-0196,44.7809605,-91.4342327
2,1,Target Stores,6321 McKee Road,Fitchburg,WI,53719,(608) 819-1522,43.01348,-89.4824207
2,1,Target Stores,485 N Rolling Meadows Dr,Fond du Lac,WI,54937,(920) 924-0420,43.790581,-88.484885
2,1,Target Stores,7800 S Lovers Lane Rd,Franklin,WI,53132,(414) 448-4000,42.903621,-88.037761
2,1,Target Stores,1250 N Port Washington Rd,Grafton,WI,53024,(262) 375-6395,43.319441,-87.922389
2,1,Target Stores,1001 Cormier Rd,Green Bay West,WI,54304,(920) 499-0494,44.490464,-88.070957
2,1,Target Stores,4777 S 27th St,Greenfield,WI,53221,(414) 282-1000,42.956816,-87.951212
2,1,Target Stores,2401 Coulee Rd,Hudson,WI,54016,(715) 381-0469,44.965517,-92.723687
2,1,Target Stores,2017 Humes Rd,Janesville,WI,53545,(608) 754-8331,42.7220931,-88.9983257
2,1,Target Stores,4085 State Highway 28,Kohler,WI,53085,(920) 451-6802,43.7391616,-87.7817541
2,1,Target Stores,9400 State Road 16,LaCrosse,WI,54650,(608) 781-8050,43.9083438,-91.2409799
2,1,Target Stores,660 N Edwards Blvd,Lake Geneva,WI,53147,(262) 248-5610,42.5981759,-88.4156999
2,1,Target Stores,4301 Lien Rd,Madison East,WI,53704,(608) 244-4527,43.1193998,-89.3066659
2,1,Target Stores,201 Junction Rd,Madison West,WI,53717,(608) 827-8800,43.0622359,-89.5246357
2,1,Target Stores,1708 N Central Ave,Marshfield,WI,54449,(715) 389-2020,44.6836937,-90.1619261
2,1,Target Stores,N95 W 17707 Shady Ln,Menomonee Falls,WI,53051,(262) 255-6119,43.176483,-88.12342
2,1,Target Stores,2950 S Chase Ave,Milwaukee Chase,WI,53207,(414) 483-2000,42.9712071,-87.9040571
2,1,Target Stores,4798 S Moorland Rd,New Berlin,WI,53151,(262) 207-0013,42.958046,-88.107617
2,1,Target Stores,8501 W Brown Deer Rd,Northridge,WI,53224,(414) 355-6000,43.1762469,-88.015474
2,1,Target Stores,8989 S Howell Ave,Oak Creek,WI,53154,(414) 216-0001,42.882092,-87.915333
2,1,Target Stores,1900 S Koeller St,Oshkosh,WI,54902,(920) 426-5003,43.9985089,-88.5789981
2,1,Target Stores,9777 76th St,Pleasant Prairie,WI,53158,(262) 842-1170,42.564128,-87.9287152
2,1,Target Stores,5300 Durand Ave,Racine,WI,53406,(262) 554-6998,42.6988973,-87.8436273
2,1,Target Stores,5300 US Highway 10 E,Stevens Point,WI,54481,(715) 341-8790,44.5245,-89.523
2,1,Target Stores,410 S Ashland Ave,Sturgeon Bay,WI,54235,(920) 743-5775,44.823632,-87.403441
2,1,Target Stores,660 South Grand Ave,Sun Prairie,WI,53590,(608) 834-5600,43.170627,-89.267925
2,1,Target Stores,3535 Tower Ave,Superior,WI,54880,(715) 392-9791,46.6973392,-92.1041144
2,1,Target Stores,2401 Kossow Rd,Waukesha,WI,53186,(262) 784-8646,43.034193,-88.177522
2,1,Target Stores,1250 W Sunset Dr,Waukesha South,WI,53189,(262) 832-1272,42.989691,-88.258892
2,1,Target Stores,2707 Schofield Ave,Wausau,WI,54476,(715) 355-4494,44.9066649,-89.591735
2,1,Target Stores,3900 N 124th St,Wauwatosa,WI,53222,(414) 847-1100,43.0872118,-88.0660567
2,1,Target Stores,2600 S 108th St,West Allis,WI,53227,(414) 545-8000,42.9967385,-88.0467134
2,1,Target Stores,1501 Miller Park Way,West Milwaukee,WI,53214,(414) 203-0106,43.0151609,-87.9701502
2,1,Target Stores,2070 Thundering Herd Rd,Barboursville,WV,25504,(304) 736-7767,38.419897,-82.284628
2,1,Target Stores,2800 Meadowbrook Mall,Bridgeport,WV,26330,(304) 842-7770,39.3112286,-80.2737673
2,1,Target Stores,30 Rhl Blvd,Charleston,WV,25309,(304) 746-5445,38.3386582,-81.7146461
2,1,Target Stores,436 Retail Commons Pkwy,Martinsburg,WV,25403,(304) 264-5200,39.4375711,-77.9929593
2,1,Target Stores,5001 University Towne Center Dr,Morgantown,WV,26501,(304) 599-1072,39.6503157,-80.0030125
2,1,Target Stores,300 Cabela Dr,Wheeling,WV,26059,(304) 547-2980,40.05647,-80.598523
2,1,Target Stores,401 SE Wyoming Blvd,Casper,WY,82609,(307) 265-8214,42.847325,-106.263975
2,1,Target Stores,1708 Dell Range Blvd,Cheyenne,WY,82009,(307) 637-8888,41.161671,-104.80014
